{"type":"FeatureCollection","name":"BR-222","features":[{"type":"Feature","properties":{"full_id":"r3941214","osm_id":"3941214","osm_type":"relation","ref":"BR-222","type":"route","to":"Marabá","route":"road","network":"BR","from":"Fortaleza"},"geometry":{"type":"MultiLineString","coordinates":[[[-38.6644885,-3.7691315],[-38.6645674,-3.7689903],[-38.6651433,-3.7679912],[-38.6656423,-3.7671181],[-38.6659285,-3.7666011],[-38.6663114,-3.7659755],[-38.6664697,-3.7657748],[-38.6666794,-3.7655702],[-38.6668197,-3.7654469],[-38.6670068,-3.765301],[-38.6671553,-3.7652204],[-38.6672549,-3.7651726],[-38.6673588,-3.7651257],[-38.6675432,-3.7650682],[-38.6679013,-3.7649932],[-38.6686557,-3.7648594],[-38.6691177,-3.7647885],[-38.6691939,-3.7647758],[-38.6696166,-3.7647055],[-38.6709765,-3.7644713],[-38.6725979,-3.7641729],[-38.6727709,-3.7641421],[-38.6741278,-3.7638989],[-38.6751393,-3.7637252],[-38.6756998,-3.7636216],[-38.6762966,-3.7635132],[-38.6781433,-3.763184],[-38.6816905,-3.7625577],[-38.6846571,-3.7620264],[-38.6849736,-3.7619676],[-38.6874318,-3.7615473],[-38.6902066,-3.7610468],[-38.6916114,-3.7607953],[-38.6931798,-3.7605049],[-38.6945625,-3.760252],[-38.6958077,-3.7600244],[-38.6960654,-3.7599777],[-38.6963321,-3.7599294],[-38.6974351,-3.7597501],[-38.6982331,-3.7596056],[-38.6984986,-3.7595521],[-38.6988553,-3.759457],[-38.6994401,-3.7592871],[-38.6998652,-3.7591332],[-38.7003795,-3.7589251],[-38.7007704,-3.7587464],[-38.7013552,-3.7584514],[-38.7032676,-3.7574484],[-38.7039086,-3.7571165],[-38.7045497,-3.7567779],[-38.7045686,-3.7567695],[-38.7056065,-3.7562346],[-38.7072265,-3.7553996],[-38.7088949,-3.7545458],[-38.7100607,-3.7539436],[-38.7112384,-3.7533447],[-38.7123039,-3.752798],[-38.7137215,-3.7520634],[-38.713916,-3.7519647]],[[-38.6849736,-3.7619676],[-38.6874318,-3.7615473],[-38.6902066,-3.7610468],[-38.6916114,-3.7607953],[-38.6931798,-3.7605049],[-38.6945625,-3.760252],[-38.6958077,-3.7600244],[-38.6960654,-3.7599777],[-38.6963321,-3.7599294],[-38.6974351,-3.7597501],[-38.6982331,-3.7596056],[-38.6984986,-3.7595521],[-38.6988553,-3.759457],[-38.6994401,-3.7592871],[-38.6998652,-3.7591332],[-38.7003795,-3.7589251],[-38.7007704,-3.7587464],[-38.7013552,-3.7584514],[-38.7032676,-3.7574484],[-38.7039086,-3.7571165],[-38.7045497,-3.7567779],[-38.7045686,-3.7567695],[-38.7056065,-3.7562346],[-38.7072265,-3.7553996],[-38.7088949,-3.7545458],[-38.7100607,-3.7539436],[-38.7112384,-3.7533447],[-38.7123039,-3.752798],[-38.7137215,-3.7520634],[-38.713916,-3.7519647]],[[-44.5840588,-3.5661939],[-44.583809,-3.5667025],[-44.5835122,-3.567308],[-44.5834133,-3.5675037],[-44.5832123,-3.567929],[-44.5831464,-3.5680684],[-44.582728,-3.5689235],[-44.5825827,-3.5692114],[-44.5825325,-3.5693093],[-44.5822319,-3.5699097],[-44.5821526,-3.5700851],[-44.5820199,-3.5703617],[-44.5819063,-3.5705984],[-44.5817581,-3.5708956],[-44.5812763,-3.571873]],[[-44.5737501,-3.54473],[-44.5746955,-3.5451249],[-44.5764712,-3.545883],[-44.5778391,-3.5464661],[-44.5782763,-3.5466628],[-44.5785807,-3.5468261],[-44.5788328,-3.5469801],[-44.5791949,-3.5472424],[-44.5794578,-3.5474619],[-44.5796831,-3.5476748],[-44.5799567,-3.5479759],[-44.5802169,-3.5483052],[-44.5804569,-3.5486332],[-44.5806088,-3.5488891],[-44.5810278,-3.5497053],[-44.5811567,-3.549967],[-44.5819281,-3.551515],[-44.5821531,-3.551991],[-44.5824069,-3.5524707],[-44.5826207,-3.5529061],[-44.5826596,-3.5529852],[-44.5827639,-3.55319],[-44.5829739,-3.5536022],[-44.5833485,-3.5543374],[-44.5833725,-3.5543846],[-44.5834145,-3.5544672],[-44.5834322,-3.5545029],[-44.5839352,-3.5555032],[-44.5841652,-3.5559639],[-44.5845325,-3.5566876],[-44.5850369,-3.5576816],[-44.5850847,-3.5577762],[-44.5856858,-3.5589656],[-44.5858723,-3.55932],[-44.5860386,-3.5596685],[-44.5861271,-3.559854],[-44.5862138,-3.5601157],[-44.5862907,-3.5604256],[-44.5863259,-3.5607124],[-44.5863316,-3.5609518],[-44.5863029,-3.5612704],[-44.5862508,-3.561533],[-44.5861935,-3.5617387],[-44.5861157,-3.5619803],[-44.5860735,-3.5620793],[-44.5860037,-3.5622406],[-44.585945,-3.5623679],[-44.585879,-3.562511],[-44.5857752,-3.5627189],[-44.5856123,-3.5630679],[-44.5852222,-3.5638591],[-44.5850665,-3.5641642],[-44.5849821,-3.5643334],[-44.5848916,-3.5645132],[-44.5846658,-3.564962],[-44.5845977,-3.5650991],[-44.58451,-3.5652872],[-44.584425,-3.5654646],[-44.5843971,-3.5656431],[-44.5843582,-3.5658265],[-44.5843166,-3.5660165],[-44.5842965,-3.5661347],[-44.5842817,-3.5662213],[-44.5842442,-3.5664663],[-44.584216,-3.5667152],[-44.5841946,-3.5669267],[-44.5841725,-3.567397],[-44.5841758,-3.5676388],[-44.5841959,-3.5678811],[-44.5842375,-3.5682211],[-44.5842871,-3.5684834],[-44.5843542,-3.5687618],[-44.5844346,-3.5690871],[-44.5845124,-3.5693414],[-44.5845862,-3.5695582],[-44.5846277,-3.5696693],[-44.5846827,-3.5697884],[-44.5848035,-3.5700116],[-44.5849647,-3.570318],[-44.5852855,-3.5708372],[-44.5856428,-3.5713259],[-44.5852365,-3.5710122],[-44.585194,-3.5709891],[-44.585012,-3.5708902],[-44.5847732,-3.570786],[-44.5843559,-3.5706252],[-44.5841587,-3.5705808],[-44.5840074,-3.5705615],[-44.5835476,-3.5705483],[-44.5834963,-3.5705624],[-44.5834153,-3.5705753],[-44.5833329,-3.5705858],[-44.5830628,-3.5706315],[-44.5828073,-3.5707062],[-44.5824246,-3.5708636],[-44.5822628,-3.5709581],[-44.5820579,-3.5710868],[-44.5817867,-3.5713111],[-44.581573,-3.5715086],[-44.5812763,-3.571873]],[[-44.5856428,-3.5713259],[-44.5864932,-3.5722199],[-44.5868061,-3.5725488],[-44.5882699,-3.5740878],[-44.5886927,-3.5744691],[-44.5891649,-3.5748135],[-44.5894953,-3.5750119],[-44.589875,-3.5752009],[-44.5903789,-3.5753987],[-44.5909921,-3.5755929],[-44.59268,-3.5760851],[-44.5957158,-3.5769661],[-44.5962676,-3.5771168],[-44.5967912,-3.577223],[-44.5974342,-3.5773196],[-44.5980124,-3.5773471],[-44.598684,-3.5773559],[-44.6010585,-3.5773],[-44.6098486,-3.5770578],[-44.6155456,-3.5768892],[-44.6159533,-3.5769025],[-44.6163985,-3.5769534],[-44.6169135,-3.5770444],[-44.6174553,-3.5771676],[-44.617871,-3.5772907],[-44.6184115,-3.5774754],[-44.6192417,-3.5778127],[-44.620214,-3.5782022],[-44.6234259,-3.5795086],[-44.6266741,-3.5808123],[-44.6275377,-3.5811616],[-44.6300107,-3.5821655],[-44.6368235,-3.5849228],[-44.6373948,-3.5851235],[-44.637816,-3.5852279],[-44.6383873,-3.5853457],[-44.6389183,-3.5854153],[-44.6394655,-3.5854635],[-44.6400341,-3.5854822],[-44.640474,-3.5854555],[-44.6408737,-3.5854046],[-44.6415147,-3.5852922],[-44.6420351,-3.5851824],[-44.6424589,-3.5850486],[-44.6429846,-3.5848558],[-44.6438576,-3.584552],[-44.6441701,-3.5844409],[-44.6453168,-3.5840287],[-44.6464258,-3.5836298],[-44.6476543,-3.5831854],[-44.6491912,-3.5826527],[-44.6506651,-3.5821253],[-44.6516575,-3.5817813],[-44.6524957,-3.5814829],[-44.6528672,-3.5813517],[-44.6543692,-3.580835],[-44.6548587,-3.5806691],[-44.6557063,-3.5803612],[-44.6574175,-3.5797509],[-44.6590108,-3.5791753],[-44.6619719,-3.5781581]],[[-44.5825325,-3.5693093],[-44.5825323,-3.5693616],[-44.5825231,-3.5695272],[-44.5825225,-3.569693],[-44.58255,-3.5698179],[-44.5826023,-3.5699247],[-44.5827257,-3.5700929],[-44.5828437,-3.5701932],[-44.5829532,-3.5702862],[-44.5829932,-3.5703169],[-44.5830335,-3.570342],[-44.58309,-3.5703772],[-44.5832406,-3.5704471],[-44.5833503,-3.570489],[-44.583457,-3.5705183],[-44.5835476,-3.5705483]],[[-44.7730955,-3.4666419],[-44.7721456,-3.468172],[-44.7692324,-3.47282],[-44.7679044,-3.4749512],[-44.7676026,-3.4756256],[-44.7674725,-3.4759573],[-44.7665823,-3.4797898],[-44.7662031,-3.4817167],[-44.766158,-3.4824175],[-44.7662416,-3.4831182],[-44.7668665,-3.4901842],[-44.7667993,-3.4912005],[-44.766357,-3.4924675],[-44.76578,-3.4937346],[-44.7614145,-3.5030736],[-44.7608862,-3.5042006],[-44.7532205,-3.5205534],[-44.7524299,-3.5222551],[-44.7515071,-3.5242414],[-44.7508096,-3.5257427],[-44.7504729,-3.5264833],[-44.7501227,-3.5272212],[-44.7499063,-3.5276869],[-44.7497799,-3.5279589],[-44.7487473,-3.5301816],[-44.7481174,-3.5315373],[-44.7476681,-3.5325043],[-44.74721,-3.5334817],[-44.7468252,-3.5343187],[-44.7467274,-3.5345291],[-44.7462353,-3.5355884],[-44.7452554,-3.5376975],[-44.7451521,-3.5379198],[-44.7447175,-3.5388767],[-44.7446051,-3.5391243],[-44.7444683,-3.539383],[-44.7419633,-3.5447696],[-44.7413547,-3.54612],[-44.7408989,-3.5470087],[-44.7403314,-3.547845],[-44.739855,-3.5484671],[-44.7393213,-3.5490002],[-44.7389565,-3.5493219],[-44.7384684,-3.5497135],[-44.7375895,-3.5502464],[-44.7369949,-3.5505544],[-44.7363242,-3.5508424],[-44.735461,-3.5511631],[-44.7267745,-3.5543206],[-44.7177207,-3.5576967],[-44.7164717,-3.5581688],[-44.7147846,-3.5587953],[-44.7126067,-3.5596037],[-44.7113085,-3.5600802],[-44.7104253,-3.560428],[-44.7101256,-3.5605353],[-44.7095432,-3.5607437],[-44.708983,-3.5609449],[-44.7085673,-3.5611296],[-44.7082092,-3.5613304],[-44.7079597,-3.5614776],[-44.7063223,-3.5625565],[-44.7059172,-3.5628215],[-44.7045976,-3.5637585],[-44.7040612,-3.5641359],[-44.7031626,-3.5647302],[-44.7009525,-3.5662481],[-44.6990642,-3.5675572],[-44.6977392,-3.5684673],[-44.6967499,-3.5691625],[-44.6966998,-3.5691993],[-44.6933635,-3.5714432],[-44.6927398,-3.571777],[-44.691996,-3.5720811],[-44.6913461,-3.5722588],[-44.6903901,-3.572463],[-44.6897284,-3.5725882],[-44.6890453,-3.5727015],[-44.6875292,-3.5729499],[-44.6857658,-3.5732513],[-44.6834297,-3.5736506],[-44.683288,-3.5736748],[-44.6823576,-3.5738338],[-44.6821649,-3.5738667],[-44.6813623,-3.5740039],[-44.6812253,-3.5740273],[-44.6806634,-3.5741233],[-44.6799497,-3.5742544],[-44.6794828,-3.5743244],[-44.6744402,-3.575187],[-44.6673315,-3.5764129],[-44.6663889,-3.5766196],[-44.6658397,-3.5768035],[-44.663769,-3.5775316],[-44.6619719,-3.5781581]],[[-44.7730955,-3.4666419],[-44.7734324,-3.4661233],[-44.7738603,-3.46543],[-44.7745668,-3.4643037],[-44.7748381,-3.4638501],[-44.7751023,-3.4634573],[-44.7753322,-3.4632095],[-44.7754209,-3.4631108],[-44.7754642,-3.4630608],[-44.7756621,-3.4628587],[-44.7757381,-3.4627968],[-44.7760758,-3.4624946],[-44.7761663,-3.462425],[-44.7764164,-3.4622469],[-44.7765407,-3.4621728],[-44.776808,-3.462014],[-44.7769603,-3.4619215],[-44.7771024,-3.4618473],[-44.7773375,-3.4617456],[-44.7776328,-3.4616285],[-44.7777795,-3.4615807],[-44.7780852,-3.4614867],[-44.7781706,-3.4614672],[-44.7782927,-3.4614354],[-44.7784262,-3.461405],[-44.778701,-3.46134],[-44.7790436,-3.461263],[-44.7796293,-3.4611388]],[[-44.8691364,-3.4571567],[-44.8692155,-3.4572116],[-44.8693684,-3.457395],[-44.869831,-3.4579981],[-44.8702683,-3.458591],[-44.8708436,-3.4593796],[-44.8710863,-3.4597088],[-44.8712825,-3.4599702],[-44.871609,-3.4603818],[-44.8720763,-3.4610154],[-44.8724174,-3.4614516],[-44.8724878,-3.4615522],[-44.8725542,-3.4616693],[-44.8726159,-3.4618319],[-44.8726662,-3.4620113],[-44.8727433,-3.4622998],[-44.8727694,-3.4624196],[-44.8728076,-3.4626659],[-44.8728371,-3.4629243],[-44.8728465,-3.463107],[-44.8728492,-3.4635227],[-44.8728351,-3.4642322],[-44.8728063,-3.4648138],[-44.8727689,-3.465613],[-44.8727313,-3.4665293],[-44.8726792,-3.4678259],[-44.8726649,-3.4681393],[-44.8726528,-3.4683324],[-44.872621,-3.46892],[-44.8725919,-3.4696022],[-44.8725591,-3.4698519],[-44.8724428,-3.470308],[-44.8724442,-3.470149],[-44.8724516,-3.4698632],[-44.8724596,-3.4695627],[-44.8725025,-3.4687287],[-44.8725345,-3.4681055],[-44.8725915,-3.466795],[-44.8726612,-3.4656104],[-44.8726605,-3.4655798],[-44.872682,-3.4650816],[-44.8726964,-3.4648043],[-44.8727256,-3.4642335],[-44.8727413,-3.4639805],[-44.8727708,-3.4633339],[-44.8727775,-3.4631686],[-44.8727667,-3.4628989],[-44.872752,-3.4626873],[-44.8727389,-3.462591],[-44.8727174,-3.4624782],[-44.872692,-3.4623614],[-44.8726541,-3.4622155],[-44.8726243,-3.4621099],[-44.8725786,-3.4619722],[-44.8725421,-3.4618818],[-44.8724522,-3.4616947],[-44.8723859,-3.4615823],[-44.8722658,-3.4614062],[-44.8720658,-3.4611519],[-44.8719978,-3.4610671],[-44.8719322,-3.460983],[-44.8715644,-3.4604638],[-44.8713519,-3.4602008],[-44.8710971,-3.4598668],[-44.8708543,-3.4595475],[-44.8705539,-3.4591493],[-44.8701113,-3.4585562],[-44.8696621,-3.4579552],[-44.8692986,-3.4574572],[-44.8691712,-3.4572484],[-44.8691364,-3.4571567],[-44.8690532,-3.4570516],[-44.868909,-3.4568729],[-44.8687495,-3.4566754],[-44.8686495,-3.4565563],[-44.868148,-3.4558789],[-44.8678529,-3.455555],[-44.8675203,-3.4553247],[-44.8671153,-3.4551507],[-44.8667559,-3.4550463],[-44.8656347,-3.4547999],[-44.8635829,-3.4543314],[-44.8619467,-3.4539673],[-44.8594536,-3.4534198],[-44.8555926,-3.4525349],[-44.8547247,-3.4523519],[-44.8539162,-3.4521815],[-44.8536506,-3.4521173],[-44.8516604,-3.4516742],[-44.8499622,-3.451288],[-44.8494999,-3.4511829],[-44.846642,-3.4505483],[-44.8432745,-3.449808],[-44.8398922,-3.449049],[-44.8386329,-3.4487599],[-44.8376633,-3.448555],[-44.8373106,-3.4485109],[-44.8369566,-3.4484895],[-44.8366736,-3.4484868],[-44.8363209,-3.4484868],[-44.8359226,-3.4485202],[-44.8354626,-3.4485979],[-44.833923,-3.4489459],[-44.8336132,-3.4490089],[-44.8316056,-3.4494734],[-44.8302685,-3.4497853],[-44.8297459,-3.4499006],[-44.8289636,-3.4500731],[-44.8258147,-3.4507706],[-44.8227006,-3.451464],[-44.8196315,-3.4521795],[-44.815055,-3.4531976],[-44.8105717,-3.4542109],[-44.8059502,-3.4552364],[-44.8051566,-3.4554133],[-44.8028434,-3.4559289],[-44.8000534,-3.4565509],[-44.7976183,-3.4571006],[-44.7962795,-3.4574117],[-44.7912115,-3.4585469],[-44.7887358,-3.4590971],[-44.7851658,-3.4598815],[-44.7831072,-3.4603447],[-44.7829275,-3.4603835],[-44.7816608,-3.4606747],[-44.7806463,-3.460923],[-44.7796293,-3.4611388]],[[-38.6635508,-3.7665409],[-38.6638524,-3.7667143],[-38.6640902,-3.7668384],[-38.66473,-3.7671724],[-38.665107,-3.7673617],[-38.6651786,-3.7673988],[-38.6657522,-3.7676924],[-38.6660352,-3.7678391],[-38.6663047,-3.7679788],[-38.6677641,-3.7687016],[-38.6690881,-3.7693645],[-38.6696126,-3.7696368],[-38.6696937,-3.7696857],[-38.669803,-3.7697472],[-38.6698669,-3.7698569],[-38.6698043,-3.7698516],[-38.6697399,-3.7698412],[-38.6696236,-3.7697733],[-38.6692079,-3.7695369],[-38.6679664,-3.7689082],[-38.667735,-3.7688085],[-38.667369,-3.7686236],[-38.6668068,-3.7683335],[-38.6662563,-3.7680543],[-38.6657496,-3.7678019],[-38.665718,-3.7677845],[-38.6651376,-3.7674927],[-38.6651005,-3.7674763],[-38.6646676,-3.7672445],[-38.6635986,-3.7666978],[-38.6629091,-3.7663432],[-38.6628681,-3.7663221],[-38.6618529,-3.7657975],[-38.6603093,-3.765008],[-38.6585753,-3.7640578],[-38.6582454,-3.7638905],[-38.6564268,-3.762998],[-38.6560982,-3.762834],[-38.6553647,-3.7624627],[-38.6544366,-3.7619809],[-38.6528273,-3.7611566],[-38.6521366,-3.7608247],[-38.6494545,-3.7594496],[-38.6492016,-3.7593179],[-38.6490004,-3.7592158],[-38.6482334,-3.7588167],[-38.6470894,-3.7582218],[-38.6467307,-3.7580405],[-38.6422138,-3.7557729],[-38.6418477,-3.7555836],[-38.6401337,-3.754697],[-38.6397358,-3.7544984],[-38.6393749,-3.7543152],[-38.6392949,-3.7542756],[-38.6387859,-3.7540241],[-38.6380998,-3.7536742],[-38.6347779,-3.75198],[-38.6335911,-3.7513747],[-38.6333283,-3.7512364],[-38.6327904,-3.7509581],[-38.6319572,-3.7505202],[-38.6311032,-3.7500851],[-38.6310854,-3.7500759],[-38.6296064,-3.749311],[-38.6287121,-3.7488572],[-38.6282487,-3.7486232],[-38.6279163,-3.7484555],[-38.6267774,-3.7478742],[-38.6267031,-3.7478363],[-38.6253079,-3.7471242],[-38.6242666,-3.7465928],[-38.6240749,-3.7464951],[-38.6226444,-3.7457598],[-38.6218116,-3.745336],[-38.6210299,-3.7449481],[-38.6208543,-3.7448526],[-38.6202386,-3.7445652],[-38.6196887,-3.7443101],[-38.6193083,-3.744124],[-38.6191785,-3.7440608],[-38.6190933,-3.7440012],[-38.6190531,-3.7439777],[-38.6189586,-3.7439272],[-38.6188247,-3.7438765],[-38.6186907,-3.7438337],[-38.618515,-3.743787],[-38.6183692,-3.743757],[-38.617288,-3.7435927],[-38.6150265,-3.7432399],[-38.614296,-3.7430951],[-38.6121934,-3.7427648],[-38.6121106,-3.7427522],[-38.6120132,-3.7427372],[-38.6091677,-3.742322],[-38.6070853,-3.7420162],[-38.6053407,-3.7417633],[-38.6050241,-3.7417143],[-38.6046403,-3.7416583],[-38.603287,-3.7414643],[-38.6028368,-3.7414003],[-38.6027623,-3.741388],[-38.6025473,-3.7413586],[-38.6023468,-3.7413236],[-38.6013658,-3.7411709],[-38.6008645,-3.7410983],[-38.6008286,-3.7410934],[-38.6001257,-3.7409897],[-38.5991727,-3.7408515],[-38.5984256,-3.7407384],[-38.5957476,-3.7403606],[-38.5947379,-3.7402036],[-38.594627,-3.7401872],[-38.5945877,-3.7401814],[-38.5945484,-3.7401755],[-38.5940185,-3.7400969],[-38.5939689,-3.7400895],[-38.5939193,-3.7400822],[-38.5938007,-3.7400646],[-38.591701,-3.739757],[-38.5916517,-3.7397498],[-38.5916144,-3.7397444],[-38.5915285,-3.739732],[-38.5911558,-3.7396779],[-38.5889378,-3.7393758],[-38.5877347,-3.7391865],[-38.5875607,-3.7391611],[-38.5863996,-3.7389939],[-38.5852202,-3.738837],[-38.5834592,-3.7385793],[-38.5834029,-3.7385713],[-38.5827278,-3.7384754],[-38.5826899,-3.7384709],[-38.5795211,-3.7380105],[-38.5785859,-3.7378765],[-38.5785173,-3.7378668],[-38.5767774,-3.7376274],[-38.5756402,-3.7374727],[-38.5748889,-3.7373749],[-38.5734302,-3.7372086],[-38.5721656,-3.7370632],[-38.5720868,-3.7370538],[-38.5720269,-3.7370467],[-38.5718703,-3.7370269],[-38.5712146,-3.7369455],[-38.5704653,-3.7368795],[-38.5697123,-3.7368223],[-38.5693106,-3.7367401]],[[-38.6698669,-3.7698569],[-38.6698043,-3.7698516],[-38.6697399,-3.7698412],[-38.6696236,-3.7697733],[-38.6692079,-3.7695369],[-38.6679664,-3.7689082],[-38.667735,-3.7688085],[-38.667369,-3.7686236],[-38.6668068,-3.7683335],[-38.6662563,-3.7680543],[-38.6657496,-3.7678019],[-38.665718,-3.7677845],[-38.6651376,-3.7674927],[-38.6651005,-3.7674763],[-38.6646676,-3.7672445],[-38.6635986,-3.7666978],[-38.6629091,-3.7663432],[-38.6628681,-3.7663221],[-38.6618529,-3.7657975],[-38.6603093,-3.765008],[-38.6585753,-3.7640578],[-38.6582454,-3.7638905],[-38.6564268,-3.762998],[-38.6560982,-3.762834],[-38.6553647,-3.7624627],[-38.6544366,-3.7619809],[-38.6528273,-3.7611566]],[[-38.5693417,-3.7365736],[-38.5696192,-3.7366288],[-38.5700256,-3.7367025],[-38.5702569,-3.7367274],[-38.5711377,-3.7367978],[-38.571961,-3.7369023],[-38.5720233,-3.7369085],[-38.5720857,-3.7369147],[-38.5722628,-3.7369323],[-38.5732867,-3.7370567],[-38.5744993,-3.7371981],[-38.5757141,-3.7373452],[-38.5774125,-3.7375758],[-38.5780986,-3.7376693],[-38.5784385,-3.7377165],[-38.578545,-3.7377308],[-38.5793794,-3.7378508],[-38.5820658,-3.7382575],[-38.5832745,-3.7384191],[-38.5833566,-3.7384304],[-38.5852373,-3.7386876],[-38.5865693,-3.7388752],[-38.5867771,-3.7389045],[-38.5870692,-3.738947],[-38.5875704,-3.7390222],[-38.5879214,-3.7390715],[-38.5879564,-3.7390767],[-38.5888976,-3.7392155],[-38.5915492,-3.7396015],[-38.5915929,-3.7396084],[-38.5916366,-3.7396153],[-38.5917242,-3.7396291],[-38.5938202,-3.7399394],[-38.5938928,-3.7399496],[-38.5939375,-3.7399559],[-38.5940377,-3.7399711],[-38.5945662,-3.7400515],[-38.5946062,-3.7400576],[-38.594646,-3.7400636],[-38.5947568,-3.74008],[-38.5958326,-3.7402403],[-38.5984453,-3.7406145],[-38.5991943,-3.7407286],[-38.6001269,-3.7408706],[-38.6007538,-3.7409512],[-38.6008514,-3.7409759],[-38.6013617,-3.7410471],[-38.6019788,-3.7411235],[-38.6023739,-3.7411837],[-38.6027617,-3.741241],[-38.602863,-3.7412565],[-38.6029613,-3.7412721],[-38.6038632,-3.7414023],[-38.6046458,-3.7415179],[-38.6050191,-3.7415734],[-38.6053024,-3.7416129],[-38.606308,-3.7417604],[-38.6072881,-3.7419029],[-38.6091322,-3.7421732],[-38.6120343,-3.7425998],[-38.6121279,-3.7426142],[-38.6122145,-3.7426274],[-38.6126669,-3.7426937],[-38.6134554,-3.7428173],[-38.6141496,-3.7429261],[-38.6149916,-3.74303],[-38.6172292,-3.7434006],[-38.6175192,-3.7434306],[-38.6176508,-3.7434387],[-38.6178212,-3.743446],[-38.6180104,-3.7434455],[-38.6183008,-3.74344],[-38.6185997,-3.7434244],[-38.618895,-3.7434083],[-38.6190447,-3.7433982],[-38.6191631,-3.7433908],[-38.6192826,-3.7433931],[-38.6193819,-3.7434101],[-38.6195048,-3.7434438],[-38.6196108,-3.7434846],[-38.6197395,-3.7435582],[-38.6198445,-3.7436395],[-38.6198914,-3.7436767],[-38.6199861,-3.7437799],[-38.6202826,-3.744143],[-38.6203746,-3.744243],[-38.6204851,-3.7443566],[-38.6205931,-3.7444622],[-38.6206417,-3.7444972],[-38.6207085,-3.7445431],[-38.6207684,-3.7445795],[-38.6208296,-3.744613],[-38.6212523,-3.7448275],[-38.6220056,-3.7452045],[-38.6240026,-3.7462285],[-38.6259827,-3.7472266],[-38.6268567,-3.74767],[-38.6269295,-3.747707],[-38.6280675,-3.7482843],[-38.6283532,-3.7484336],[-38.6285937,-3.7485593],[-38.6296449,-3.7491086],[-38.6309065,-3.7497586],[-38.6324593,-3.7505587],[-38.6330889,-3.7508831],[-38.6334316,-3.7510597],[-38.6337068,-3.7511982],[-38.6348683,-3.7517915],[-38.6361997,-3.7524753],[-38.6389898,-3.7539042],[-38.6393873,-3.7540923],[-38.6396416,-3.7542112],[-38.6402089,-3.754502],[-38.6419486,-3.7553936],[-38.6423224,-3.7555876],[-38.6424605,-3.755658],[-38.6467601,-3.7578505],[-38.647251,-3.758098],[-38.6479852,-3.7584895],[-38.6483755,-3.758721],[-38.6486343,-3.7588689],[-38.6490218,-3.7590783],[-38.6521641,-3.7607271],[-38.6528527,-3.7610615],[-38.655822,-3.7625818],[-38.6558863,-3.7626075],[-38.6564871,-3.7629123],[-38.6585431,-3.7639267],[-38.6603656,-3.764927],[-38.6622284,-3.7658591],[-38.6628594,-3.7661844],[-38.6631692,-3.7663441],[-38.6635508,-3.7665409],[-38.6637861,-3.7666245],[-38.6638934,-3.7666714],[-38.6640061,-3.7667162],[-38.6641087,-3.7667329],[-38.664218,-3.7667282],[-38.6643494,-3.7666988],[-38.6644493,-3.7666613],[-38.664619,-3.7665763],[-38.6650193,-3.7663676],[-38.6657287,-3.7659715],[-38.6665937,-3.7654917],[-38.666754,-3.7654074],[-38.6668599,-3.7653559],[-38.6669263,-3.7653305],[-38.6670068,-3.765301]],[[-38.6684104,-3.7650808],[-38.6682178,-3.7651297],[-38.6677638,-3.7651777],[-38.6675266,-3.765235],[-38.6673311,-3.7653033],[-38.6671327,-3.7654255],[-38.6668056,-3.765669],[-38.6666782,-3.7657868],[-38.6665615,-3.7659086],[-38.666406,-3.7661147],[-38.6660734,-3.766678],[-38.6658135,-3.7671463]],[[-45.2084398,-3.6527169],[-45.2072811,-3.6521173],[-45.2059454,-3.6513973],[-45.2050173,-3.6509021],[-45.2034938,-3.6500509],[-45.2029748,-3.6497712],[-45.2020454,-3.6493121],[-45.2013454,-3.6489146],[-45.2005465,-3.6484785],[-45.1962365,-3.6462071],[-45.1958535,-3.6459966],[-45.1948654,-3.6454598],[-45.194185,-3.6450793],[-45.1934897,-3.644697],[-45.1931303,-3.6445036],[-45.191784,-3.6437742],[-45.1910457,-3.6434052],[-45.1909708,-3.6433641],[-45.1903802,-3.6430676],[-45.1903431,-3.643049],[-45.1895301,-3.6426164],[-45.1880969,-3.64183],[-45.1879665,-3.6417645],[-45.1867845,-3.641081],[-45.1859522,-3.6406291],[-45.1856914,-3.6404846],[-45.1853624,-3.6403121],[-45.1844041,-3.6398018],[-45.1842779,-3.6397348],[-45.1839512,-3.6395616],[-45.1838165,-3.6394901],[-45.1836845,-3.6394302],[-45.1828227,-3.6389629],[-45.181778,-3.6383873],[-45.1816452,-3.6383088],[-45.181302,-3.6381278],[-45.1787644,-3.6367557],[-45.1772757,-3.6359377],[-45.1747392,-3.6345897],[-45.1742779,-3.6343448],[-45.1725291,-3.6333878],[-45.169344,-3.6316506],[-45.1666883,-3.6302041],[-45.1666367,-3.6301762],[-45.1649478,-3.6292655],[-45.1600883,-3.6266034],[-45.1555815,-3.62412],[-45.1538549,-3.623159],[-45.1526941,-3.6225319],[-45.1524346,-3.6223901],[-45.1514255,-3.6218373],[-45.1493669,-3.6206889],[-45.1480231,-3.6199515],[-45.1470128,-3.6193952],[-45.145499,-3.618596],[-45.1381857,-3.6145167],[-45.1223186,-3.6057144],[-45.1213916,-3.6052002],[-45.1210091,-3.604994],[-45.1004033,-3.5933275],[-45.0970547,-3.5914316],[-45.0922116,-3.5887754],[-45.0914908,-3.5883683],[-45.0908173,-3.5880634],[-45.0903311,-3.5879296],[-45.0896954,-3.5878517],[-45.0633618,-3.5853523],[-45.0628476,-3.5853035],[-45.060864,-3.5851153],[-45.0604806,-3.5850789],[-45.0595723,-3.5849927],[-45.0586777,-3.5849078],[-45.0584561,-3.5848868],[-45.0578416,-3.5848284],[-45.0572065,-3.5847681],[-45.0509506,-3.5841744],[-45.0484601,-3.583938]],[[-45.0474361,-3.5838375],[-45.0484601,-3.583938]],[[-45.0474361,-3.5838375],[-45.0452051,-3.5836524],[-45.0443725,-3.5836093],[-45.0436725,-3.5837169],[-45.0425339,-3.5840253],[-45.0403512,-3.5846925],[-45.0373779,-3.5855947],[-45.0343229,-3.5865022],[-45.0336416,-3.5867016],[-45.0332252,-3.5868224],[-45.0325104,-3.5870299],[-45.0311012,-3.58745],[-45.025565,-3.5891002],[-45.0246498,-3.5893742],[-45.0241417,-3.5895362],[-45.0185029,-3.591202],[-45.0109548,-3.5934087],[-45.0105595,-3.5935258],[-45.0075813,-3.5944072],[-45.0014202,-3.5962034],[-45.0001851,-3.5965795],[-44.9976397,-3.5973277],[-44.9971342,-3.5974575],[-44.9969517,-3.5974937],[-44.9967384,-3.5975164],[-44.9965654,-3.5975071],[-44.9963643,-3.5974843],[-44.9962167,-3.5974495],[-44.9960451,-3.5973933],[-44.9958895,-3.5973237],[-44.9945048,-3.5965735],[-44.9924463,-3.5954492],[-44.9905458,-3.5944182],[-44.9873286,-3.5926712],[-44.986731,-3.592377],[-44.9865194,-3.5922728],[-44.9840274,-3.5909151],[-44.9829452,-3.5903315],[-44.9819863,-3.5897995],[-44.9814704,-3.5895194],[-44.9811199,-3.589329],[-44.9803019,-3.5888833],[-44.9796903,-3.5885407],[-44.9668674,-3.581537],[-44.9651228,-3.5805871],[-44.9647224,-3.5803603],[-44.9645606,-3.5802686]],[[-44.9584226,-3.5769063],[-44.958462,-3.5769091],[-44.9584819,-3.5769139],[-44.9585121,-3.5769243],[-44.9585624,-3.5769438],[-44.958804,-3.5770597],[-44.9595408,-3.577468],[-44.9596696,-3.5775316],[-44.9598285,-3.5776227],[-44.9607342,-3.5781289],[-44.9609421,-3.5782418],[-44.9610553,-3.5783052],[-44.9615094,-3.5785441],[-44.9623673,-3.5790208],[-44.9630592,-3.5794029],[-44.9631076,-3.5794296],[-44.9642295,-3.580059],[-44.9644654,-3.5801979],[-44.9645606,-3.5802686],[-44.9644421,-3.5802232],[-44.9643776,-3.5801892],[-44.9640048,-3.5800052],[-44.9630596,-3.5794884],[-44.963012,-3.5794636],[-44.9621377,-3.5790082],[-44.9614681,-3.5786183],[-44.9613719,-3.578568],[-44.9610116,-3.5783714],[-44.960897,-3.5783094],[-44.9607059,-3.5782048],[-44.9598654,-3.5777411],[-44.959626,-3.577614],[-44.9594886,-3.577547],[-44.9592196,-3.5774022],[-44.9587564,-3.5771535],[-44.9585234,-3.5770046],[-44.9584657,-3.5769568],[-44.9584496,-3.5769407],[-44.9584226,-3.5769063],[-44.9583735,-3.5768811],[-44.9576878,-3.5765039],[-44.9574498,-3.5763696],[-44.9566475,-3.5759161],[-44.9559364,-3.575543],[-44.9552326,-3.5751517],[-44.9540501,-3.5744807],[-44.9539699,-3.5744388],[-44.9531297,-3.5739646],[-44.9521065,-3.5734118],[-44.9499232,-3.5722058],[-44.9488119,-3.571592],[-44.9482501,-3.5712889],[-44.9466926,-3.5704224],[-44.9458623,-3.5699397],[-44.9449664,-3.5694592],[-44.9437682,-3.5687973],[-44.9431097,-3.5684178],[-44.942311,-3.5679795],[-44.9422018,-3.5679215],[-44.941619,-3.567612],[-44.9405827,-3.5670246],[-44.9403711,-3.5669046],[-44.9292127,-3.560651],[-44.9224587,-3.556875],[-44.9213702,-3.5562658],[-44.9200249,-3.555513],[-44.9198298,-3.5554042],[-44.9195535,-3.5552501],[-44.9098812,-3.5497862],[-44.904561,-3.5468109],[-44.9007052,-3.5446202],[-44.8991252,-3.5437405],[-44.8978848,-3.5430306],[-44.8952399,-3.541517],[-44.8947946,-3.5412124],[-44.8944137,-3.5409507],[-44.8940554,-3.5406196],[-44.8937829,-3.5403314],[-44.8914085,-3.5373971],[-44.8873308,-3.5321253],[-44.8869887,-3.5314827],[-44.8867568,-3.5308104],[-44.8866782,-3.5304231],[-44.8866425,-3.5300143],[-44.8866681,-3.5295232],[-44.8867582,-3.5289465],[-44.8878825,-3.5245623],[-44.8879462,-3.5240677],[-44.887932,-3.5235873],[-44.8878188,-3.5229444],[-44.8855281,-3.5141329],[-44.8839496,-3.5080607],[-44.8837905,-3.5074487],[-44.8806347,-3.4950737],[-44.8804988,-3.4945409],[-44.8802753,-3.4936642],[-44.8801732,-3.4933359],[-44.8800012,-3.492883],[-44.8798103,-3.4925283],[-44.8794416,-3.4919263],[-44.8790049,-3.4913565],[-44.8785191,-3.4907111],[-44.8769845,-3.4886904],[-44.8763592,-3.4878721],[-44.8762643,-3.487748],[-44.873561,-3.4841669],[-44.8731396,-3.483605],[-44.8727077,-3.4830387],[-44.8726045,-3.4829008],[-44.8723336,-3.4825233],[-44.8721834,-3.4822476],[-44.872072,-3.4819718],[-44.8720224,-3.4818232],[-44.8719862,-3.481601],[-44.8719634,-3.481352],[-44.8719661,-3.4811579],[-44.8719661,-3.4809505],[-44.8719822,-3.4807015],[-44.8719929,-3.4805274],[-44.8720182,-3.4796784],[-44.8720342,-3.4792073],[-44.8721554,-3.4770461],[-44.8722009,-3.4762161],[-44.8722022,-3.4761058],[-44.8722539,-3.4747323],[-44.872256,-3.4746774],[-44.8722672,-3.474354],[-44.8723148,-3.4734929],[-44.8723389,-3.473189],[-44.8723476,-3.4729133],[-44.8723483,-3.4728504],[-44.8723778,-3.4722721],[-44.8723798,-3.4721322],[-44.8723899,-3.4716459],[-44.872393,-3.4715539],[-44.8724073,-3.4712105],[-44.8724091,-3.4711449],[-44.8724242,-3.4705949],[-44.872434,-3.4704438],[-44.8724428,-3.470308]]]}}]}