{"type":"FeatureCollection","name":"Cajari","features":[{"type":"Feature","properties":{"CD_MUN":"2102507","NM_MUN":"Cajari","CD_RGI":"210005","NM_RGI":"Viana","CD_RGINT":"2101","NM_RGINT":"São Luís","CD_UF":"21","NM_UF":"Maranhão","SIGLA_UF":"MA","CD_REGIAO":"2","NM_REGIAO":"Nordeste","SIGLA_RG":"NE","CD_CONCURB":"","NM_CONCURB":"","AREA_KM2":662.066},"geometry":{"type":"Polygon","coordinates":[[[-45.0494676,-3.5119359],[-45.0217273,-3.5313641],[-45.0186257,-3.5335363],[-45.0155241,-3.5357085],[-45.0222211,-3.5506545],[-45.0313579,-3.5710455],[-45.0341495,-3.5711002],[-45.0381993,-3.5711922],[-45.0406844,-3.5724808],[-45.0451024,-3.5720206],[-45.0505329,-3.5721126],[-45.0580803,-3.5722967],[-45.0602893,-3.5701798],[-45.0628664,-3.5691673],[-45.0651675,-3.5710081],[-45.0732671,-3.5688912],[-45.077501,-3.5670503],[-45.0778564,-3.5652888],[-45.0821085,-3.5648902],[-45.0836366,-3.5647573],[-45.0849654,-3.5636279],[-45.0865599,-3.5633289],[-45.0879219,-3.5632957],[-45.0893504,-3.5641261],[-45.0908453,-3.5639933],[-45.0923734,-3.5631296],[-45.0938018,-3.5627641],[-45.0950642,-3.5626645],[-45.0963597,-3.561535],[-45.097755,-3.5600069],[-45.0984194,-3.559575],[-45.0995488,-3.5589439],[-45.101297,-3.5585369],[-45.1060272,-3.5575679],[-45.1074331,-3.5588717],[-45.1080717,-3.5590956],[-45.1088397,-3.559365],[-45.1096525,-3.560018],[-45.1103516,-3.5611568],[-45.1112231,-3.562065],[-45.1125956,-3.5629244],[-45.1139464,-3.5634127],[-45.1168139,-3.5641711],[-45.1196217,-3.5658065],[-45.1226652,-3.5672609],[-45.1238475,-3.5647022],[-45.1243464,-3.5632745],[-45.1238565,-3.561999],[-45.1227113,-3.5607236],[-45.1228745,-3.5597654],[-45.1230376,-3.5571326],[-45.121728,-3.5544169],[-45.1215638,-3.5520276],[-45.122872,-3.5457221],[-45.1225459,-3.5428505],[-45.1204154,-3.5379797],[-45.1197614,-3.5355884],[-45.1186154,-3.5322346],[-45.1184515,-3.5284888],[-45.1199254,-3.5267334],[-45.1238514,-3.5256106],[-45.1249972,-3.5220273],[-45.1276144,-3.5167554],[-45.1259783,-3.5142834],[-45.1245065,-3.5131668],[-45.1256499,-3.5102947],[-45.127616,-3.5090184],[-45.1289676,-3.5087639],[-45.1297412,-3.5086184],[-45.128432,-3.5078232],[-45.1254874,-3.5049484],[-45.1225421,-3.5016805],[-45.119923,-3.4981708],[-45.1174648,-3.4944973],[-45.1143549,-3.4918651],[-45.111244,-3.4896314],[-45.1081361,-3.4875586],[-45.1045325,-3.4855625],[-45.1032235,-3.48237],[-45.1043702,-3.479499],[-45.1071542,-3.4755647],[-45.10726,-3.4754146],[-45.1059368,-3.4753433],[-45.1039969,-3.4770051],[-45.1025751,-3.4780284],[-45.1016541,-3.4770118],[-45.100631,-3.4748934],[-45.1002421,-3.4732849],[-45.0986022,-3.4724359],[-45.0967407,-3.4722827],[-45.0948012,-3.4718982],[-45.0941573,-3.4705081],[-45.0951339,-3.4682101],[-45.0967133,-3.4666012],[-45.0978238,-3.4644107],[-45.0981288,-3.462412],[-45.0977437,-3.4603943],[-45.0954747,-3.4604107],[-45.0942691,-3.4615093],[-45.0931824,-3.4628037],[-45.0927088,-3.4646382],[-45.0936828,-3.4681447],[-45.0907956,-3.4691006],[-45.0889099,-3.4685558],[-45.0882928,-3.4669953],[-45.0871601,-3.4632346],[-45.0867152,-3.4608768],[-45.0862973,-3.4591913],[-45.0863826,-3.4569145],[-45.088799,-3.4533745],[-45.088683,-3.450691],[-45.0872994,-3.4503439],[-45.0846262,-3.4512332],[-45.0844618,-3.4533958],[-45.0841539,-3.4546519],[-45.0839942,-3.4572836],[-45.0829348,-3.4590117],[-45.0815172,-3.4593103],[-45.0798514,-3.4584432],[-45.0786821,-3.4570331],[-45.078135,-3.4564986],[-45.0771527,-3.4555392],[-45.0753408,-3.4535724],[-45.0748443,-3.4532024],[-45.0745653,-3.4529944],[-45.0741439,-3.4524758],[-45.0739444,-3.4519562],[-45.0738921,-3.4513389],[-45.0743333,-3.4508352],[-45.075062,-3.4503021],[-45.0760116,-3.4497435],[-45.0766602,-3.4489847],[-45.0771132,-3.4481041],[-45.0773475,-3.4474587],[-45.077675,-3.4459471],[-45.0778897,-3.4449567],[-45.0783491,-3.4442527],[-45.0786262,-3.4440164],[-45.0789033,-3.4437801],[-45.080673,-3.4426072],[-45.0826553,-3.4410486],[-45.0842376,-3.4392037],[-45.0849671,-3.4378137],[-45.0851062,-3.4369641],[-45.085017,-3.4363704],[-45.0843928,-3.4359524],[-45.083284,-3.4355316],[-45.0819508,-3.4350402],[-45.0815447,-3.4348261],[-45.0811386,-3.4346121],[-45.0805427,-3.4339771],[-45.0799481,-3.4327484],[-45.0788209,-3.4311539],[-45.0782191,-3.429896],[-45.0781629,-3.4290829],[-45.0783962,-3.4286386],[-45.0789156,-3.4281703],[-45.0798009,-3.4277748],[-45.0804163,-3.4275444],[-45.0810571,-3.4268903],[-45.0815115,-3.4261226],[-45.0817982,-3.4253247],[-45.0819174,-3.4241661],[-45.0819235,-3.4235212],[-45.0819296,-3.4228763],[-45.0821127,-3.4222443],[-45.0824876,-3.4215978],[-45.0825887,-3.4214233],[-45.082865,-3.4210569],[-45.0829032,-3.4210062],[-45.0832169,-3.4205903],[-45.083523,-3.4203337],[-45.2043674,-3.4024289],[-45.2047334,-3.4023747],[-45.2501397,-3.3956471],[-45.250513,-3.3955918],[-45.2717053,-3.3924518],[-45.2657785,-3.3892189],[-45.2635334,-3.3847289],[-45.2622762,-3.3799694],[-45.2616476,-3.3750303],[-45.2603384,-3.3713483],[-45.2602108,-3.3709893],[-45.2607496,-3.3671278],[-45.2611088,-3.3632664],[-45.2599414,-3.3619194],[-45.2594026,-3.3595845],[-45.2594401,-3.357858],[-45.2594542,-3.3570664],[-45.2594924,-3.3554537],[-45.2592399,-3.3537874],[-45.2590434,-3.3524902],[-45.2582351,-3.3472817],[-45.2588638,-3.3436897],[-45.2585944,-3.3392894],[-45.2575167,-3.3374934],[-45.2558105,-3.3368648],[-45.2550937,-3.3269678],[-45.2546845,-3.3213164],[-45.2437567,-3.3217156],[-45.2436279,-3.3217207],[-45.2424098,-3.3228006],[-45.2386474,-3.3255528],[-45.2370993,-3.3277149],[-45.2352158,-3.3293332],[-45.2311192,-3.3307934],[-45.2284591,-3.3310104],[-45.2260239,-3.3313357],[-45.2225934,-3.3309567],[-45.2211557,-3.3304149],[-45.2151719,-3.3322006],[-45.2134029,-3.3319802],[-45.2116239,-3.3319832],[-45.2112981,-3.3319839],[-45.2032144,-3.3299924],[-45.2001154,-3.3298818],[-45.1951344,-3.3310175],[-45.1935841,-3.332096],[-45.1871538,-3.3325814],[-45.1780445,-3.3325854],[-45.1656266,-3.3322524],[-45.1571526,-3.3324441],[-45.1530546,-3.3324469],[-45.1505001,-3.3322249],[-45.1468026,-3.3289184],[-45.1463914,-3.327719],[-45.1453655,-3.3265177],[-45.1400231,-3.3260134],[-45.139197,-3.326015],[-45.1363255,-3.326018],[-45.1299581,-3.3265225],[-45.127084,-3.3249178],[-45.1224616,-3.3209035],[-45.1178363,-3.313902],[-45.1161932,-3.3098948],[-45.11455,-3.306892],[-45.1143421,-3.3047866],[-45.1127017,-3.3035872],[-45.1092103,-3.3021863],[-45.1059222,-3.3010839],[-45.1011971,-3.2951757],[-45.0981177,-3.291769],[-45.0963069,-3.2891645],[-45.0940106,-3.285862],[-45.0917492,-3.2828558],[-45.0901033,-3.2802518],[-45.0888721,-3.2769491],[-45.0874092,-3.274101],[-45.0868158,-3.2729458],[-45.0829166,-3.2696393],[-45.0798346,-3.2680369],[-45.077165,-3.2676247],[-45.074288,-3.2653325],[-45.073026,-3.2644312],[-45.0727922,-3.2642641],[-45.0670019,-3.2601237],[-45.0331273,-3.2393634],[-45.0193267,-3.2792033],[-45.0194585,-3.2796565],[-45.0199945,-3.2814936],[-45.0223314,-3.2822809],[-45.023883,-3.2838492],[-45.0235179,-3.2856184],[-45.0226073,-3.287917],[-45.0227365,-3.2910485],[-45.0227409,-3.2911629],[-45.0201247,-3.2907089],[-45.0190501,-3.2913274],[-45.0204317,-3.2925788],[-45.0218522,-3.2936189],[-45.0205441,-3.2941879],[-45.0179885,-3.2938988],[-45.0177438,-3.2963784],[-45.0162943,-3.2985542],[-45.0182056,-3.2988491],[-45.0184882,-3.3006303],[-45.0188525,-3.3020353],[-45.0186559,-3.303973],[-45.019358,-3.3051353],[-45.0201316,-3.3069514],[-45.0206583,-3.3085105],[-45.0236792,-3.3114679],[-45.0231799,-3.3121655],[-45.0226894,-3.3128509],[-45.0211044,-3.3120005],[-45.0203271,-3.3132683],[-45.0198281,-3.3148103],[-45.0179373,-3.3158215],[-45.0160495,-3.3159807],[-45.0158219,-3.3159999],[-45.0153154,-3.3169772],[-45.0139743,-3.3195634],[-45.0139598,-3.3195914],[-45.0129705,-3.3182308],[-45.0127698,-3.3179548],[-45.0111581,-3.319048],[-45.0103593,-3.319495],[-45.009862,-3.3197733],[-45.0082699,-3.319507],[-45.0075643,-3.3201821],[-45.0052951,-3.3223532],[-45.0044658,-3.3234949],[-45.0038735,-3.3243021],[-45.0028283,-3.3257362],[-45.0003208,-3.3262862],[-44.9992346,-3.3278602],[-44.9988995,-3.3289828],[-44.9977438,-3.3306839],[-44.9961043,-3.3320555],[-44.9948787,-3.3338131],[-44.99349,-3.3351172],[-44.9924368,-3.335348],[-44.9919139,-3.335462],[-44.988441,-3.3352885],[-44.9862981,-3.3355236],[-44.9849658,-3.3354784],[-44.982848,-3.3352269],[-44.9781147,-3.3333607],[-44.9770721,-3.3327376],[-44.9722722,-3.330292],[-44.9702135,-3.3300687],[-44.9684333,-3.3308913],[-44.9671581,-3.3322651],[-44.9662437,-3.3330688],[-44.9644322,-3.3342465],[-44.9624635,-3.3350968],[-44.960086,-3.3362837],[-44.9564087,-3.3390531],[-44.9545967,-3.3400906],[-44.9533802,-3.3404734],[-44.9514629,-3.3402334],[-44.9505171,-3.3385876],[-44.9509592,-3.3364086],[-44.9502134,-3.3346297],[-44.9482702,-3.3355481],[-44.9466037,-3.3367154],[-44.944967,-3.336303],[-44.9422109,-3.3338493],[-44.9399629,-3.3324908],[-44.9389361,-3.3317222],[-44.9371619,-3.3301216],[-44.9356861,-3.3282619],[-44.9357685,-3.3261647],[-44.9373521,-3.3250072],[-44.9389902,-3.3261395],[-44.9404883,-3.326547],[-44.9419379,-3.3251919],[-44.943188,-3.3235062],[-44.9448795,-3.3204946],[-44.9457074,-3.3186228],[-44.9467966,-3.3156441],[-44.9463755,-3.3134779],[-44.9444906,-3.3138449],[-44.9433526,-3.3154709],[-44.9425159,-3.3164422],[-44.9414661,-3.3169963],[-44.9398551,-3.3160438],[-44.9387658,-3.3142243],[-44.9386027,-3.31229],[-44.939324,-3.310462],[-44.9419581,-3.3072936],[-44.943248,-3.3055761],[-44.9437937,-3.3043502],[-44.9441563,-3.3030691],[-44.9445725,-3.3008578],[-44.9447106,-3.2985367],[-44.9441859,-3.2959864],[-44.9451898,-3.2936527],[-44.9458264,-3.2926125],[-44.9458172,-3.2905607],[-44.94332,-3.2874201],[-44.9419679,-3.2859914],[-44.9399272,-3.2861776],[-44.9392722,-3.287164],[-44.9392714,-3.2893237],[-44.9401249,-3.2913544],[-44.9404914,-3.2926028],[-44.9395162,-3.2940588],[-44.9354029,-3.2930937],[-44.9328203,-3.2922121],[-44.9308496,-3.2914351],[-44.929046,-3.2916707],[-44.9281574,-3.292404],[-44.9279888,-3.2942218],[-44.9293797,-3.296612],[-44.9316338,-3.2989804],[-44.9321545,-3.3009778],[-44.9305488,-3.3024003],[-44.9279022,-3.3043868],[-44.9257432,-3.3056918],[-44.9241308,-3.3065596],[-44.9229662,-3.307068],[-44.9207691,-3.3074312],[-44.9185994,-3.3073481],[-44.9160478,-3.3069212],[-44.908265,-3.3026128],[-44.9069356,-3.3017657],[-44.9042752,-3.3006333],[-44.9027907,-3.3003161],[-44.901601,-3.3003259],[-44.8996528,-3.3007324],[-44.8976304,-3.3016563],[-44.89638,-3.3016181],[-44.8954076,-3.2998151],[-44.8959034,-3.2977647],[-44.8967949,-3.2958276],[-44.8962175,-3.2940264],[-44.895227,-3.293842],[-44.8941864,-3.2936481],[-44.8930412,-3.293811],[-44.8911012,-3.2935148],[-44.8905432,-3.2934294],[-44.8891509,-3.2920834],[-44.8880139,-3.2904638],[-44.8859335,-3.2871256],[-44.8850172,-3.2850901],[-44.8838511,-3.2835069],[-44.8842712,-3.2816505],[-44.8863182,-3.2812707],[-44.8875985,-3.2817761],[-44.8898774,-3.2818145],[-44.8910418,-3.2802327],[-44.89099,-3.2790088],[-44.89038,-3.2769332],[-44.8884624,-3.2762497],[-44.8864932,-3.2769856],[-44.8848253,-3.2782217],[-44.883604,-3.2788367],[-44.8824345,-3.2792075],[-44.8799901,-3.2795516],[-44.8777374,-3.2808806],[-44.8753794,-3.2830989],[-44.873743,-3.2839468],[-44.8727141,-3.2836963],[-44.8725668,-3.2878841],[-44.8711073,-3.2925868],[-44.8725669,-3.292876],[-44.8741726,-3.2936166],[-44.8759192,-3.2953757],[-44.8785477,-3.2983153],[-44.877673,-3.30008],[-44.8751889,-3.302873],[-44.8716866,-3.310212],[-44.8689152,-3.3147696],[-44.86629,-3.3206412],[-44.8623784,-3.3287987],[-44.8622039,-3.3291603],[-44.8620566,-3.3301921],[-44.863712,-3.3463606],[-44.8652503,-3.3470857],[-44.8670546,-3.3475658],[-44.8693378,-3.3488951],[-44.8721017,-3.3501075],[-44.8743846,-3.3515583],[-44.8766665,-3.3526447],[-44.8783535,-3.3537355],[-44.8805159,-3.3547048],[-44.8820783,-3.3550657],[-44.8835964,-3.3551628],[-44.8880754,-3.3538896],[-44.8896507,-3.35277],[-44.8901344,-3.3520448],[-44.8910933,-3.3518018],[-44.8921774,-3.3519217],[-44.8928961,-3.3539788],[-44.8930178,-3.355791],[-44.893379,-3.357484],[-44.893138,-3.3597814],[-44.8934978,-3.3631632],[-44.8933775,-3.3653448],[-44.8943389,-3.3717498],[-44.8943386,-3.3728384],[-44.8937286,-3.3744581],[-44.8927011,-3.3754881],[-44.8914655,-3.3760652],[-44.8907024,-3.3765439],[-44.8891797,-3.3767352],[-44.8880387,-3.376445],[-44.8870857,-3.376446],[-44.8857538,-3.3771168],[-44.8848026,-3.3784547],[-44.8831854,-3.3795113],[-44.8797586,-3.379315],[-44.8788046,-3.3797982],[-44.8780451,-3.3807529],[-44.8778543,-3.3833374],[-44.8789027,-3.3843884],[-44.8880348,-3.3915724],[-44.8927008,-3.3951105],[-44.8966009,-3.3982709],[-44.8983161,-3.3998971],[-44.8990773,-3.4007643],[-44.8995525,-3.4017181],[-44.8999313,-3.403055],[-44.9011694,-3.406312],[-44.9022176,-3.4097602],[-44.9027862,-3.4112882],[-44.9031668,-3.4129181],[-44.9031676,-3.4139738],[-44.9029766,-3.416553],[-44.902026,-3.4188509],[-44.9002151,-3.4207665],[-44.8994555,-3.4211461],[-44.8987895,-3.4218177],[-44.8989775,-3.4221981],[-44.8992627,-3.4233466],[-44.8993993,-3.4235524],[-44.9002165,-3.4247863],[-44.9026913,-3.4258349],[-44.9048789,-3.4264136],[-44.9079243,-3.4273729],[-44.9112567,-3.4286144],[-44.9148717,-3.4296729],[-44.9168704,-3.4304339],[-44.9187773,-3.4317718],[-44.9202907,-3.433378],[-44.9205833,-3.4336885],[-44.9228011,-3.4366836],[-44.9241988,-3.4379963],[-44.9261911,-3.4400961],[-44.9273419,-3.4420156],[-44.9281964,-3.4449826],[-44.9281035,-3.4467073],[-44.9276253,-3.4483328],[-44.9263895,-3.4495778],[-44.9252446,-3.4503458],[-44.9248662,-3.4527331],[-44.9257237,-3.4535987],[-44.9287662,-3.4557041],[-44.9289577,-3.4569491],[-44.927819,-3.4579994],[-44.9275307,-3.4598187],[-44.9283837,-3.4606797],[-44.9284826,-3.4613541],[-44.9294301,-3.4622143],[-44.9307647,-3.4627878],[-44.9340965,-3.4627864],[-44.9374283,-3.4623089],[-44.9401887,-3.4617366],[-44.9443749,-3.4600095],[-44.9478986,-3.4580984],[-44.9512307,-3.455612],[-44.9538959,-3.4534068],[-44.9562703,-3.4515945],[-44.9592253,-3.4485282],[-44.9613189,-3.4460407],[-44.9633199,-3.4438344],[-44.9639823,-3.4422141],[-44.9656998,-3.4387662],[-44.9671247,-3.4364688],[-44.9692209,-3.4335014],[-44.9702676,-3.4323527],[-44.9721685,-3.4299587],[-44.9735986,-3.4284267],[-44.9758827,-3.427662],[-44.9788328,-3.4272796],[-44.9816875,-3.4273768],[-44.9868663,-3.4279951],[-44.9950122,-3.4295754],[-45.0004217,-3.4300734],[-45.0029155,-3.4300726],[-45.0047298,-3.430454],[-45.0075943,-3.4308416],[-45.0084538,-3.4315116],[-45.0093132,-3.431801],[-45.0098874,-3.4314204],[-45.011412,-3.4298838],[-45.0111257,-3.4316106],[-45.0102679,-3.4350661],[-45.0099815,-3.4373719],[-45.0100759,-3.4427239],[-45.0103651,-3.4458239],[-45.0111253,-3.4495661],[-45.0115094,-3.4520612],[-45.0117008,-3.4545582],[-45.0121784,-3.4564816],[-45.0124645,-3.4581111],[-45.0131321,-3.4591688],[-45.0141804,-3.4605133],[-45.0154242,-3.461087],[-45.0179054,-3.4608976],[-45.0192437,-3.460895],[-45.0201986,-3.460996],[-45.0214397,-3.4608969],[-45.0229679,-3.4610881],[-45.0244951,-3.4608979],[-45.0258371,-3.4604137],[-45.02717,-3.4597473],[-45.0285048,-3.4592649],[-45.0293107,-3.4591731],[-45.0302247,-3.4590692],[-45.0305119,-3.465793],[-45.0309886,-3.4686751],[-45.0307975,-3.4709783],[-45.0314655,-3.475398],[-45.0328958,-3.4811435],[-45.0344271,-3.4835568],[-45.0353828,-3.4842296],[-45.0367192,-3.4848989],[-45.039106,-3.4853815],[-45.0406421,-3.4862546],[-45.0418741,-3.4874911],[-45.0434029,-3.4888421],[-45.0443568,-3.4898937],[-45.0445531,-3.4902637],[-45.0458854,-3.4927761],[-45.0461713,-3.4943137],[-45.0457903,-3.4959442],[-45.0445509,-3.496616],[-45.0432125,-3.4966149],[-45.0424483,-3.4973832],[-45.0413045,-3.4991494],[-45.0413989,-3.5006655],[-45.0425855,-3.503357],[-45.0430552,-3.5040226],[-45.0438147,-3.5047848],[-45.045044,-3.5056443],[-45.0458954,-3.5060232],[-45.0465595,-3.507165],[-45.0464648,-3.5084033],[-45.0468427,-3.509261],[-45.0475077,-3.5103073],[-45.0488324,-3.5112589],[-45.0494676,-3.5119359]]]}}]}