{"type":"FeatureCollection","name":"Locais de votacao (original)","features":[{"type":"Feature","properties":{"fid":1,"cod_local":1180,"nome_local":"ESCOLA MUNICIPAL RAIMUNDO LOBAO","localidade":"POVOADO GAMELEIRA- ZONA RURAL","eleitores":1723,"qtd_secoes":6,"secoes":"180, 151, 153, 254, 229, 152"},"geometry":{"type":"Point","coordinates":[-45.0364344,-3.5456657]}},{"type":"Feature","properties":{"fid":2,"cod_local":1236,"nome_local":"ESCOLA MUNICIPAL BOM JESUS","localidade":"POVOADO REDONDO- ZONA RURAL","eleitores":480,"qtd_secoes":2,"secoes":"171, 237"},"geometry":{"type":"Point","coordinates":[-44.9262237,-3.3480972]}},{"type":"Feature","properties":{"fid":3,"cod_local":1198,"nome_local":"ESCOLA MUNICIPAL SAO SEBASTIAO","localidade":"POVOADO CAMAPUTIUA- ZONA RURAL","eleitores":551,"qtd_secoes":3,"secoes":"196, 208, 154"},"geometry":{"type":"Point","coordinates":[-45.1438966,-3.3403825]}},{"type":"Feature","properties":{"fid":4,"cod_local":1309,"nome_local":"ESCOLA MUNICIPAL BOM JESUS","localidade":"ZONA RURAL","eleitores":139,"qtd_secoes":1,"secoes":"213"},"geometry":{"type":"Point","coordinates":[-45.1595617,-3.3900723]}},{"type":"Feature","properties":{"fid":5,"cod_local":1040,"nome_local":"ESCOLA MUNICIPAL CORACAO DE JESUS","localidade":"POVOADO LADEIRA-ZONA RURAL","eleitores":899,"qtd_secoes":3,"secoes":"225, 131, 130"},"geometry":{"type":"Point","coordinates":[-45.0995685,-3.3492311]}},{"type":"Feature","properties":{"fid":6,"cod_local":1023,"nome_local":"CENTRO EDUCA MAIS QUINCIO PINTO MUNIZ ","localidade":"CENTRO- ZONA URBANA","eleitores":1847,"qtd_secoes":6,"secoes":"179, 126, 124, 125, 127, 204"},"geometry":{"type":"Point","coordinates":[-45.0115507,-3.3212864]}},{"type":"Feature","properties":{"fid":7,"cod_local":1147,"nome_local":"ESCOLA MUNICIPAL SAO SILVESTRE","localidade":"POVOADO CURRAL DE VARAS- ZONA RURAL","eleitores":567,"qtd_secoes":2,"secoes":"145, 146"},"geometry":{"type":"Point","coordinates":[-45.0485138,-3.3417907]}},{"type":"Feature","properties":{"fid":8,"cod_local":1171,"nome_local":"ESCOLA MUNICIPAL NOSSA SENHORA DE FATIMA","localidade":"POVOADO ZÉ MARIA - ZONA RURAL","eleitores":773,"qtd_secoes":3,"secoes":"149, 147, 231"},"geometry":{"type":"Point","coordinates":[-45.0540643,-3.4821188]}},{"type":"Feature","properties":{"fid":9,"cod_local":1058,"nome_local":"UNIDADE ESCOLAR COELHO NETO","localidade":"POVOADO BOA VISTA- ZONA RURAL","eleitores":865,"qtd_secoes":3,"secoes":"133, 132, 165"},"geometry":{"type":"Point","coordinates":[-45.0105561,-3.4012981]}},{"type":"Feature","properties":{"fid":10,"cod_local":1260,"nome_local":"ESCOLA MUNICIPAL ANTÔNIO GREGÓRIO DE MELO","localidade":"POVOADO CHAPADINHA- ZONA RURAL","eleitores":193,"qtd_secoes":1,"secoes":"184"},"geometry":{"type":"Point","coordinates":[-45.2223097,-3.3665432]}},{"type":"Feature","properties":{"fid":11,"cod_local":1031,"nome_local":"ESCOLA MUNICIPAL SANTO EXPEDITO","localidade":"POVOADO CAMBUCA- ZONA RURAL","eleitores":736,"qtd_secoes":3,"secoes":"128, 129, 228"},"geometry":{"type":"Point","coordinates":[-45.092506,-3.3647337]}},{"type":"Feature","properties":{"fid":12,"cod_local":1252,"nome_local":"ESCOLA MUNICIPAL SÃO RAIMUNDO","localidade":"POVOADO BAIANO - ZONA RURAL","eleitores":310,"qtd_secoes":1,"secoes":"185"},"geometry":{"type":"Point","coordinates":[-45.0631762,-3.3764163]}},{"type":"Feature","properties":{"fid":13,"cod_local":1228,"nome_local":"ESCOLA MUNICIPAL NOSSA SENHORA DE LOURDES","localidade":"BAIRRO DE LOURDES- ZONA URBANA","eleitores":995,"qtd_secoes":3,"secoes":"244, 167, 222"},"geometry":{"type":"Point","coordinates":[-45.017988,-3.3209488]}},{"type":"Feature","properties":{"fid":14,"cod_local":1120,"nome_local":"ESCOLA MUNICIPAL FE EM DEUS","localidade":"POVOADO CENTRALZINHO- ZONA RURAL","eleitores":467,"qtd_secoes":3,"secoes":"142, 138, 143"},"geometry":{"type":"Point","coordinates":[-45.1806489,-3.3609447]}},{"type":"Feature","properties":{"fid":15,"cod_local":1244,"nome_local":"ESCOLA MUNICIPAL NOSSA SENHORA DAS GRAÇAS","localidade":"POVOADO TUCUM- ZONA RURAL","eleitores":233,"qtd_secoes":1,"secoes":"186"},"geometry":{"type":"Point","coordinates":[-45.0772317,-3.3261098]}},{"type":"Feature","properties":{"fid":16,"cod_local":1210,"nome_local":"ESCOLA MUNICIPAL NOSSA SENHORA APARECIDA","localidade":"POVOADO ENSEADA GRANDE II- ZONA RURAL","eleitores":178,"qtd_secoes":1,"secoes":"155"},"geometry":{"type":"Point","coordinates":[-45.2457355,-3.3614214]}},{"type":"Feature","properties":{"fid":17,"cod_local":1139,"nome_local":"ESCOLA MUNICIPAL NOSSA SENHORA DA CONCEICAO","localidade":"POVOADO BOM JARDIM- ZONA RURAL","eleitores":577,"qtd_secoes":2,"secoes":"144, 223"},"geometry":{"type":"Point","coordinates":[-45.0421485,-3.4424463]}},{"type":"Feature","properties":{"fid":18,"cod_local":1163,"nome_local":"ESCOLA MUNICIPAL DOM PEDRO II","localidade":"POVOADO MOCOROCA- ZONA RURAL","eleitores":654,"qtd_secoes":2,"secoes":"148, 176"},"geometry":{"type":"Point","coordinates":[-45.060518,-3.283182]}},{"type":"Feature","properties":{"fid":19,"cod_local":1325,"nome_local":"ESCOLA MUNICIPAL CIRENE ABREU","localidade":"CENTRO- ZONA URBANA","eleitores":840,"qtd_secoes":3,"secoes":"253, 241, 217"},"geometry":{"type":"Point","coordinates":[-45.0106452,-3.321274]}},{"type":"Feature","properties":{"fid":20,"cod_local":1015,"nome_local":"UNIDADE INTEGRADA PADRE JOSE ANCHIETA","localidade":"CENTRO- ZONA URBANA","eleitores":1577,"qtd_secoes":6,"secoes":"122, 240, 120, 121, 119, 123"},"geometry":{"type":"Point","coordinates":[-45.0123729,-3.3222589]}},{"type":"Feature","properties":{"fid":21,"cod_local":1341,"nome_local":"ESCOLA MUNICIPAL SÃO MIGUEL DOS CORREIA","localidade":"ZONA RURAL","eleitores":178,"qtd_secoes":1,"secoes":"255"},"geometry":{"type":"Point","coordinates":[-45.1301119,-3.3576414]}},{"type":"Feature","properties":{"fid":22,"cod_local":1295,"nome_local":"ESCOLA MUNICIPAL LUIZ GONZAGA SOUZA FERREIRA ","localidade":"ZONA RURAL","eleitores":517,"qtd_secoes":2,"secoes":"198, 246"},"geometry":{"type":"Point","coordinates":[-45.0807179,-3.5344716]}},{"type":"Feature","properties":{"fid":23,"cod_local":1104,"nome_local":"ESCOLA MUNICIPAL ESTEVAM GOMES","localidade":"POVOADO ENSEADA GRANDE I- ZONA RURAL","eleitores":393,"qtd_secoes":2,"secoes":"140, 141"},"geometry":{"type":"Point","coordinates":[-45.2528072,-3.3545432]}},{"type":"Feature","properties":{"fid":24,"cod_local":1074,"nome_local":"ESCOLA MUNICIPAL JACINTO JOSE GOMES","localidade":"POVOADO CACHOEIRA- ZONA RURAL","eleitores":416,"qtd_secoes":2,"secoes":"134, 136"},"geometry":{"type":"Point","coordinates":[-44.9242448,-3.3091263]}},{"type":"Feature","properties":{"fid":25,"cod_local":1333,"nome_local":"ESCOL MUNICIPAL SÃO JOSÉ","localidade":"ZONA RURAL","eleitores":105,"qtd_secoes":1,"secoes":"219"},"geometry":{"type":"Point","coordinates":[-44.9602422,-3.3788555]}}]}