{"type":"FeatureCollection","name":"MA-014","features":[{"type":"Feature","properties":{"fid":1,"full_id":"w628292621","osm_id":"628292621","osm_type":"way","highway":"primary","tracktype":null,"flood_pron":null,"ford":null,"addr_subur":null,"access":null,"tunnel":null,"service":null,"embankment":null,"descriptio":null,"destinatio":null,"destinat_1":null,"alt_name":null,"source_nam":null,"layer":null,"bridge":null,"oneway":"no","name":"Rodovia Deputado João Evangelista","surface":"asphalt","ref":"MA-014","maxspeed":"80","lanes":"2","IBGE_CD_AD":"estadual"},"geometry":{"type":"MultiLineString","coordinates":[[[-44.8722579,-3.4613425],[-44.8723252,-3.460966],[-44.8728092,-3.4598231],[-44.8742614,-3.458855],[-44.8762514,-3.4580482],[-44.8771119,-3.4564347],[-44.8770582,-3.4542296],[-44.8770582,-3.4518093],[-44.8771119,-3.4488512],[-44.8774884,-3.4452476],[-44.8779187,-3.4422357],[-44.8785103,-3.4392238],[-44.8788504,-3.4357707],[-44.87896,-3.4350758],[-44.8798066,-3.4289273],[-44.8801721,-3.426312],[-44.8802469,-3.425837],[-44.88025,-3.4254963],[-44.8802298,-3.4253453],[-44.8801966,-3.4250982],[-44.8801086,-3.4248106],[-44.8799983,-3.4245653],[-44.8798673,-3.4243278],[-44.8797029,-3.424111],[-44.8794359,-3.4238674],[-44.878961,-3.4235338],[-44.8786321,-3.4232999],[-44.8781767,-3.423],[-44.877478,-3.4225442],[-44.8765902,-3.4219592],[-44.8750339,-3.4209358],[-44.8739084,-3.4201948],[-44.8733166,-3.4198052],[-44.8732227,-3.4197423],[-44.8723657,-3.4191881],[-44.8719822,-3.4189337],[-44.870802,-3.418168],[-44.8704467,-3.4179349],[-44.869241,-3.4171438],[-44.8682727,-3.4165053],[-44.8669799,-3.4156579],[-44.8664635,-3.4153232],[-44.8661403,-3.4150768],[-44.8658654,-3.4148292],[-44.8655958,-3.414528],[-44.8655838,-3.4145106],[-44.8653424,-3.4141304],[-44.8651654,-3.4137569],[-44.8650339,-3.4133887],[-44.8644908,-3.4118753],[-44.8638296,-3.4100406],[-44.863552,-3.409252],[-44.8630142,-3.4077299],[-44.8621613,-3.405351],[-44.8617281,-3.40413],[-44.8593784,-3.3975834],[-44.8573322,-3.3918411],[-44.8533039,-3.3806577],[-44.8531011,-3.3798718],[-44.8530891,-3.3793835],[-44.8531667,-3.378806],[-44.8533874,-3.3782403],[-44.854146,-3.3768829],[-44.8564887,-3.3726907],[-44.8569827,-3.3717685],[-44.8573466,-3.3710894],[-44.8575086,-3.3706256],[-44.8576095,-3.370171],[-44.8576309,-3.3696981],[-44.8575986,-3.369227],[-44.8571442,-3.3668451],[-44.8560796,-3.3611473],[-44.8558897,-3.3601307],[-44.8558232,-3.3596098],[-44.8558539,-3.3590649],[-44.855965,-3.3586894],[-44.8561223,-3.3583206],[-44.8567366,-3.3572965],[-44.8595094,-3.3528073],[-44.861759,-3.3491785],[-44.8820376,-3.3164309],[-44.8902649,-3.3031115],[-44.8938652,-3.2972828],[-44.8942206,-3.2966185],[-44.8944928,-3.2958824],[-44.8951963,-3.2937092]]]}},{"type":"Feature","properties":{"fid":2,"full_id":"w801035527","osm_id":"801035527","osm_type":"way","highway":"primary","tracktype":null,"flood_pron":null,"ford":null,"addr_subur":null,"access":null,"tunnel":null,"service":null,"embankment":null,"descriptio":null,"destinatio":null,"destinat_1":null,"alt_name":null,"source_nam":null,"layer":null,"bridge":null,"oneway":"no","name":"Rodovia Deputado João Evangelista","surface":"asphalt","ref":"MA-014","maxspeed":"80","lanes":"2","IBGE_CD_AD":"estadual"},"geometry":{"type":"MultiLineString","coordinates":[[[-44.8959955,-3.2912021],[-44.8962682,-3.2903106],[-44.8964607,-3.2897501],[-44.8965931,-3.2894335],[-44.8966639,-3.2892643],[-44.8971023,-3.2884636],[-44.897605,-3.2876255],[-44.9001377,-3.2834027],[-44.9003872,-3.2829007],[-44.9005687,-3.2823722],[-44.9007729,-3.281689],[-44.9009241,-3.2808019],[-44.9011018,-3.2795261],[-44.9016589,-3.2759667],[-44.9031423,-3.2665183],[-44.9033162,-3.2657407],[-44.9035582,-3.2650801],[-44.9038417,-3.2644572],[-44.9042387,-3.2637438],[-44.9048437,-3.2629473],[-44.9055885,-3.2620753],[-44.9060531,-3.2615174],[-44.9229308,-3.2412524],[-44.9236718,-3.2404219],[-44.9242843,-3.239818],[-44.9252674,-3.2389158],[-44.9280356,-3.2363606],[-44.9303846,-3.2341866],[-44.9318296,-3.2328617],[-44.9329662,-3.2318447],[-44.9342416,-3.2307421],[-44.9352193,-3.2298959],[-44.9359569,-3.2292592],[-44.9365208,-3.2287798],[-44.9372886,-3.228117],[-44.9383669,-3.2271818],[-44.9393164,-3.2263623],[-44.9399393,-3.2258227],[-44.9413931,-3.2245754],[-44.942368,-3.2237352],[-44.9430547,-3.2231487],[-44.9432793,-3.2229533],[-44.9438299,-3.2224886],[-44.9452632,-3.2212367],[-44.9463321,-3.2203963],[-44.9475288,-3.2193206],[-44.9484028,-3.2185609],[-44.9496062,-3.2176937],[-44.9501239,-3.217297],[-44.9507088,-3.2170146],[-44.9513946,-3.2168466],[-44.9526787,-3.2167524],[-44.9548771,-3.2168667],[-44.9585747,-3.2170617],[-44.959637,-3.217102],[-44.9607261,-3.2170684],[-44.9616472,-3.2168869],[-44.9628976,-3.2165239],[-44.9639263,-3.2161743],[-44.9650019,-3.2154347],[-44.965923,-3.2144666],[-44.9668441,-3.2134178],[-44.9679197,-3.2115555],[-44.9682962,-3.2104731],[-44.968666,-3.2096462],[-44.9693652,-3.2088394],[-44.9704207,-3.2078243],[-44.9715367,-3.2068427],[-44.9728074,-3.2057401],[-44.9734326,-3.2052225],[-44.9740579,-3.2048258],[-44.9746831,-3.2045569],[-44.975389,-3.2044964],[-44.9762159,-3.2045905],[-44.9770093,-3.2047048],[-44.9776412,-3.2047922],[-44.9786093,-3.2047518],[-44.9800212,-3.2044762],[-44.9827305,-3.2039115],[-44.9846869,-3.2035215],[-44.9865358,-3.2031383],[-44.9877526,-3.2028828],[-44.9890905,-3.2027215],[-44.9913831,-3.2030173],[-44.9933395,-3.2033804],[-44.9951816,-3.2036963],[-44.996385,-3.2039047],[-44.9974203,-3.2038711],[-44.999444,-3.2036762],[-45.0019046,-3.2034678],[-45.0031147,-3.2033602],[-45.0042711,-3.2030913],[-45.0050308,-3.2026879],[-45.0058308,-3.2019147],[-45.0067989,-3.2006777],[-45.007357,-3.1999247],[-45.0086814,-3.1982843],[-45.0097638,-3.1968657],[-45.0105706,-3.1957833],[-45.0112294,-3.1950909],[-45.0120429,-3.1947009],[-45.0131589,-3.1943917],[-45.0156666,-3.1938337],[-45.0177844,-3.1933362],[-45.0206753,-3.1927176],[-45.0230619,-3.192126],[-45.0264436,-3.1913865],[-45.0286689,-3.1908823],[-45.03039,-3.1904923],[-45.0312438,-3.1902032],[-45.0324809,-3.1895914],[-45.0355735,-3.1879645],[-45.0384173,-3.1864383],[-45.0404678,-3.1853761],[-45.0412073,-3.184966],[-45.0434596,-3.183171],[-45.0465118,-3.1803338],[-45.0491136,-3.1771068],[-45.0498733,-3.1760782],[-45.0528718,-3.17232],[-45.0539945,-3.1707199],[-45.0548147,-3.1696375],[-45.0555543,-3.1686829],[-45.0570132,-3.1667668],[-45.0588284,-3.1644406],[-45.0597427,-3.16317],[-45.0603007,-3.1620271],[-45.0610806,-3.1592774],[-45.0614571,-3.1583227],[-45.0619411,-3.1577512],[-45.063084,-3.1569714],[-45.0658136,-3.1552032],[-45.0664724,-3.1545847],[-45.067333,-3.1534888],[-45.0687112,-3.151761],[-45.0702037,-3.1499593],[-45.0710777,-3.149092],[-45.073256,-3.1470616],[-45.0748628,-3.1456296],[-45.0759653,-3.1445271],[-45.0765637,-3.1439825],[-45.077041,-3.1435186],[-45.0773906,-3.142927],[-45.0777066,-3.1421269],[-45.0780965,-3.1413874],[-45.0785537,-3.1409235],[-45.0788899,-3.1406479],[-45.0820631,-3.1379116],[-45.0830178,-3.1372057],[-45.0855994,-3.1350274],[-45.0873205,-3.1335416],[-45.0880399,-3.13295],[-45.089371,-3.1318945],[-45.090198,-3.1310205],[-45.0905341,-3.1305096],[-45.0906619,-3.1296692],[-45.0905409,-3.1286473],[-45.089808,-3.1266371],[-45.0887996,-3.1238067],[-45.0881743,-3.1218302],[-45.0871995,-3.1191678],[-45.0867423,-3.1176821],[-45.0856263,-3.1145962],[-45.0844027,-3.1110061],[-45.0834615,-3.1082429]]]}}]}