{"type":"FeatureCollection","name":"MA-317","features":[{"type":"Feature","properties":{"fid":1,"full_id":"w438340735","osm_id":"438340735","osm_type":"way","highway":"secondary","tracktype":null,"flood_pron":null,"ford":null,"addr_subur":null,"access":null,"tunnel":null,"service":null,"embankment":null,"descriptio":null,"destinatio":null,"destinat_1":null,"alt_name":null,"source_nam":null,"layer":null,"bridge":null,"oneway":null,"name":null,"surface":"asphalt","ref":"MA-317","maxspeed":null,"lanes":"2","IBGE_CD_AD":null},"geometry":{"type":"MultiLineString","coordinates":[[[-45.0080815,-3.3189665],[-45.0076738,-3.3182944],[-45.0075977,-3.3181599],[-45.0069087,-3.3169428],[-45.0067813,-3.31674],[-45.0067022,-3.3166369],[-45.0066532,-3.3165766],[-45.0065573,-3.3164809],[-45.0064453,-3.3163751],[-45.006385,-3.3163417],[-45.0062945,-3.3162948],[-45.0062019,-3.3162627],[-45.0061087,-3.3162326],[-45.0059934,-3.3162131],[-45.0058935,-3.3162091],[-45.0057587,-3.3162111],[-45.0052283,-3.3162091],[-45.0035821,-3.3161857],[-45.003399,-3.3161763],[-45.0032629,-3.3161522],[-45.0031489,-3.3161094],[-45.0030631,-3.3160465],[-45.0029665,-3.3159768],[-45.0028311,-3.3158657],[-45.0022893,-3.3154547],[-45.0019406,-3.3151936],[-45.0017005,-3.3149954],[-45.0013076,-3.3146674],[-45.0008221,-3.3142952],[-45.0005606,-3.314089],[-45.0002903,-3.3138875],[-45.0000704,-3.313749],[-44.9999142,-3.3136419],[-44.9996869,-3.3135006],[-44.9994448,-3.3133661],[-44.9988252,-3.3130675],[-44.9983612,-3.3128278],[-44.9980755,-3.3126993],[-44.9977,-3.3125708],[-44.9972065,-3.3124355],[-44.9965976,-3.3122374],[-44.9955019,-3.3119067],[-44.9946517,-3.3116443],[-44.9939288,-3.3114113],[-44.9933615,-3.3112265],[-44.9921633,-3.310853],[-44.9920198,-3.3108001],[-44.9919527,-3.310768],[-44.9918548,-3.3106937],[-44.991781,-3.3106294],[-44.9916878,-3.3105384],[-44.9915195,-3.3103248],[-44.9913794,-3.3101903],[-44.991207,-3.310057],[-44.9910837,-3.3099834],[-44.9909522,-3.3099352],[-44.9908201,-3.3099064],[-44.9905767,-3.3098643],[-44.990171,-3.30981],[-44.9900383,-3.3097946],[-44.9897908,-3.3097605],[-44.9894898,-3.3097116],[-44.9890539,-3.3096601],[-44.9887421,-3.3096333],[-44.9884343,-3.3096172],[-44.9881513,-3.3096119],[-44.9876511,-3.3096293],[-44.9868974,-3.3096735],[-44.9860793,-3.3097324],[-44.9854302,-3.3097551],[-44.9849676,-3.3097525],[-44.9846779,-3.309727],[-44.9841566,-3.3096554],[-44.9819888,-3.3092557],[-44.9816743,-3.3091637],[-44.9813812,-3.3090075],[-44.9798283,-3.3083213],[-44.9793421,-3.3081498],[-44.9792713,-3.3081355],[-44.978813,-3.3080426],[-44.9774184,-3.3080288],[-44.9769903,-3.3080839],[-44.9766667,-3.3082356],[-44.9753748,-3.3089662],[-44.9749329,-3.3091316],[-44.9741936,-3.3091806],[-44.9736634,-3.3091247],[-44.9717847,-3.3087318],[-44.971134,-3.308692],[-44.9671453,-3.3089386],[-44.9663997,-3.3090902],[-44.9654383,-3.3093429],[-44.9651098,-3.3093562],[-44.9646902,-3.30931],[-44.9637407,-3.3090039],[-44.9632305,-3.30878],[-44.9628103,-3.3084245],[-44.9625608,-3.3080878],[-44.9622372,-3.3075695],[-44.96197,-3.306995],[-44.9583635,-3.2973455],[-44.9574521,-3.2947401],[-44.9573124,-3.2941596],[-44.9572871,-3.2938072],[-44.9572618,-3.2933103],[-44.9574314,-3.28901],[-44.9574053,-3.2885382],[-44.9572274,-3.2880812],[-44.9567203,-3.2871996],[-44.9564526,-3.2868068],[-44.9548692,-3.2850581],[-44.9531717,-3.2834087],[-44.9510292,-3.2816074],[-44.9507439,-3.2814267],[-44.950493,-3.2813271],[-44.9490446,-3.2810559],[-44.9483895,-3.2810529],[-44.947894,-3.281072],[-44.9460744,-3.2811479],[-44.9450057,-3.281167],[-44.9443334,-3.2811485],[-44.9439801,-3.2811348],[-44.9436295,-3.2810352],[-44.9432643,-3.2809233],[-44.942926,-3.2807741],[-44.9424353,-3.2806233],[-44.9421766,-3.2805832],[-44.942084,-3.2805689],[-44.9416007,-3.2806103],[-44.9350834,-3.2809273],[-44.9286903,-3.2811755],[-44.9261496,-3.281396],[-44.925045,-3.2815477],[-44.9190386,-3.2823472],[-44.9184448,-3.2823748],[-44.9178511,-3.2822921],[-44.9137965,-3.2816297],[-44.912615,-3.2814176],[-44.910053,-3.2809662],[-44.9094646,-3.2807959],[-44.9090986,-3.280631],[-44.9087517,-3.2804311],[-44.905493,-3.2783081],[-44.9029684,-3.2767274],[-44.9018471,-3.2760665],[-44.9016589,-3.2759667]]]}}]}