{"type":"FeatureCollection","name":"Rio Maracu","features":[{"type":"Feature","properties":{"IDCDA":71190,"COCURSODAG":"72216","NUDISTBACC":145.315,"NUCOMPCDA":43.6239,"NUAREABACC":434.701,"COCDADESAG":"722","NUNIVOTCDA":5,"NUORDEMCDA":3,"DEDOMINIAL":"Estadual"},"geometry":{"type":"MultiLineString","coordinates":[[[-45.1326845,-3.1596499],[-45.1326801,-3.1596586],[-45.1330361,-3.1662438],[-45.13357,-3.172651],[-45.133214,-3.1788803],[-45.1321462,-3.1826178],[-45.1321462,-3.1863553],[-45.1321462,-3.1920506],[-45.1310784,-3.1986358],[-45.1259169,-3.205577],[-45.1192055,-3.2157526]],[[-45.1842756,-3.0939749],[-45.1718034,-3.0981556],[-45.1664991,-3.1096857],[-45.1584708,-3.117469],[-45.1551738,-3.1220819],[-45.1504439,-3.1311618],[-45.1477205,-3.1415384],[-45.1444233,-3.1452856],[-45.141126,-3.1471598],[-45.1399789,-3.1484559],[-45.1391898,-3.1483421],[-45.1371306,-3.1508529],[-45.1326845,-3.1596499]],[[-45.1192055,-3.2157526],[-45.1148823,-3.222307],[-45.1116673,-3.2241539]],[[-45.1116673,-3.2241539],[-45.0981523,-3.2319178],[-45.0880076,-3.2349435],[-45.0805325,-3.2352994],[-45.0707436,-3.2352994],[-45.0613108,-3.2324518],[-45.0369277,-3.2288922],[-45.0203757,-3.2317399],[-45.0130786,-3.2363673],[-45.0086292,-3.2438424],[-45.0088071,-3.2509615],[-45.0109429,-3.2539872],[-45.0159263,-3.2611063],[-45.0178562,-3.2712116],[-45.0188119,-3.274499],[-45.0242369,-3.2804325],[-45.0258341,-3.2836402],[-45.0259925,-3.2878094],[-45.0213649,-3.2935819],[-45.0199288,-3.2988752],[-45.0192911,-3.312426],[-45.0173772,-3.316274],[-45.0137059,-3.3177183],[-45.0080757,-3.318951],[-45.0063553,-3.3201022],[-44.9993294,-3.3280288],[-44.9928777,-3.3309118],[-44.9860731,-3.3382578]]]}}]}