{"type":"FeatureCollection","name":"Rio Pindare","features":[{"type":"Feature","properties":{"IDCDA":81674,"COCURSODAG":"722","NUDISTBACC":89.1867,"NUCOMPCDA":621.89,"NUAREABACC":40600.9,"COCDADESAG":"72","NUNIVOTCDA":3,"NUORDEMCDA":2,"DEDOMINIAL":"Rio Pind"},"geometry":{"type":"MultiLineString","coordinates":[[[-45.3070922,-3.5930013],[-45.305083,-3.5906959],[-45.3063733,-3.5892543],[-45.3089079,-3.5810958],[-45.3063736,-3.5808973],[-45.3032186,-3.5827715],[-45.3004217,-3.5838146],[-45.2986299,-3.5834921],[-45.2969069,-3.5811867],[-45.2971152,-3.5789098],[-45.2981662,-3.5777784],[-45.300721,-3.5766458],[-45.3050757,-3.5752867],[-45.3062273,-3.573837],[-45.3069449,-3.5708113],[-45.3049363,-3.5664885],[-45.305079,-3.5643264],[-45.3043622,-3.5620208],[-45.3020672,-3.5610129],[-45.2961914,-3.5610836],[-45.2939441,-3.5603589],[-45.2904104,-3.5579397],[-45.2894467,-3.5584218],[-45.2897344,-3.5621681],[-45.2947535,-3.5677871],[-45.2940378,-3.5715344],[-45.2910261,-3.5738398],[-45.288445,-3.5736956],[-45.2860073,-3.570382],[-45.2845708,-3.5643311],[-45.2842836,-3.5582799],[-45.2836653,-3.5529386],[-45.2824186,-3.5516503],[-45.2805343,-3.5525368],[-45.2791209,-3.5551096],[-45.2778857,-3.5575594],[-45.2773606,-3.560199],[-45.2762539,-3.5617382],[-45.2742451,-3.5613063],[-45.2732411,-3.5582808],[-45.2730972,-3.5529485],[-45.2756778,-3.5503556],[-45.2787679,-3.5484227],[-45.27925,-3.5468899],[-45.2792489,-3.545519],[-45.2786881,-3.5447351],[-45.2767593,-3.5437444],[-45.2753158,-3.5435023],[-45.274593,-3.5426154],[-45.2751543,-3.5414859],[-45.2767597,-3.5405171],[-45.2778276,-3.5386831],[-45.2782561,-3.5337847],[-45.2749569,-3.5285966],[-45.2739527,-3.5291728],[-45.2734669,-3.5302733],[-45.2729852,-3.5347098],[-45.2718037,-3.5355138],[-45.2698535,-3.5348721],[-45.2679308,-3.5323441],[-45.2668037,-3.5302744],[-45.2663512,-3.520097],[-45.2672112,-3.5177909],[-45.2705095,-3.5183674],[-45.2749552,-3.5239857],[-45.2762475,-3.523697],[-45.2765319,-3.5187986],[-45.2749542,-3.5127457],[-45.2706516,-3.5066951],[-45.2679833,-3.5011496],[-45.2670445,-3.5000935],[-45.2621813,-3.4995952],[-45.2601806,-3.4987717],[-45.2594635,-3.4940171],[-45.2580287,-3.4917105],[-45.2554415,-3.491881],[-45.250143,-3.4935854],[-45.2432593,-3.4983411],[-45.2363772,-3.5016563],[-45.232936,-3.5025222],[-45.2294938,-3.5025218],[-45.2249038,-3.4996414],[-45.2244744,-3.4980572],[-45.2233259,-3.4971919],[-45.2228965,-3.4960391],[-45.219024,-3.494742],[-45.2154382,-3.490996],[-45.2178757,-3.4882575],[-45.2183046,-3.4858087],[-45.2175891,-3.4845111],[-45.2162977,-3.4845113],[-45.2117084,-3.4868187],[-45.2102748,-3.4863858],[-45.2097012,-3.483361],[-45.2114211,-3.4780282],[-45.2111344,-3.4735602],[-45.2089821,-3.4689504],[-45.2071182,-3.4673645],[-45.2043933,-3.4672211],[-45.2038203,-3.4696709],[-45.2079797,-3.4764435],[-45.2075489,-3.479037],[-45.2062595,-3.4797579],[-45.2042518,-3.4799019],[-45.2012405,-3.4787502],[-45.1982286,-3.4790391],[-45.1962209,-3.4799029],[-45.1942132,-3.4797603],[-45.1916311,-3.4775993],[-45.1903404,-3.4751489],[-45.1879031,-3.472987],[-45.186898,-3.472988],[-45.1817375,-3.4774549],[-45.1800159,-3.4768781],[-45.178582,-3.474141],[-45.1767173,-3.472556],[-45.1727028,-3.472268],[-45.1701208,-3.4705393],[-45.167109,-3.4633359],[-45.1659813,-3.462345],[-45.1642535,-3.4622366],[-45.1613397,-3.4634297],[-45.1597958,-3.4673699],[-45.159796,-3.4689551],[-45.1570715,-3.473134],[-45.1543467,-3.4745757],[-45.1529133,-3.4763049],[-45.1515854,-3.4800297],[-45.15191,-3.4871139],[-45.15148,-3.4886982],[-45.1497594,-3.4892753],[-45.1417295,-3.4894189],[-45.1377123,-3.4902837],[-45.1351325,-3.4933115],[-45.1328387,-3.4947521],[-45.1312612,-3.4947514],[-45.1296835,-3.4935995],[-45.1285152,-3.4906788],[-45.1278666,-3.4829788],[-45.1261395,-3.480267],[-45.1240895,-3.4796215],[-45.1215077,-3.4803424],[-45.1207914,-3.4814954],[-45.1230867,-3.4888453],[-45.1222267,-3.4914379],[-45.1212224,-3.4925918],[-45.1192147,-3.4924473],[-45.1157732,-3.4901426],[-45.1133349,-3.4843779],[-45.1116952,-3.4824998],[-45.1094283,-3.4818498],[-45.1066212,-3.4771866],[-45.1057579,-3.4740407],[-45.103383,-3.4739332],[-45.1016571,-3.4750175],[-45.0997133,-3.4744751],[-45.0988501,-3.4719856],[-45.0966993,-3.4715535],[-45.0942613,-3.4696809],[-45.0942612,-3.4680966],[-45.0972729,-3.4623316],[-45.0969829,-3.4592172],[-45.0959039,-3.4578066],[-45.0918024,-3.4631222],[-45.0873775,-3.4624759],[-45.0865172,-3.4610354],[-45.0896711,-3.4551284],[-45.0896709,-3.4528216],[-45.0885243,-3.4508041],[-45.0836488,-3.4529666],[-45.0807684,-3.4557149],[-45.0776386,-3.4566898],[-45.0752637,-3.4547385],[-45.0741836,-3.4513809],[-45.0751877,-3.4461938],[-45.0769081,-3.4434555],[-45.0794898,-3.4414379],[-45.0823577,-3.4401419],[-45.083505,-3.4386995],[-45.0839341,-3.4350967],[-45.0807797,-3.4296222],[-45.0810891,-3.4264824],[-45.0832478,-3.4234457],[-45.0823836,-3.4183482],[-45.0792538,-3.4161798],[-45.0746131,-3.416076],[-45.0718883,-3.4166531],[-45.0691063,-3.4273475],[-45.0675945,-3.4282157],[-45.0654357,-3.4274616],[-45.0640021,-3.4257326],[-45.0670129,-3.4205445],[-45.0671568,-3.4188146],[-45.0658906,-3.4177511],[-45.062436,-3.4169917],[-45.0554198,-3.4201371],[-45.0529379,-3.420138],[-45.051858,-3.419488],[-45.051534,-3.4171006],[-45.0526138,-3.4162342],[-45.0571464,-3.415582],[-45.0585503,-3.4144986],[-45.0589821,-3.4114665],[-45.0565442,-3.4087283],[-45.0496619,-3.4059902],[-45.0477973,-3.4036852],[-45.0479403,-3.4018106],[-45.0490877,-3.4010907],[-45.0521193,-3.4013456],[-45.0553571,-3.4024307],[-45.0579478,-3.4024297],[-45.0555405,-3.3974886],[-45.0459324,-3.3891294],[-45.0424912,-3.3871119],[-45.0426343,-3.3862483],[-45.0396233,-3.3848078],[-45.0361823,-3.385383],[-45.0332891,-3.3830888],[-45.0315623,-3.3787517],[-45.0289715,-3.3768527],[-45.0218483,-3.3753344],[-45.0203383,-3.3773954],[-45.0233593,-3.3865064],[-45.0221733,-3.3898678],[-45.0205536,-3.3923637],[-45.017639,-3.3942068],[-45.015374,-3.3946409],[-45.0100846,-3.3938867],[-45.0082192,-3.3930203],[-45.006702,-3.3908003],[-45.00627,-3.3844014],[-45.0033455,-3.3823576],[-45.001095,-3.3797323],[-45.0006639,-3.3779969],[-45.0016348,-3.3762615],[-45.0015278,-3.3726822],[-45.000663,-3.3693199],[-44.9971788,-3.3660733],[-44.9915871,-3.3670826],[-44.9892925,-3.3666503],[-44.9877151,-3.3653535],[-44.9873147,-3.3637826],[-44.9885025,-3.3611791],[-44.9887185,-3.3585809],[-44.9882893,-3.358004],[-44.9851335,-3.3575708],[-44.9811184,-3.3585799],[-44.9789497,-3.3574549],[-44.969992,-3.3493203],[-44.9701,-3.3470432],[-44.9729067,-3.3453069],[-44.9752804,-3.3462836],[-44.9816485,-3.3462837],[-44.9846711,-3.3443322],[-44.9860731,-3.3415116],[-44.9860731,-3.3382578],[-44.9831342,-3.3369163],[-44.9804994,-3.3363734],[-44.9798403,-3.3361653],[-44.9792631,-3.3358848],[-44.9731489,-3.3323111],[-44.9723629,-3.3320487],[-44.9709648,-3.3318406],[-44.9701777,-3.3318315],[-44.9690272,-3.331931],[-44.9682836,-3.3321029],[-44.9677846,-3.33232],[-44.9664388,-3.3330979],[-44.9644164,-3.334844],[-44.9638214,-3.3352782],[-44.9637014,-3.3353593],[-44.9606628,-3.3374132],[-44.955147,-3.3406971],[-44.9536306,-3.341846],[-44.9524697,-3.3423163],[-44.9515598,-3.3423977],[-44.9510974,-3.3422891],[-44.9507736,-3.3421263],[-44.9504456,-3.3418639],[-44.95024,-3.3415834],[-44.9500448,-3.3410406],[-44.9495484,-3.3387607],[-44.9493318,-3.338245],[-44.9490151,-3.3378559],[-44.9486981,-3.3377021],[-44.9482384,-3.3377112],[-44.9478051,-3.337874],[-44.9466171,-3.3385434],[-44.9459085,-3.3387243],[-44.9449071,-3.3386609],[-44.9443147,-3.3384528],[-44.9421101,-3.336969],[-44.9377101,-3.3334494],[-44.9360675,-3.3319927],[-44.9356949,-3.3315675],[-44.935505,-3.3312327],[-44.9351852,-3.3302285],[-44.9350249,-3.3293147],[-44.9350961,-3.3286272],[-44.9353443,-3.3280844],[-44.9356023,-3.3278401],[-44.9360411,-3.3275959],[-44.9365219,-3.3274602],[-44.9370108,-3.327424],[-44.937628,-3.3275507],[-44.9391537,-3.3281298],[-44.9396902,-3.3281842],[-44.940441,-3.3279399],[-44.9414631,-3.3273519],[-44.9420789,-3.3267277],[-44.9432751,-3.325226],[-44.9438808,-3.3242127],[-44.9454763,-3.3210554],[-44.945674,-3.3203679],[-44.9458997,-3.3190018],[-44.9459591,-3.3179342],[-44.9457018,-3.3165952],[-44.9453876,-3.3159077],[-44.944912,-3.3154824],[-44.9443443,-3.3153105],[-44.943688,-3.3154009],[-44.9431865,-3.3156542],[-44.9415548,-3.316785],[-44.9410954,-3.316975],[-44.9406209,-3.3170292],[-44.9400493,-3.3168482],[-44.9396276,-3.3164954],[-44.9392572,-3.3159254],[-44.9390904,-3.3152197],[-44.939057,-3.3136726],[-44.9392881,-3.3127408],[-44.9401962,-3.3110038],[-44.9417738,-3.3091131],[-44.9422538,-3.3083351],[-44.943712,-3.3050421],[-44.9443925,-3.3032418],[-44.9445673,-3.302518],[-44.9445608,-3.301758],[-44.9444031,-3.300401],[-44.9437804,-3.2979492],[-44.943679,-3.2968274],[-44.9437896,-3.2962664],[-44.9440602,-3.295597],[-44.9450845,-3.2940771],[-44.9453326,-3.2935705],[-44.945444,-3.2927382],[-44.9453586,-3.2917792],[-44.9451763,-3.2910011],[-44.9449263,-3.2903136],[-44.9443787,-3.2891555],[-44.9439562,-3.2885041],[-44.9433731,-3.287907],[-44.9429332,-3.2875903],[-44.9425107,-3.2874093],[-44.9417899,-3.2872474],[-44.9417858,-3.2872464],[-44.9415444,-3.2872932],[-44.940853,-3.2874273],[-44.9400471,-3.287771],[-44.9394788,-3.2882595],[-44.9391339,-3.2888928],[-44.9390098,-3.289707],[-44.9390299,-3.2913083],[-44.9391413,-3.2918873],[-44.9396054,-3.2933349],[-44.939708,-3.2941763],[-44.9395817,-3.2948005],[-44.9392132,-3.2951624],[-44.9387501,-3.2953252],[-44.9382444,-3.2952981],[-44.9358646,-3.2945289],[-44.9331659,-3.2937688],[-44.9313994,-3.2934701],[-44.9305574,-3.2934701],[-44.9296882,-3.293669],[-44.9292443,-3.2938861],[-44.9287793,-3.2942842],[-44.9284636,-3.2947546],[-44.9281358,-3.2955507],[-44.9280078,-3.2962835],[-44.9280682,-3.2967992],[-44.9284331,-3.2974597],[-44.9302327,-3.2996582],[-44.9307173,-3.3003639],[-44.9309999,-3.300952],[-44.9312573,-3.301721],[-44.9312899,-3.3021734],[-44.9311877,-3.3025986],[-44.9308763,-3.3030237],[-44.9305264,-3.303268],[-44.9280649,-3.3041092],[-44.9272441,-3.3044891],[-44.9268674,-3.3048057],[-44.9255918,-3.3062169],[-44.9244018,-3.3073659],[-44.9233804,-3.3082072],[-44.9226861,-3.3086233],[-44.9216779,-3.3088404],[-44.9195366,-3.3091387],[-44.9181835,-3.3092381],[-44.9149896,-3.3085774],[-44.9141185,-3.3081883],[-44.9112794,-3.3066591],[-44.9089147,-3.3050576],[-44.9060267,-3.3033383],[-44.9042375,-3.3025059],[-44.9033711,-3.3022163],[-44.902413,-3.3020624],[-44.9016706,-3.3020985],[-44.898012,-3.3028068],[-44.8979807,-3.3028128],[-44.8978864,-3.3028044],[-44.8971655,-3.3027404],[-44.8962885,-3.3023603],[-44.8956761,-3.3017812],[-44.895317,-3.3011298],[-44.8952402,-3.3007046],[-44.8952589,-3.3000622],[-44.8956602,-3.2981715],[-44.8957512,-3.2968597],[-44.8956627,-3.2959278],[-44.8953247,-3.2951768],[-44.8950316,-3.2949326],[-44.8945765,-3.2947606],[-44.8940555,-3.2947063],[-44.891004,-3.2947331],[-44.8904012,-3.2946335],[-44.889885,-3.2943711],[-44.8894164,-3.2938463],[-44.8881524,-3.2920549],[-44.8845858,-3.2852692],[-44.8844928,-3.2846268],[-44.8845955,-3.2837674],[-44.8848164,-3.2832608],[-44.8852303,-3.2828356],[-44.885879,-3.282519],[-44.8864163,-3.2823924],[-44.8891707,-3.2822842],[-44.8901595,-3.2821124],[-44.8904833,-3.2819134],[-44.8907753,-3.2815606],[-44.8909103,-3.2811264],[-44.8909309,-3.2806921]],[[-44.8909309,-3.2806921],[-44.8909195,-3.2805344],[-44.8908433,-3.2794797],[-44.8905376,-3.2788012],[-44.8896651,-3.2777245],[-44.8892224,-3.2774983],[-44.8887451,-3.2774621],[-44.8884843,-3.2774833],[-44.8878598,-3.2775343],[-44.8866091,-3.2779413],[-44.8849644,-3.2786015],[-44.881877,-3.2800216],[-44.8803871,-3.2811251],[-44.8781548,-3.2829524],[-44.8762516,-3.2849334],[-44.8753095,-3.2854309],[-44.8742783,-3.2855845],[-44.8733089,-3.2855301],[-44.8727413,-3.2854035],[-44.872143,-3.2851319],[-44.8706841,-3.2842632],[-44.8697013,-3.2834941],[-44.8687138,-3.2824536],[-44.868243,-3.2818202],[-44.8677869,-3.2807707],[-44.8677504,-3.2801103],[-44.868036,-3.2795132],[-44.8685193,-3.27907],[-44.8712207,-3.2782289],[-44.8716359,-3.2779576],[-44.8719043,-3.2775686],[-44.8720897,-3.2768901],[-44.872046,-3.2762748],[-44.8718114,-3.2757502],[-44.8706381,-3.2741215],[-44.8703619,-3.2736148],[-44.8702734,-3.273072],[-44.8703843,-3.2722307],[-44.8706722,-3.2712536],[-44.8713444,-3.2701681],[-44.8739787,-3.2674271],[-44.8746384,-3.2665678],[-44.8748182,-3.2660611],[-44.8748881,-3.2654097],[-44.8747092,-3.2644514],[-44.8746331,-3.2640436],[-44.8746072,-3.2639819],[-44.8744964,-3.2637179],[-44.8740732,-3.2633288],[-44.8735253,-3.2629036],[-44.873062,-3.2627859],[-44.8726968,-3.262826],[-44.8706752,-3.2630479],[-44.8681294,-3.2639342],[-44.8621078,-3.2664394],[-44.8612186,-3.2669188],[-44.860086,-3.2677601],[-44.8593734,-3.2684837],[-44.8591089,-3.268927],[-44.8589612,-3.2693431],[-44.8587727,-3.2719396],[-44.8587094,-3.2739933],[-44.8584271,-3.2750789],[-44.8580329,-3.275875],[-44.8575279,-3.2765443],[-44.856863,-3.2771413],[-44.8560579,-3.2777022],[-44.8553392,-3.2779825],[-44.8544486,-3.2781905],[-44.8507147,-3.2785156],[-44.8451141,-3.2782976],[-44.8427175,-3.2783515],[-44.8406404,-3.2788488],[-44.8402333,-3.279102],[-44.8398811,-3.2795543],[-44.8396621,-3.2801333],[-44.8397278,-3.280658],[-44.8402894,-3.2816171],[-44.8409894,-3.2824224],[-44.8475175,-3.2860694],[-44.8505948,-3.2878702],[-44.8513143,-3.2883498],[-44.8518667,-3.2889651],[-44.8524463,-3.2898879],[-44.8527059,-3.2905032],[-44.8533629,-3.2925479],[-44.8536649,-3.2940588],[-44.8536076,-3.2946921],[-44.8533262,-3.2953163],[-44.8528538,-3.2959857],[-44.8526302,-3.2961485],[-44.8523832,-3.2962208],[-44.851698,-3.2961484],[-44.8495498,-3.2955419],[-44.8490177,-3.295198],[-44.8479342,-3.2941574],[-44.8473756,-3.2937141],[-44.8467242,-3.2933882],[-44.8436633,-3.2921936],[-44.842433,-3.291913],[-44.8391728,-3.2913877],[-44.8324495,-3.2913504],[-44.8315342,-3.2912688],[-44.8305702,-3.2909249],[-44.8291932,-3.2902461],[-44.8261288,-3.2883638],[-44.8254346,-3.2878842],[-44.8247751,-3.2873141],[-44.8189173,-3.2819029],[-44.8184028,-3.281351],[-44.8179903,-3.2807176],[-44.8170421,-3.2789262],[-44.8148237,-3.2736513],[-44.8142674,-3.2726561],[-44.8183851,-3.2671743],[-44.8192206,-3.2668035],[-44.8196328,-3.2667222],[-44.8207601,-3.2667314],[-44.8215775,-3.2668311],[-44.8238516,-3.2676819],[-44.8247883,-3.2679264],[-44.8265092,-3.2677367],[-44.8278445,-3.2678997],[-44.8297056,-3.2676287],[-44.8324138,-3.2677467],[-44.8328551,-3.2676292],[-44.8333444,-3.2673217],[-44.834753,-3.2660734],[-44.8364421,-3.264798],[-44.8369696,-3.2643096],[-44.8378494,-3.2631065],[-44.8380351,-3.2627085],[-44.8381273,-3.2622109],[-44.8380666,-3.2609533],[-44.8376804,-3.2588544],[-44.8374442,-3.2569635],[-44.8358807,-3.2541858],[-44.8343675,-3.2517519],[-44.8343191,-3.2517033],[-44.833126,-3.2505032],[-44.8321417,-3.2497341],[-44.8308383,-3.2489468],[-44.8301673,-3.248621],[-44.8287674,-3.2482498],[-44.8280411,-3.2481411],[-44.8265379,-3.2480594],[-44.8243838,-3.2483757],[-44.8234774,-3.248656],[-44.8217556,-3.2495423],[-44.8211771,-3.2501302],[-44.8199411,-3.2520299],[-44.8196327,-3.2525998],[-44.818708,-3.2547981],[-44.8174849,-3.2567791],[-44.8155794,-3.2602619],[-44.8140285,-3.2628038],[-44.8135085,-3.2635817],[-44.8122143,-3.2651376],[-44.8113561,-3.2664674],[-44.8102747,-3.2686475],[-44.8092585,-3.2711352],[-44.8070257,-3.2718314],[-44.8048371,-3.2728895],[-44.80445,-3.2731246],[-44.8040224,-3.2735135],[-44.8011175,-3.2774665],[-44.7965077,-3.283328],[-44.7925401,-3.2912614],[-44.7920581,-3.2920303],[-44.7908965,-3.293559]]]}}]}