{"type":"FeatureCollection","name":"Secoes eleitorais","features":[{"type":"Feature","properties":{"fid":1,"DT_GERACAO":"01/09/2026","HH_GERACAO":"15:18:02","AA_ELEICAO":9999,"DT_ELEICAO":null,"DS_ELEICAO":"#NULO","NR_TURNO":-1,"SG_UF":"MA","CD_MUNICIPIO":7471,"NM_MUNICIPIO":"CAJARI","NR_ZONA":20,"NR_SECAO":180,"CD_TIPO_SECAO_AGREGADA":-1,"DS_TIPO_SECAO_AGREGADA":"#NULO","NR_SECAO_PRINCIPAL":-1,"NR_LOCAL_VOTACAO":1180,"NM_LOCAL_VOTACAO":"ESCOLA MUNICIPAL RAIMUNDO LOBAO","CD_TIPO_LOCAL":-1,"DS_TIPO_LOCAL":"#NULO","DS_ENDERECO":"POVOADO GAMELEIRA","NM_BAIRRO":"POVOADO GAMELEIRA- ZONA RURAL","NR_CEP":65210000,"NR_TELEFONE_LOCAL":"-1","NR_LATITUDE":-3.5456657,"NR_LONGITUDE":-45.0364344,"CD_SITU_LOCAL_VOTACAO":1,"DS_SITU_LOCAL_VOTACAO":"ATIVO","CD_SITU_ZONA":-1,"DS_SITU_ZONA":"ATIVO","CD_SITU_SECAO":1,"DS_SITU_SECAO":"ATIVO","CD_SITU_LOCALIDADE":1,"DS_SITU_LOCALIDADE":"ATIVO","CD_SITU_SECAO_ACESSIBILIDADE":1,"DS_SITU_SECAO_ACESSIBILIDADE":"Com acessibilidade","QT_ELEITOR_SECAO":285,"QT_ELEITOR_ELEICAO_FEDERAL":0,"QT_ELEITOR_ELEICAO_ESTADUAL":0,"QT_ELEITOR_ELEICAO_MUNICIPAL":0,"NR_LOCAL_VOTACAO_ORIGINAL":1180,"NM_LOCAL_VOTACAO_ORIGINAL":"ESCOLA MUNICIPAL RAIMUNDO LOBAO","DS_ENDERECO_LOCVT_ORIGINAL":"POVOADO GAMELEIRA"},"geometry":{"type":"Point","coordinates":[-45.0364344,-3.5456657]}},{"type":"Feature","properties":{"fid":2,"DT_GERACAO":"01/09/2026","HH_GERACAO":"15:18:02","AA_ELEICAO":9999,"DT_ELEICAO":null,"DS_ELEICAO":"#NULO","NR_TURNO":-1,"SG_UF":"MA","CD_MUNICIPIO":7471,"NM_MUNICIPIO":"CAJARI","NR_ZONA":20,"NR_SECAO":171,"CD_TIPO_SECAO_AGREGADA":-1,"DS_TIPO_SECAO_AGREGADA":"#NULO","NR_SECAO_PRINCIPAL":-1,"NR_LOCAL_VOTACAO":1236,"NM_LOCAL_VOTACAO":"ESCOLA MUNICIPAL BOM JESUS","CD_TIPO_LOCAL":-1,"DS_TIPO_LOCAL":"#NULO","DS_ENDERECO":"POVOADO REDONDO","NM_BAIRRO":"POVOADO REDONDO- ZONA RURAL","NR_CEP":65210000,"NR_TELEFONE_LOCAL":"98970195617","NR_LATITUDE":-3.3480972,"NR_LONGITUDE":-44.9262237,"CD_SITU_LOCAL_VOTACAO":1,"DS_SITU_LOCAL_VOTACAO":"ATIVO","CD_SITU_ZONA":-1,"DS_SITU_ZONA":"ATIVO","CD_SITU_SECAO":1,"DS_SITU_SECAO":"ATIVO","CD_SITU_LOCALIDADE":1,"DS_SITU_LOCALIDADE":"ATIVO","CD_SITU_SECAO_ACESSIBILIDADE":1,"DS_SITU_SECAO_ACESSIBILIDADE":"Com acessibilidade","QT_ELEITOR_SECAO":282,"QT_ELEITOR_ELEICAO_FEDERAL":0,"QT_ELEITOR_ELEICAO_ESTADUAL":0,"QT_ELEITOR_ELEICAO_MUNICIPAL":0,"NR_LOCAL_VOTACAO_ORIGINAL":1236,"NM_LOCAL_VOTACAO_ORIGINAL":"ESCOLA MUNICIPAL BOM JESUS","DS_ENDERECO_LOCVT_ORIGINAL":"POVOADO REDONDO"},"geometry":{"type":"Point","coordinates":[-44.9262237,-3.3480972]}},{"type":"Feature","properties":{"fid":3,"DT_GERACAO":"01/09/2026","HH_GERACAO":"15:18:02","AA_ELEICAO":9999,"DT_ELEICAO":null,"DS_ELEICAO":"#NULO","NR_TURNO":-1,"SG_UF":"MA","CD_MUNICIPIO":7471,"NM_MUNICIPIO":"CAJARI","NR_ZONA":20,"NR_SECAO":196,"CD_TIPO_SECAO_AGREGADA":-1,"DS_TIPO_SECAO_AGREGADA":"#NULO","NR_SECAO_PRINCIPAL":-1,"NR_LOCAL_VOTACAO":1198,"NM_LOCAL_VOTACAO":"ESCOLA MUNICIPAL SAO SEBASTIAO","CD_TIPO_LOCAL":-1,"DS_TIPO_LOCAL":"#NULO","DS_ENDERECO":"POVOADO CAMAPUTIUA","NM_BAIRRO":"POVOADO CAMAPUTIUA- ZONA RURAL","NR_CEP":65210000,"NR_TELEFONE_LOCAL":"-1","NR_LATITUDE":-3.3403825,"NR_LONGITUDE":-45.1438966,"CD_SITU_LOCAL_VOTACAO":1,"DS_SITU_LOCAL_VOTACAO":"ATIVO","CD_SITU_ZONA":-1,"DS_SITU_ZONA":"ATIVO","CD_SITU_SECAO":1,"DS_SITU_SECAO":"ATIVO","CD_SITU_LOCALIDADE":1,"DS_SITU_LOCALIDADE":"ATIVO","CD_SITU_SECAO_ACESSIBILIDADE":1,"DS_SITU_SECAO_ACESSIBILIDADE":"Com acessibilidade","QT_ELEITOR_SECAO":179,"QT_ELEITOR_ELEICAO_FEDERAL":0,"QT_ELEITOR_ELEICAO_ESTADUAL":0,"QT_ELEITOR_ELEICAO_MUNICIPAL":0,"NR_LOCAL_VOTACAO_ORIGINAL":1198,"NM_LOCAL_VOTACAO_ORIGINAL":"ESCOLA MUNICIPAL SAO SEBASTIAO","DS_ENDERECO_LOCVT_ORIGINAL":"POVOADO CAMAPUTIUA"},"geometry":{"type":"Point","coordinates":[-45.1438966,-3.3403825]}},{"type":"Feature","properties":{"fid":4,"DT_GERACAO":"01/09/2026","HH_GERACAO":"15:18:02","AA_ELEICAO":9999,"DT_ELEICAO":null,"DS_ELEICAO":"#NULO","NR_TURNO":-1,"SG_UF":"MA","CD_MUNICIPIO":7471,"NM_MUNICIPIO":"CAJARI","NR_ZONA":20,"NR_SECAO":213,"CD_TIPO_SECAO_AGREGADA":-1,"DS_TIPO_SECAO_AGREGADA":"#NULO","NR_SECAO_PRINCIPAL":-1,"NR_LOCAL_VOTACAO":1309,"NM_LOCAL_VOTACAO":"ESCOLA MUNICIPAL BOM JESUS","CD_TIPO_LOCAL":-1,"DS_TIPO_LOCAL":"#NULO","DS_ENDERECO":"POVOADO BELA VISTA","NM_BAIRRO":"ZONA RURAL","NR_CEP":65215000,"NR_TELEFONE_LOCAL":"-1","NR_LATITUDE":-3.3900723,"NR_LONGITUDE":-45.1595617,"CD_SITU_LOCAL_VOTACAO":1,"DS_SITU_LOCAL_VOTACAO":"ATIVO","CD_SITU_ZONA":-1,"DS_SITU_ZONA":"ATIVO","CD_SITU_SECAO":1,"DS_SITU_SECAO":"ATIVO","CD_SITU_LOCALIDADE":1,"DS_SITU_LOCALIDADE":"ATIVO","CD_SITU_SECAO_ACESSIBILIDADE":0,"DS_SITU_SECAO_ACESSIBILIDADE":"Sem acessibilidade","QT_ELEITOR_SECAO":139,"QT_ELEITOR_ELEICAO_FEDERAL":0,"QT_ELEITOR_ELEICAO_ESTADUAL":0,"QT_ELEITOR_ELEICAO_MUNICIPAL":0,"NR_LOCAL_VOTACAO_ORIGINAL":1309,"NM_LOCAL_VOTACAO_ORIGINAL":"ESCOLA MUNICIPAL BOM JESUS","DS_ENDERECO_LOCVT_ORIGINAL":"POVOADO BELA VISTA"},"geometry":{"type":"Point","coordinates":[-45.1595617,-3.3900723]}},{"type":"Feature","properties":{"fid":5,"DT_GERACAO":"01/09/2026","HH_GERACAO":"15:18:02","AA_ELEICAO":9999,"DT_ELEICAO":null,"DS_ELEICAO":"#NULO","NR_TURNO":-1,"SG_UF":"MA","CD_MUNICIPIO":7471,"NM_MUNICIPIO":"CAJARI","NR_ZONA":20,"NR_SECAO":225,"CD_TIPO_SECAO_AGREGADA":-1,"DS_TIPO_SECAO_AGREGADA":"#NULO","NR_SECAO_PRINCIPAL":-1,"NR_LOCAL_VOTACAO":1040,"NM_LOCAL_VOTACAO":"ESCOLA MUNICIPAL CORACAO DE JESUS","CD_TIPO_LOCAL":-1,"DS_TIPO_LOCAL":"#NULO","DS_ENDERECO":"POVOADO LADEIRA            S/N","NM_BAIRRO":"POVOADO LADEIRA-ZONA RURAL","NR_CEP":65210000,"NR_TELEFONE_LOCAL":"-1","NR_LATITUDE":-3.3492311,"NR_LONGITUDE":-45.0995685,"CD_SITU_LOCAL_VOTACAO":1,"DS_SITU_LOCAL_VOTACAO":"ATIVO","CD_SITU_ZONA":-1,"DS_SITU_ZONA":"ATIVO","CD_SITU_SECAO":1,"DS_SITU_SECAO":"ATIVO","CD_SITU_LOCALIDADE":1,"DS_SITU_LOCALIDADE":"ATIVO","CD_SITU_SECAO_ACESSIBILIDADE":1,"DS_SITU_SECAO_ACESSIBILIDADE":"Com acessibilidade","QT_ELEITOR_SECAO":301,"QT_ELEITOR_ELEICAO_FEDERAL":0,"QT_ELEITOR_ELEICAO_ESTADUAL":0,"QT_ELEITOR_ELEICAO_MUNICIPAL":0,"NR_LOCAL_VOTACAO_ORIGINAL":1040,"NM_LOCAL_VOTACAO_ORIGINAL":"ESCOLA MUNICIPAL CORACAO DE JESUS","DS_ENDERECO_LOCVT_ORIGINAL":"POVOADO LADEIRA            S/N"},"geometry":{"type":"Point","coordinates":[-45.0995685,-3.3492311]}},{"type":"Feature","properties":{"fid":6,"DT_GERACAO":"01/09/2026","HH_GERACAO":"15:18:02","AA_ELEICAO":9999,"DT_ELEICAO":null,"DS_ELEICAO":"#NULO","NR_TURNO":-1,"SG_UF":"MA","CD_MUNICIPIO":7471,"NM_MUNICIPIO":"CAJARI","NR_ZONA":20,"NR_SECAO":179,"CD_TIPO_SECAO_AGREGADA":-1,"DS_TIPO_SECAO_AGREGADA":"#NULO","NR_SECAO_PRINCIPAL":-1,"NR_LOCAL_VOTACAO":1023,"NM_LOCAL_VOTACAO":"CENTRO EDUCA MAIS QUINCIO PINTO MUNIZ ","CD_TIPO_LOCAL":-1,"DS_TIPO_LOCAL":"#NULO","DS_ENDERECO":"RUA MANOEL CLODOMIR SEREJO, 108, CENTRO","NM_BAIRRO":"CENTRO- ZONA URBANA","NR_CEP":65210000,"NR_TELEFONE_LOCAL":"98984076148","NR_LATITUDE":-3.3212864,"NR_LONGITUDE":-45.0115507,"CD_SITU_LOCAL_VOTACAO":1,"DS_SITU_LOCAL_VOTACAO":"ATIVO","CD_SITU_ZONA":-1,"DS_SITU_ZONA":"ATIVO","CD_SITU_SECAO":1,"DS_SITU_SECAO":"ATIVO","CD_SITU_LOCALIDADE":1,"DS_SITU_LOCALIDADE":"ATIVO","CD_SITU_SECAO_ACESSIBILIDADE":1,"DS_SITU_SECAO_ACESSIBILIDADE":"Com acessibilidade","QT_ELEITOR_SECAO":309,"QT_ELEITOR_ELEICAO_FEDERAL":0,"QT_ELEITOR_ELEICAO_ESTADUAL":0,"QT_ELEITOR_ELEICAO_MUNICIPAL":0,"NR_LOCAL_VOTACAO_ORIGINAL":1023,"NM_LOCAL_VOTACAO_ORIGINAL":"CENTRO EDUCA MAIS QUINCIO PINTO MUNIZ ","DS_ENDERECO_LOCVT_ORIGINAL":"RUA MANOEL CLODOMIR SEREJO, 108, CENTRO"},"geometry":{"type":"Point","coordinates":[-45.0115507,-3.3212864]}},{"type":"Feature","properties":{"fid":7,"DT_GERACAO":"01/09/2026","HH_GERACAO":"15:18:02","AA_ELEICAO":9999,"DT_ELEICAO":null,"DS_ELEICAO":"#NULO","NR_TURNO":-1,"SG_UF":"MA","CD_MUNICIPIO":7471,"NM_MUNICIPIO":"CAJARI","NR_ZONA":20,"NR_SECAO":145,"CD_TIPO_SECAO_AGREGADA":-1,"DS_TIPO_SECAO_AGREGADA":"#NULO","NR_SECAO_PRINCIPAL":-1,"NR_LOCAL_VOTACAO":1147,"NM_LOCAL_VOTACAO":"ESCOLA MUNICIPAL SAO SILVESTRE","CD_TIPO_LOCAL":-1,"DS_TIPO_LOCAL":"#NULO","DS_ENDERECO":"POVOADO CURRAL DE VARAS","NM_BAIRRO":"POVOADO CURRAL DE VARAS- ZONA RURAL","NR_CEP":65210000,"NR_TELEFONE_LOCAL":"-1","NR_LATITUDE":-3.3417907,"NR_LONGITUDE":-45.0485138,"CD_SITU_LOCAL_VOTACAO":1,"DS_SITU_LOCAL_VOTACAO":"ATIVO","CD_SITU_ZONA":-1,"DS_SITU_ZONA":"ATIVO","CD_SITU_SECAO":1,"DS_SITU_SECAO":"ATIVO","CD_SITU_LOCALIDADE":1,"DS_SITU_LOCALIDADE":"ATIVO","CD_SITU_SECAO_ACESSIBILIDADE":1,"DS_SITU_SECAO_ACESSIBILIDADE":"Com acessibilidade","QT_ELEITOR_SECAO":282,"QT_ELEITOR_ELEICAO_FEDERAL":0,"QT_ELEITOR_ELEICAO_ESTADUAL":0,"QT_ELEITOR_ELEICAO_MUNICIPAL":0,"NR_LOCAL_VOTACAO_ORIGINAL":1147,"NM_LOCAL_VOTACAO_ORIGINAL":"ESCOLA MUNICIPAL SAO SILVESTRE","DS_ENDERECO_LOCVT_ORIGINAL":"POVOADO CURRAL DE VARAS"},"geometry":{"type":"Point","coordinates":[-45.0485138,-3.3417907]}},{"type":"Feature","properties":{"fid":8,"DT_GERACAO":"01/09/2026","HH_GERACAO":"15:18:02","AA_ELEICAO":9999,"DT_ELEICAO":null,"DS_ELEICAO":"#NULO","NR_TURNO":-1,"SG_UF":"MA","CD_MUNICIPIO":7471,"NM_MUNICIPIO":"CAJARI","NR_ZONA":20,"NR_SECAO":149,"CD_TIPO_SECAO_AGREGADA":-1,"DS_TIPO_SECAO_AGREGADA":"#NULO","NR_SECAO_PRINCIPAL":-1,"NR_LOCAL_VOTACAO":1171,"NM_LOCAL_VOTACAO":"ESCOLA MUNICIPAL NOSSA SENHORA DE FATIMA","CD_TIPO_LOCAL":-1,"DS_TIPO_LOCAL":"#NULO","DS_ENDERECO":"POVOADO ZE MARIA","NM_BAIRRO":"POVOADO ZÉ MARIA - ZONA RURAL","NR_CEP":65210000,"NR_TELEFONE_LOCAL":"-1","NR_LATITUDE":-3.4821188,"NR_LONGITUDE":-45.0540643,"CD_SITU_LOCAL_VOTACAO":1,"DS_SITU_LOCAL_VOTACAO":"ATIVO","CD_SITU_ZONA":-1,"DS_SITU_ZONA":"ATIVO","CD_SITU_SECAO":1,"DS_SITU_SECAO":"ATIVO","CD_SITU_LOCALIDADE":1,"DS_SITU_LOCALIDADE":"ATIVO","CD_SITU_SECAO_ACESSIBILIDADE":1,"DS_SITU_SECAO_ACESSIBILIDADE":"Com acessibilidade","QT_ELEITOR_SECAO":260,"QT_ELEITOR_ELEICAO_FEDERAL":0,"QT_ELEITOR_ELEICAO_ESTADUAL":0,"QT_ELEITOR_ELEICAO_MUNICIPAL":0,"NR_LOCAL_VOTACAO_ORIGINAL":1171,"NM_LOCAL_VOTACAO_ORIGINAL":"ESCOLA MUNICIPAL NOSSA SENHORA DE FATIMA","DS_ENDERECO_LOCVT_ORIGINAL":"POVOADO ZE MARIA"},"geometry":{"type":"Point","coordinates":[-45.0540643,-3.4821188]}},{"type":"Feature","properties":{"fid":9,"DT_GERACAO":"01/09/2026","HH_GERACAO":"15:18:02","AA_ELEICAO":9999,"DT_ELEICAO":null,"DS_ELEICAO":"#NULO","NR_TURNO":-1,"SG_UF":"MA","CD_MUNICIPIO":7471,"NM_MUNICIPIO":"CAJARI","NR_ZONA":20,"NR_SECAO":133,"CD_TIPO_SECAO_AGREGADA":-1,"DS_TIPO_SECAO_AGREGADA":"#NULO","NR_SECAO_PRINCIPAL":-1,"NR_LOCAL_VOTACAO":1058,"NM_LOCAL_VOTACAO":"UNIDADE ESCOLAR COELHO NETO","CD_TIPO_LOCAL":-1,"DS_TIPO_LOCAL":"#NULO","DS_ENDERECO":"POVOADO BOA VISTA","NM_BAIRRO":"POVOADO BOA VISTA- ZONA RURAL","NR_CEP":65210000,"NR_TELEFONE_LOCAL":"98992242569","NR_LATITUDE":-3.4012981,"NR_LONGITUDE":-45.0105561,"CD_SITU_LOCAL_VOTACAO":1,"DS_SITU_LOCAL_VOTACAO":"ATIVO","CD_SITU_ZONA":-1,"DS_SITU_ZONA":"ATIVO","CD_SITU_SECAO":1,"DS_SITU_SECAO":"ATIVO","CD_SITU_LOCALIDADE":1,"DS_SITU_LOCALIDADE":"ATIVO","CD_SITU_SECAO_ACESSIBILIDADE":1,"DS_SITU_SECAO_ACESSIBILIDADE":"Com acessibilidade","QT_ELEITOR_SECAO":290,"QT_ELEITOR_ELEICAO_FEDERAL":0,"QT_ELEITOR_ELEICAO_ESTADUAL":0,"QT_ELEITOR_ELEICAO_MUNICIPAL":0,"NR_LOCAL_VOTACAO_ORIGINAL":1058,"NM_LOCAL_VOTACAO_ORIGINAL":"UNIDADE ESCOLAR COELHO NETO","DS_ENDERECO_LOCVT_ORIGINAL":"POVOADO BOA VISTA"},"geometry":{"type":"Point","coordinates":[-45.0105561,-3.4012981]}},{"type":"Feature","properties":{"fid":10,"DT_GERACAO":"01/09/2026","HH_GERACAO":"15:18:02","AA_ELEICAO":9999,"DT_ELEICAO":null,"DS_ELEICAO":"#NULO","NR_TURNO":-1,"SG_UF":"MA","CD_MUNICIPIO":7471,"NM_MUNICIPIO":"CAJARI","NR_ZONA":20,"NR_SECAO":184,"CD_TIPO_SECAO_AGREGADA":-1,"DS_TIPO_SECAO_AGREGADA":"#NULO","NR_SECAO_PRINCIPAL":-1,"NR_LOCAL_VOTACAO":1260,"NM_LOCAL_VOTACAO":"ESCOLA MUNICIPAL ANTÔNIO GREGÓRIO DE MELO","CD_TIPO_LOCAL":-1,"DS_TIPO_LOCAL":"#NULO","DS_ENDERECO":"POVOADO CHAPADINHA","NM_BAIRRO":"POVOADO CHAPADINHA- ZONA RURAL","NR_CEP":65210000,"NR_TELEFONE_LOCAL":"-1","NR_LATITUDE":-3.3665432,"NR_LONGITUDE":-45.2223097,"CD_SITU_LOCAL_VOTACAO":1,"DS_SITU_LOCAL_VOTACAO":"ATIVO","CD_SITU_ZONA":-1,"DS_SITU_ZONA":"ATIVO","CD_SITU_SECAO":1,"DS_SITU_SECAO":"ATIVO","CD_SITU_LOCALIDADE":1,"DS_SITU_LOCALIDADE":"ATIVO","CD_SITU_SECAO_ACESSIBILIDADE":0,"DS_SITU_SECAO_ACESSIBILIDADE":"Sem acessibilidade","QT_ELEITOR_SECAO":193,"QT_ELEITOR_ELEICAO_FEDERAL":0,"QT_ELEITOR_ELEICAO_ESTADUAL":0,"QT_ELEITOR_ELEICAO_MUNICIPAL":0,"NR_LOCAL_VOTACAO_ORIGINAL":1260,"NM_LOCAL_VOTACAO_ORIGINAL":"ESCOLA MUNICIPAL ANTÔNIO GREGÓRIO DE MELO","DS_ENDERECO_LOCVT_ORIGINAL":"POVOADO CHAPADINHA"},"geometry":{"type":"Point","coordinates":[-45.2223097,-3.3665432]}},{"type":"Feature","properties":{"fid":11,"DT_GERACAO":"01/09/2026","HH_GERACAO":"15:18:02","AA_ELEICAO":9999,"DT_ELEICAO":null,"DS_ELEICAO":"#NULO","NR_TURNO":-1,"SG_UF":"MA","CD_MUNICIPIO":7471,"NM_MUNICIPIO":"CAJARI","NR_ZONA":20,"NR_SECAO":151,"CD_TIPO_SECAO_AGREGADA":-1,"DS_TIPO_SECAO_AGREGADA":"#NULO","NR_SECAO_PRINCIPAL":-1,"NR_LOCAL_VOTACAO":1180,"NM_LOCAL_VOTACAO":"ESCOLA MUNICIPAL RAIMUNDO LOBAO","CD_TIPO_LOCAL":-1,"DS_TIPO_LOCAL":"#NULO","DS_ENDERECO":"POVOADO GAMELEIRA","NM_BAIRRO":"POVOADO GAMELEIRA- ZONA RURAL","NR_CEP":65210000,"NR_TELEFONE_LOCAL":"-1","NR_LATITUDE":-3.5456657,"NR_LONGITUDE":-45.0364344,"CD_SITU_LOCAL_VOTACAO":1,"DS_SITU_LOCAL_VOTACAO":"ATIVO","CD_SITU_ZONA":-1,"DS_SITU_ZONA":"ATIVO","CD_SITU_SECAO":1,"DS_SITU_SECAO":"ATIVO","CD_SITU_LOCALIDADE":1,"DS_SITU_LOCALIDADE":"ATIVO","CD_SITU_SECAO_ACESSIBILIDADE":1,"DS_SITU_SECAO_ACESSIBILIDADE":"Com acessibilidade","QT_ELEITOR_SECAO":289,"QT_ELEITOR_ELEICAO_FEDERAL":0,"QT_ELEITOR_ELEICAO_ESTADUAL":0,"QT_ELEITOR_ELEICAO_MUNICIPAL":0,"NR_LOCAL_VOTACAO_ORIGINAL":1180,"NM_LOCAL_VOTACAO_ORIGINAL":"ESCOLA MUNICIPAL RAIMUNDO LOBAO","DS_ENDERECO_LOCVT_ORIGINAL":"POVOADO GAMELEIRA"},"geometry":{"type":"Point","coordinates":[-45.0364344,-3.5456657]}},{"type":"Feature","properties":{"fid":12,"DT_GERACAO":"01/09/2026","HH_GERACAO":"15:18:02","AA_ELEICAO":9999,"DT_ELEICAO":null,"DS_ELEICAO":"#NULO","NR_TURNO":-1,"SG_UF":"MA","CD_MUNICIPIO":7471,"NM_MUNICIPIO":"CAJARI","NR_ZONA":20,"NR_SECAO":128,"CD_TIPO_SECAO_AGREGADA":-1,"DS_TIPO_SECAO_AGREGADA":"#NULO","NR_SECAO_PRINCIPAL":-1,"NR_LOCAL_VOTACAO":1031,"NM_LOCAL_VOTACAO":"ESCOLA MUNICIPAL SANTO EXPEDITO","CD_TIPO_LOCAL":-1,"DS_TIPO_LOCAL":"#NULO","DS_ENDERECO":"POVOADO CAMBUCA            S/N","NM_BAIRRO":"POVOADO CAMBUCA- ZONA RURAL","NR_CEP":65210000,"NR_TELEFONE_LOCAL":"-1","NR_LATITUDE":-3.3647337,"NR_LONGITUDE":-45.092506,"CD_SITU_LOCAL_VOTACAO":1,"DS_SITU_LOCAL_VOTACAO":"ATIVO","CD_SITU_ZONA":-1,"DS_SITU_ZONA":"ATIVO","CD_SITU_SECAO":1,"DS_SITU_SECAO":"ATIVO","CD_SITU_LOCALIDADE":1,"DS_SITU_LOCALIDADE":"ATIVO","CD_SITU_SECAO_ACESSIBILIDADE":1,"DS_SITU_SECAO_ACESSIBILIDADE":"Com acessibilidade","QT_ELEITOR_SECAO":247,"QT_ELEITOR_ELEICAO_FEDERAL":0,"QT_ELEITOR_ELEICAO_ESTADUAL":0,"QT_ELEITOR_ELEICAO_MUNICIPAL":0,"NR_LOCAL_VOTACAO_ORIGINAL":1031,"NM_LOCAL_VOTACAO_ORIGINAL":"ESCOLA MUNICIPAL SANTO EXPEDITO","DS_ENDERECO_LOCVT_ORIGINAL":"POVOADO CAMBUCA            S/N"},"geometry":{"type":"Point","coordinates":[-45.092506,-3.3647337]}},{"type":"Feature","properties":{"fid":13,"DT_GERACAO":"01/09/2026","HH_GERACAO":"15:18:02","AA_ELEICAO":9999,"DT_ELEICAO":null,"DS_ELEICAO":"#NULO","NR_TURNO":-1,"SG_UF":"MA","CD_MUNICIPIO":7471,"NM_MUNICIPIO":"CAJARI","NR_ZONA":20,"NR_SECAO":126,"CD_TIPO_SECAO_AGREGADA":-1,"DS_TIPO_SECAO_AGREGADA":"#NULO","NR_SECAO_PRINCIPAL":-1,"NR_LOCAL_VOTACAO":1023,"NM_LOCAL_VOTACAO":"CENTRO EDUCA MAIS QUINCIO PINTO MUNIZ ","CD_TIPO_LOCAL":-1,"DS_TIPO_LOCAL":"#NULO","DS_ENDERECO":"RUA MANOEL CLODOMIR SEREJO, 108, CENTRO","NM_BAIRRO":"CENTRO- ZONA URBANA","NR_CEP":65210000,"NR_TELEFONE_LOCAL":"98984076148","NR_LATITUDE":-3.3212864,"NR_LONGITUDE":-45.0115507,"CD_SITU_LOCAL_VOTACAO":1,"DS_SITU_LOCAL_VOTACAO":"ATIVO","CD_SITU_ZONA":-1,"DS_SITU_ZONA":"ATIVO","CD_SITU_SECAO":1,"DS_SITU_SECAO":"ATIVO","CD_SITU_LOCALIDADE":1,"DS_SITU_LOCALIDADE":"ATIVO","CD_SITU_SECAO_ACESSIBILIDADE":1,"DS_SITU_SECAO_ACESSIBILIDADE":"Com acessibilidade","QT_ELEITOR_SECAO":311,"QT_ELEITOR_ELEICAO_FEDERAL":0,"QT_ELEITOR_ELEICAO_ESTADUAL":0,"QT_ELEITOR_ELEICAO_MUNICIPAL":0,"NR_LOCAL_VOTACAO_ORIGINAL":1023,"NM_LOCAL_VOTACAO_ORIGINAL":"CENTRO EDUCA MAIS QUINCIO PINTO MUNIZ ","DS_ENDERECO_LOCVT_ORIGINAL":"RUA MANOEL CLODOMIR SEREJO, 108, CENTRO"},"geometry":{"type":"Point","coordinates":[-45.0115507,-3.3212864]}},{"type":"Feature","properties":{"fid":14,"DT_GERACAO":"01/09/2026","HH_GERACAO":"15:18:02","AA_ELEICAO":9999,"DT_ELEICAO":null,"DS_ELEICAO":"#NULO","NR_TURNO":-1,"SG_UF":"MA","CD_MUNICIPIO":7471,"NM_MUNICIPIO":"CAJARI","NR_ZONA":20,"NR_SECAO":185,"CD_TIPO_SECAO_AGREGADA":-1,"DS_TIPO_SECAO_AGREGADA":"#NULO","NR_SECAO_PRINCIPAL":-1,"NR_LOCAL_VOTACAO":1252,"NM_LOCAL_VOTACAO":"ESCOLA MUNICIPAL SÃO RAIMUNDO","CD_TIPO_LOCAL":-1,"DS_TIPO_LOCAL":"#NULO","DS_ENDERECO":"POVODO BAIANO","NM_BAIRRO":"POVOADO BAIANO - ZONA RURAL","NR_CEP":65210000,"NR_TELEFONE_LOCAL":"-1","NR_LATITUDE":-3.3764163,"NR_LONGITUDE":-45.0631762,"CD_SITU_LOCAL_VOTACAO":1,"DS_SITU_LOCAL_VOTACAO":"ATIVO","CD_SITU_ZONA":-1,"DS_SITU_ZONA":"ATIVO","CD_SITU_SECAO":1,"DS_SITU_SECAO":"ATIVO","CD_SITU_LOCALIDADE":1,"DS_SITU_LOCALIDADE":"ATIVO","CD_SITU_SECAO_ACESSIBILIDADE":0,"DS_SITU_SECAO_ACESSIBILIDADE":"Sem acessibilidade","QT_ELEITOR_SECAO":310,"QT_ELEITOR_ELEICAO_FEDERAL":0,"QT_ELEITOR_ELEICAO_ESTADUAL":0,"QT_ELEITOR_ELEICAO_MUNICIPAL":0,"NR_LOCAL_VOTACAO_ORIGINAL":1252,"NM_LOCAL_VOTACAO_ORIGINAL":"ESCOLA MUNICIPAL SÃO RAIMUNDO","DS_ENDERECO_LOCVT_ORIGINAL":"POVODO BAIANO"},"geometry":{"type":"Point","coordinates":[-45.0631762,-3.3764163]}},{"type":"Feature","properties":{"fid":15,"DT_GERACAO":"01/09/2026","HH_GERACAO":"15:18:02","AA_ELEICAO":9999,"DT_ELEICAO":null,"DS_ELEICAO":"#NULO","NR_TURNO":-1,"SG_UF":"MA","CD_MUNICIPIO":7471,"NM_MUNICIPIO":"CAJARI","NR_ZONA":20,"NR_SECAO":244,"CD_TIPO_SECAO_AGREGADA":-1,"DS_TIPO_SECAO_AGREGADA":"#NULO","NR_SECAO_PRINCIPAL":-1,"NR_LOCAL_VOTACAO":1228,"NM_LOCAL_VOTACAO":"ESCOLA MUNICIPAL NOSSA SENHORA DE LOURDES","CD_TIPO_LOCAL":-1,"DS_TIPO_LOCAL":"#NULO","DS_ENDERECO":"RUA DO AEROPORTO S/N","NM_BAIRRO":"BAIRRO DE LOURDES- ZONA URBANA","NR_CEP":65210000,"NR_TELEFONE_LOCAL":"-1","NR_LATITUDE":-3.3209488,"NR_LONGITUDE":-45.017988,"CD_SITU_LOCAL_VOTACAO":1,"DS_SITU_LOCAL_VOTACAO":"ATIVO","CD_SITU_ZONA":-1,"DS_SITU_ZONA":"ATIVO","CD_SITU_SECAO":1,"DS_SITU_SECAO":"ATIVO","CD_SITU_LOCALIDADE":1,"DS_SITU_LOCALIDADE":"ATIVO","CD_SITU_SECAO_ACESSIBILIDADE":1,"DS_SITU_SECAO_ACESSIBILIDADE":"Com acessibilidade","QT_ELEITOR_SECAO":331,"QT_ELEITOR_ELEICAO_FEDERAL":0,"QT_ELEITOR_ELEICAO_ESTADUAL":0,"QT_ELEITOR_ELEICAO_MUNICIPAL":0,"NR_LOCAL_VOTACAO_ORIGINAL":1228,"NM_LOCAL_VOTACAO_ORIGINAL":"ESCOLA MUNICIPAL NOSSA SENHORA DE LOURDES","DS_ENDERECO_LOCVT_ORIGINAL":"RUA DO AEROPORTO S/N"},"geometry":{"type":"Point","coordinates":[-45.017988,-3.3209488]}},{"type":"Feature","properties":{"fid":16,"DT_GERACAO":"01/09/2026","HH_GERACAO":"15:18:02","AA_ELEICAO":9999,"DT_ELEICAO":null,"DS_ELEICAO":"#NULO","NR_TURNO":-1,"SG_UF":"MA","CD_MUNICIPIO":7471,"NM_MUNICIPIO":"CAJARI","NR_ZONA":20,"NR_SECAO":131,"CD_TIPO_SECAO_AGREGADA":-1,"DS_TIPO_SECAO_AGREGADA":"#NULO","NR_SECAO_PRINCIPAL":-1,"NR_LOCAL_VOTACAO":1040,"NM_LOCAL_VOTACAO":"ESCOLA MUNICIPAL CORACAO DE JESUS","CD_TIPO_LOCAL":-1,"DS_TIPO_LOCAL":"#NULO","DS_ENDERECO":"POVOADO LADEIRA            S/N","NM_BAIRRO":"POVOADO LADEIRA-ZONA RURAL","NR_CEP":65210000,"NR_TELEFONE_LOCAL":"-1","NR_LATITUDE":-3.3492311,"NR_LONGITUDE":-45.0995685,"CD_SITU_LOCAL_VOTACAO":1,"DS_SITU_LOCAL_VOTACAO":"ATIVO","CD_SITU_ZONA":-1,"DS_SITU_ZONA":"ATIVO","CD_SITU_SECAO":1,"DS_SITU_SECAO":"ATIVO","CD_SITU_LOCALIDADE":1,"DS_SITU_LOCALIDADE":"ATIVO","CD_SITU_SECAO_ACESSIBILIDADE":1,"DS_SITU_SECAO_ACESSIBILIDADE":"Com acessibilidade","QT_ELEITOR_SECAO":300,"QT_ELEITOR_ELEICAO_FEDERAL":0,"QT_ELEITOR_ELEICAO_ESTADUAL":0,"QT_ELEITOR_ELEICAO_MUNICIPAL":0,"NR_LOCAL_VOTACAO_ORIGINAL":1040,"NM_LOCAL_VOTACAO_ORIGINAL":"ESCOLA MUNICIPAL CORACAO DE JESUS","DS_ENDERECO_LOCVT_ORIGINAL":"POVOADO LADEIRA            S/N"},"geometry":{"type":"Point","coordinates":[-45.0995685,-3.3492311]}},{"type":"Feature","properties":{"fid":17,"DT_GERACAO":"01/09/2026","HH_GERACAO":"15:18:02","AA_ELEICAO":9999,"DT_ELEICAO":null,"DS_ELEICAO":"#NULO","NR_TURNO":-1,"SG_UF":"MA","CD_MUNICIPIO":7471,"NM_MUNICIPIO":"CAJARI","NR_ZONA":20,"NR_SECAO":208,"CD_TIPO_SECAO_AGREGADA":-1,"DS_TIPO_SECAO_AGREGADA":"#NULO","NR_SECAO_PRINCIPAL":-1,"NR_LOCAL_VOTACAO":1198,"NM_LOCAL_VOTACAO":"ESCOLA MUNICIPAL SAO SEBASTIAO","CD_TIPO_LOCAL":-1,"DS_TIPO_LOCAL":"#NULO","DS_ENDERECO":"POVOADO CAMAPUTIUA","NM_BAIRRO":"POVOADO CAMAPUTIUA- ZONA RURAL","NR_CEP":65210000,"NR_TELEFONE_LOCAL":"-1","NR_LATITUDE":-3.3403825,"NR_LONGITUDE":-45.1438966,"CD_SITU_LOCAL_VOTACAO":1,"DS_SITU_LOCAL_VOTACAO":"ATIVO","CD_SITU_ZONA":-1,"DS_SITU_ZONA":"ATIVO","CD_SITU_SECAO":1,"DS_SITU_SECAO":"ATIVO","CD_SITU_LOCALIDADE":1,"DS_SITU_LOCALIDADE":"ATIVO","CD_SITU_SECAO_ACESSIBILIDADE":1,"DS_SITU_SECAO_ACESSIBILIDADE":"Com acessibilidade","QT_ELEITOR_SECAO":177,"QT_ELEITOR_ELEICAO_FEDERAL":0,"QT_ELEITOR_ELEICAO_ESTADUAL":0,"QT_ELEITOR_ELEICAO_MUNICIPAL":0,"NR_LOCAL_VOTACAO_ORIGINAL":1198,"NM_LOCAL_VOTACAO_ORIGINAL":"ESCOLA MUNICIPAL SAO SEBASTIAO","DS_ENDERECO_LOCVT_ORIGINAL":"POVOADO CAMAPUTIUA"},"geometry":{"type":"Point","coordinates":[-45.1438966,-3.3403825]}},{"type":"Feature","properties":{"fid":18,"DT_GERACAO":"01/09/2026","HH_GERACAO":"15:18:02","AA_ELEICAO":9999,"DT_ELEICAO":null,"DS_ELEICAO":"#NULO","NR_TURNO":-1,"SG_UF":"MA","CD_MUNICIPIO":7471,"NM_MUNICIPIO":"CAJARI","NR_ZONA":20,"NR_SECAO":142,"CD_TIPO_SECAO_AGREGADA":-1,"DS_TIPO_SECAO_AGREGADA":"#NULO","NR_SECAO_PRINCIPAL":-1,"NR_LOCAL_VOTACAO":1120,"NM_LOCAL_VOTACAO":"ESCOLA MUNICIPAL FE EM DEUS","CD_TIPO_LOCAL":-1,"DS_TIPO_LOCAL":"#NULO","DS_ENDERECO":"POVOADO CENTRALZINHO","NM_BAIRRO":"POVOADO CENTRALZINHO- ZONA RURAL","NR_CEP":65210000,"NR_TELEFONE_LOCAL":"-1","NR_LATITUDE":-3.3609447,"NR_LONGITUDE":-45.1806489,"CD_SITU_LOCAL_VOTACAO":1,"DS_SITU_LOCAL_VOTACAO":"ATIVO","CD_SITU_ZONA":-1,"DS_SITU_ZONA":"ATIVO","CD_SITU_SECAO":1,"DS_SITU_SECAO":"ATIVO","CD_SITU_LOCALIDADE":1,"DS_SITU_LOCALIDADE":"ATIVO","CD_SITU_SECAO_ACESSIBILIDADE":1,"DS_SITU_SECAO_ACESSIBILIDADE":"Com acessibilidade","QT_ELEITOR_SECAO":187,"QT_ELEITOR_ELEICAO_FEDERAL":0,"QT_ELEITOR_ELEICAO_ESTADUAL":0,"QT_ELEITOR_ELEICAO_MUNICIPAL":0,"NR_LOCAL_VOTACAO_ORIGINAL":1120,"NM_LOCAL_VOTACAO_ORIGINAL":"ESCOLA MUNICIPAL FE EM DEUS","DS_ENDERECO_LOCVT_ORIGINAL":"POVOADO CENTRALZINHO"},"geometry":{"type":"Point","coordinates":[-45.1806489,-3.3609447]}},{"type":"Feature","properties":{"fid":19,"DT_GERACAO":"01/09/2026","HH_GERACAO":"15:18:02","AA_ELEICAO":9999,"DT_ELEICAO":null,"DS_ELEICAO":"#NULO","NR_TURNO":-1,"SG_UF":"MA","CD_MUNICIPIO":7471,"NM_MUNICIPIO":"CAJARI","NR_ZONA":20,"NR_SECAO":153,"CD_TIPO_SECAO_AGREGADA":-1,"DS_TIPO_SECAO_AGREGADA":"#NULO","NR_SECAO_PRINCIPAL":-1,"NR_LOCAL_VOTACAO":1180,"NM_LOCAL_VOTACAO":"ESCOLA MUNICIPAL RAIMUNDO LOBAO","CD_TIPO_LOCAL":-1,"DS_TIPO_LOCAL":"#NULO","DS_ENDERECO":"POVOADO GAMELEIRA","NM_BAIRRO":"POVOADO GAMELEIRA- ZONA RURAL","NR_CEP":65210000,"NR_TELEFONE_LOCAL":"-1","NR_LATITUDE":-3.5456657,"NR_LONGITUDE":-45.0364344,"CD_SITU_LOCAL_VOTACAO":1,"DS_SITU_LOCAL_VOTACAO":"ATIVO","CD_SITU_ZONA":-1,"DS_SITU_ZONA":"ATIVO","CD_SITU_SECAO":1,"DS_SITU_SECAO":"ATIVO","CD_SITU_LOCALIDADE":1,"DS_SITU_LOCALIDADE":"ATIVO","CD_SITU_SECAO_ACESSIBILIDADE":1,"DS_SITU_SECAO_ACESSIBILIDADE":"Com acessibilidade","QT_ELEITOR_SECAO":288,"QT_ELEITOR_ELEICAO_FEDERAL":0,"QT_ELEITOR_ELEICAO_ESTADUAL":0,"QT_ELEITOR_ELEICAO_MUNICIPAL":0,"NR_LOCAL_VOTACAO_ORIGINAL":1180,"NM_LOCAL_VOTACAO_ORIGINAL":"ESCOLA MUNICIPAL RAIMUNDO LOBAO","DS_ENDERECO_LOCVT_ORIGINAL":"POVOADO GAMELEIRA"},"geometry":{"type":"Point","coordinates":[-45.0364344,-3.5456657]}},{"type":"Feature","properties":{"fid":20,"DT_GERACAO":"01/09/2026","HH_GERACAO":"15:18:02","AA_ELEICAO":9999,"DT_ELEICAO":null,"DS_ELEICAO":"#NULO","NR_TURNO":-1,"SG_UF":"MA","CD_MUNICIPIO":7471,"NM_MUNICIPIO":"CAJARI","NR_ZONA":20,"NR_SECAO":237,"CD_TIPO_SECAO_AGREGADA":-1,"DS_TIPO_SECAO_AGREGADA":"#NULO","NR_SECAO_PRINCIPAL":-1,"NR_LOCAL_VOTACAO":1236,"NM_LOCAL_VOTACAO":"ESCOLA MUNICIPAL BOM JESUS","CD_TIPO_LOCAL":-1,"DS_TIPO_LOCAL":"#NULO","DS_ENDERECO":"POVOADO REDONDO","NM_BAIRRO":"POVOADO REDONDO- ZONA RURAL","NR_CEP":65210000,"NR_TELEFONE_LOCAL":"98970195617","NR_LATITUDE":-3.3480972,"NR_LONGITUDE":-44.9262237,"CD_SITU_LOCAL_VOTACAO":1,"DS_SITU_LOCAL_VOTACAO":"ATIVO","CD_SITU_ZONA":-1,"DS_SITU_ZONA":"ATIVO","CD_SITU_SECAO":1,"DS_SITU_SECAO":"ATIVO","CD_SITU_LOCALIDADE":1,"DS_SITU_LOCALIDADE":"ATIVO","CD_SITU_SECAO_ACESSIBILIDADE":1,"DS_SITU_SECAO_ACESSIBILIDADE":"Com acessibilidade","QT_ELEITOR_SECAO":198,"QT_ELEITOR_ELEICAO_FEDERAL":0,"QT_ELEITOR_ELEICAO_ESTADUAL":0,"QT_ELEITOR_ELEICAO_MUNICIPAL":0,"NR_LOCAL_VOTACAO_ORIGINAL":1236,"NM_LOCAL_VOTACAO_ORIGINAL":"ESCOLA MUNICIPAL BOM JESUS","DS_ENDERECO_LOCVT_ORIGINAL":"POVOADO REDONDO"},"geometry":{"type":"Point","coordinates":[-44.9262237,-3.3480972]}},{"type":"Feature","properties":{"fid":21,"DT_GERACAO":"01/09/2026","HH_GERACAO":"15:18:02","AA_ELEICAO":9999,"DT_ELEICAO":null,"DS_ELEICAO":"#NULO","NR_TURNO":-1,"SG_UF":"MA","CD_MUNICIPIO":7471,"NM_MUNICIPIO":"CAJARI","NR_ZONA":20,"NR_SECAO":124,"CD_TIPO_SECAO_AGREGADA":-1,"DS_TIPO_SECAO_AGREGADA":"#NULO","NR_SECAO_PRINCIPAL":-1,"NR_LOCAL_VOTACAO":1023,"NM_LOCAL_VOTACAO":"CENTRO EDUCA MAIS QUINCIO PINTO MUNIZ ","CD_TIPO_LOCAL":-1,"DS_TIPO_LOCAL":"#NULO","DS_ENDERECO":"RUA MANOEL CLODOMIR SEREJO, 108, CENTRO","NM_BAIRRO":"CENTRO- ZONA URBANA","NR_CEP":65210000,"NR_TELEFONE_LOCAL":"98984076148","NR_LATITUDE":-3.3212864,"NR_LONGITUDE":-45.0115507,"CD_SITU_LOCAL_VOTACAO":1,"DS_SITU_LOCAL_VOTACAO":"ATIVO","CD_SITU_ZONA":-1,"DS_SITU_ZONA":"ATIVO","CD_SITU_SECAO":1,"DS_SITU_SECAO":"ATIVO","CD_SITU_LOCALIDADE":1,"DS_SITU_LOCALIDADE":"ATIVO","CD_SITU_SECAO_ACESSIBILIDADE":1,"DS_SITU_SECAO_ACESSIBILIDADE":"Com acessibilidade","QT_ELEITOR_SECAO":306,"QT_ELEITOR_ELEICAO_FEDERAL":0,"QT_ELEITOR_ELEICAO_ESTADUAL":0,"QT_ELEITOR_ELEICAO_MUNICIPAL":0,"NR_LOCAL_VOTACAO_ORIGINAL":1023,"NM_LOCAL_VOTACAO_ORIGINAL":"CENTRO EDUCA MAIS QUINCIO PINTO MUNIZ ","DS_ENDERECO_LOCVT_ORIGINAL":"RUA MANOEL CLODOMIR SEREJO, 108, CENTRO"},"geometry":{"type":"Point","coordinates":[-45.0115507,-3.3212864]}},{"type":"Feature","properties":{"fid":22,"DT_GERACAO":"01/09/2026","HH_GERACAO":"15:18:02","AA_ELEICAO":9999,"DT_ELEICAO":null,"DS_ELEICAO":"#NULO","NR_TURNO":-1,"SG_UF":"MA","CD_MUNICIPIO":7471,"NM_MUNICIPIO":"CAJARI","NR_ZONA":20,"NR_SECAO":186,"CD_TIPO_SECAO_AGREGADA":-1,"DS_TIPO_SECAO_AGREGADA":"#NULO","NR_SECAO_PRINCIPAL":-1,"NR_LOCAL_VOTACAO":1244,"NM_LOCAL_VOTACAO":"ESCOLA MUNICIPAL NOSSA SENHORA DAS GRAÇAS","CD_TIPO_LOCAL":-1,"DS_TIPO_LOCAL":"#NULO","DS_ENDERECO":"POVOADO TUCUM","NM_BAIRRO":"POVOADO TUCUM- ZONA RURAL","NR_CEP":65210000,"NR_TELEFONE_LOCAL":"-1","NR_LATITUDE":-3.3261098,"NR_LONGITUDE":-45.0772317,"CD_SITU_LOCAL_VOTACAO":1,"DS_SITU_LOCAL_VOTACAO":"ATIVO","CD_SITU_ZONA":-1,"DS_SITU_ZONA":"ATIVO","CD_SITU_SECAO":1,"DS_SITU_SECAO":"ATIVO","CD_SITU_LOCALIDADE":1,"DS_SITU_LOCALIDADE":"ATIVO","CD_SITU_SECAO_ACESSIBILIDADE":1,"DS_SITU_SECAO_ACESSIBILIDADE":"Com acessibilidade","QT_ELEITOR_SECAO":233,"QT_ELEITOR_ELEICAO_FEDERAL":0,"QT_ELEITOR_ELEICAO_ESTADUAL":0,"QT_ELEITOR_ELEICAO_MUNICIPAL":0,"NR_LOCAL_VOTACAO_ORIGINAL":1244,"NM_LOCAL_VOTACAO_ORIGINAL":"ESCOLA MUNICIPAL NOSSA SENHORA DAS GRAÇAS","DS_ENDERECO_LOCVT_ORIGINAL":"POVOADO TUCUM"},"geometry":{"type":"Point","coordinates":[-45.0772317,-3.3261098]}},{"type":"Feature","properties":{"fid":23,"DT_GERACAO":"01/09/2026","HH_GERACAO":"15:18:02","AA_ELEICAO":9999,"DT_ELEICAO":null,"DS_ELEICAO":"#NULO","NR_TURNO":-1,"SG_UF":"MA","CD_MUNICIPIO":7471,"NM_MUNICIPIO":"CAJARI","NR_ZONA":20,"NR_SECAO":155,"CD_TIPO_SECAO_AGREGADA":-1,"DS_TIPO_SECAO_AGREGADA":"#NULO","NR_SECAO_PRINCIPAL":-1,"NR_LOCAL_VOTACAO":1210,"NM_LOCAL_VOTACAO":"ESCOLA MUNICIPAL NOSSA SENHORA APARECIDA","CD_TIPO_LOCAL":-1,"DS_TIPO_LOCAL":"#NULO","DS_ENDERECO":"POVOADO ENSEADA GRANDE II","NM_BAIRRO":"POVOADO ENSEADA GRANDE II- ZONA RURAL","NR_CEP":65210000,"NR_TELEFONE_LOCAL":"-1","NR_LATITUDE":-3.3614214,"NR_LONGITUDE":-45.2457355,"CD_SITU_LOCAL_VOTACAO":1,"DS_SITU_LOCAL_VOTACAO":"ATIVO","CD_SITU_ZONA":-1,"DS_SITU_ZONA":"ATIVO","CD_SITU_SECAO":1,"DS_SITU_SECAO":"ATIVO","CD_SITU_LOCALIDADE":1,"DS_SITU_LOCALIDADE":"ATIVO","CD_SITU_SECAO_ACESSIBILIDADE":1,"DS_SITU_SECAO_ACESSIBILIDADE":"Com acessibilidade","QT_ELEITOR_SECAO":178,"QT_ELEITOR_ELEICAO_FEDERAL":0,"QT_ELEITOR_ELEICAO_ESTADUAL":0,"QT_ELEITOR_ELEICAO_MUNICIPAL":0,"NR_LOCAL_VOTACAO_ORIGINAL":1210,"NM_LOCAL_VOTACAO_ORIGINAL":"ESCOLA MUNICIPAL NOSSA SENHORA APARECIDA","DS_ENDERECO_LOCVT_ORIGINAL":"POVOADO ENSEADA GRANDE II"},"geometry":{"type":"Point","coordinates":[-45.2457355,-3.3614214]}},{"type":"Feature","properties":{"fid":24,"DT_GERACAO":"01/09/2026","HH_GERACAO":"15:18:02","AA_ELEICAO":9999,"DT_ELEICAO":null,"DS_ELEICAO":"#NULO","NR_TURNO":-1,"SG_UF":"MA","CD_MUNICIPIO":7471,"NM_MUNICIPIO":"CAJARI","NR_ZONA":20,"NR_SECAO":144,"CD_TIPO_SECAO_AGREGADA":-1,"DS_TIPO_SECAO_AGREGADA":"#NULO","NR_SECAO_PRINCIPAL":-1,"NR_LOCAL_VOTACAO":1139,"NM_LOCAL_VOTACAO":"ESCOLA MUNICIPAL NOSSA SENHORA DA CONCEICAO","CD_TIPO_LOCAL":-1,"DS_TIPO_LOCAL":"#NULO","DS_ENDERECO":"POVOADO BOM JARDIM","NM_BAIRRO":"POVOADO BOM JARDIM- ZONA RURAL","NR_CEP":65210000,"NR_TELEFONE_LOCAL":"-1","NR_LATITUDE":-3.4424463,"NR_LONGITUDE":-45.0421485,"CD_SITU_LOCAL_VOTACAO":1,"DS_SITU_LOCAL_VOTACAO":"ATIVO","CD_SITU_ZONA":-1,"DS_SITU_ZONA":"ATIVO","CD_SITU_SECAO":1,"DS_SITU_SECAO":"ATIVO","CD_SITU_LOCALIDADE":1,"DS_SITU_LOCALIDADE":"ATIVO","CD_SITU_SECAO_ACESSIBILIDADE":1,"DS_SITU_SECAO_ACESSIBILIDADE":"Com acessibilidade","QT_ELEITOR_SECAO":290,"QT_ELEITOR_ELEICAO_FEDERAL":0,"QT_ELEITOR_ELEICAO_ESTADUAL":0,"QT_ELEITOR_ELEICAO_MUNICIPAL":0,"NR_LOCAL_VOTACAO_ORIGINAL":1139,"NM_LOCAL_VOTACAO_ORIGINAL":"ESCOLA MUNICIPAL NOSSA SENHORA DA CONCEICAO","DS_ENDERECO_LOCVT_ORIGINAL":"POVOADO BOM JARDIM"},"geometry":{"type":"Point","coordinates":[-45.0421485,-3.4424463]}},{"type":"Feature","properties":{"fid":25,"DT_GERACAO":"01/09/2026","HH_GERACAO":"15:18:02","AA_ELEICAO":9999,"DT_ELEICAO":null,"DS_ELEICAO":"#NULO","NR_TURNO":-1,"SG_UF":"MA","CD_MUNICIPIO":7471,"NM_MUNICIPIO":"CAJARI","NR_ZONA":20,"NR_SECAO":147,"CD_TIPO_SECAO_AGREGADA":-1,"DS_TIPO_SECAO_AGREGADA":"#NULO","NR_SECAO_PRINCIPAL":-1,"NR_LOCAL_VOTACAO":1171,"NM_LOCAL_VOTACAO":"ESCOLA MUNICIPAL NOSSA SENHORA DE FATIMA","CD_TIPO_LOCAL":-1,"DS_TIPO_LOCAL":"#NULO","DS_ENDERECO":"POVOADO ZE MARIA","NM_BAIRRO":"POVOADO ZÉ MARIA - ZONA RURAL","NR_CEP":65210000,"NR_TELEFONE_LOCAL":"-1","NR_LATITUDE":-3.4821188,"NR_LONGITUDE":-45.0540643,"CD_SITU_LOCAL_VOTACAO":1,"DS_SITU_LOCAL_VOTACAO":"ATIVO","CD_SITU_ZONA":-1,"DS_SITU_ZONA":"ATIVO","CD_SITU_SECAO":1,"DS_SITU_SECAO":"ATIVO","CD_SITU_LOCALIDADE":1,"DS_SITU_LOCALIDADE":"ATIVO","CD_SITU_SECAO_ACESSIBILIDADE":1,"DS_SITU_SECAO_ACESSIBILIDADE":"Com acessibilidade","QT_ELEITOR_SECAO":261,"QT_ELEITOR_ELEICAO_FEDERAL":0,"QT_ELEITOR_ELEICAO_ESTADUAL":0,"QT_ELEITOR_ELEICAO_MUNICIPAL":0,"NR_LOCAL_VOTACAO_ORIGINAL":1171,"NM_LOCAL_VOTACAO_ORIGINAL":"ESCOLA MUNICIPAL NOSSA SENHORA DE FATIMA","DS_ENDERECO_LOCVT_ORIGINAL":"POVOADO ZE MARIA"},"geometry":{"type":"Point","coordinates":[-45.0540643,-3.4821188]}},{"type":"Feature","properties":{"fid":26,"DT_GERACAO":"01/09/2026","HH_GERACAO":"15:18:02","AA_ELEICAO":9999,"DT_ELEICAO":null,"DS_ELEICAO":"#NULO","NR_TURNO":-1,"SG_UF":"MA","CD_MUNICIPIO":7471,"NM_MUNICIPIO":"CAJARI","NR_ZONA":20,"NR_SECAO":148,"CD_TIPO_SECAO_AGREGADA":-1,"DS_TIPO_SECAO_AGREGADA":"#NULO","NR_SECAO_PRINCIPAL":-1,"NR_LOCAL_VOTACAO":1163,"NM_LOCAL_VOTACAO":"ESCOLA MUNICIPAL DOM PEDRO II","CD_TIPO_LOCAL":-1,"DS_TIPO_LOCAL":"#NULO","DS_ENDERECO":"POVOADO MOCOROCA","NM_BAIRRO":"POVOADO MOCOROCA- ZONA RURAL","NR_CEP":65210000,"NR_TELEFONE_LOCAL":"-1","NR_LATITUDE":-3.283182,"NR_LONGITUDE":-45.060518,"CD_SITU_LOCAL_VOTACAO":1,"DS_SITU_LOCAL_VOTACAO":"ATIVO","CD_SITU_ZONA":-1,"DS_SITU_ZONA":"ATIVO","CD_SITU_SECAO":1,"DS_SITU_SECAO":"ATIVO","CD_SITU_LOCALIDADE":1,"DS_SITU_LOCALIDADE":"ATIVO","CD_SITU_SECAO_ACESSIBILIDADE":1,"DS_SITU_SECAO_ACESSIBILIDADE":"Com acessibilidade","QT_ELEITOR_SECAO":328,"QT_ELEITOR_ELEICAO_FEDERAL":0,"QT_ELEITOR_ELEICAO_ESTADUAL":0,"QT_ELEITOR_ELEICAO_MUNICIPAL":0,"NR_LOCAL_VOTACAO_ORIGINAL":1163,"NM_LOCAL_VOTACAO_ORIGINAL":"ESCOLA MUNICIPAL DOM PEDRO II","DS_ENDERECO_LOCVT_ORIGINAL":"POVOADO MOCOROCA"},"geometry":{"type":"Point","coordinates":[-45.060518,-3.283182]}},{"type":"Feature","properties":{"fid":27,"DT_GERACAO":"01/09/2026","HH_GERACAO":"15:18:02","AA_ELEICAO":9999,"DT_ELEICAO":null,"DS_ELEICAO":"#NULO","NR_TURNO":-1,"SG_UF":"MA","CD_MUNICIPIO":7471,"NM_MUNICIPIO":"CAJARI","NR_ZONA":20,"NR_SECAO":176,"CD_TIPO_SECAO_AGREGADA":-1,"DS_TIPO_SECAO_AGREGADA":"#NULO","NR_SECAO_PRINCIPAL":-1,"NR_LOCAL_VOTACAO":1163,"NM_LOCAL_VOTACAO":"ESCOLA MUNICIPAL DOM PEDRO II","CD_TIPO_LOCAL":-1,"DS_TIPO_LOCAL":"#NULO","DS_ENDERECO":"POVOADO MOCOROCA","NM_BAIRRO":"POVOADO MOCOROCA- ZONA RURAL","NR_CEP":65210000,"NR_TELEFONE_LOCAL":"-1","NR_LATITUDE":-3.283182,"NR_LONGITUDE":-45.060518,"CD_SITU_LOCAL_VOTACAO":1,"DS_SITU_LOCAL_VOTACAO":"ATIVO","CD_SITU_ZONA":-1,"DS_SITU_ZONA":"ATIVO","CD_SITU_SECAO":1,"DS_SITU_SECAO":"ATIVO","CD_SITU_LOCALIDADE":1,"DS_SITU_LOCALIDADE":"ATIVO","CD_SITU_SECAO_ACESSIBILIDADE":1,"DS_SITU_SECAO_ACESSIBILIDADE":"Com acessibilidade","QT_ELEITOR_SECAO":326,"QT_ELEITOR_ELEICAO_FEDERAL":0,"QT_ELEITOR_ELEICAO_ESTADUAL":0,"QT_ELEITOR_ELEICAO_MUNICIPAL":0,"NR_LOCAL_VOTACAO_ORIGINAL":1163,"NM_LOCAL_VOTACAO_ORIGINAL":"ESCOLA MUNICIPAL DOM PEDRO II","DS_ENDERECO_LOCVT_ORIGINAL":"POVOADO MOCOROCA"},"geometry":{"type":"Point","coordinates":[-45.060518,-3.283182]}},{"type":"Feature","properties":{"fid":28,"DT_GERACAO":"01/09/2026","HH_GERACAO":"15:18:02","AA_ELEICAO":9999,"DT_ELEICAO":null,"DS_ELEICAO":"#NULO","NR_TURNO":-1,"SG_UF":"MA","CD_MUNICIPIO":7471,"NM_MUNICIPIO":"CAJARI","NR_ZONA":20,"NR_SECAO":253,"CD_TIPO_SECAO_AGREGADA":-1,"DS_TIPO_SECAO_AGREGADA":"#NULO","NR_SECAO_PRINCIPAL":-1,"NR_LOCAL_VOTACAO":1325,"NM_LOCAL_VOTACAO":"ESCOLA MUNICIPAL CIRENE ABREU","CD_TIPO_LOCAL":-1,"DS_TIPO_LOCAL":"#NULO","DS_ENDERECO":"RUA ALEXANDRE JOSÉ FERREIRA","NM_BAIRRO":"CENTRO- ZONA URBANA","NR_CEP":65210000,"NR_TELEFONE_LOCAL":"-1","NR_LATITUDE":-3.321274,"NR_LONGITUDE":-45.0106452,"CD_SITU_LOCAL_VOTACAO":1,"DS_SITU_LOCAL_VOTACAO":"ATIVO","CD_SITU_ZONA":-1,"DS_SITU_ZONA":"ATIVO","CD_SITU_SECAO":1,"DS_SITU_SECAO":"ATIVO","CD_SITU_LOCALIDADE":1,"DS_SITU_LOCALIDADE":"ATIVO","CD_SITU_SECAO_ACESSIBILIDADE":0,"DS_SITU_SECAO_ACESSIBILIDADE":"Sem acessibilidade","QT_ELEITOR_SECAO":255,"QT_ELEITOR_ELEICAO_FEDERAL":0,"QT_ELEITOR_ELEICAO_ESTADUAL":0,"QT_ELEITOR_ELEICAO_MUNICIPAL":0,"NR_LOCAL_VOTACAO_ORIGINAL":1325,"NM_LOCAL_VOTACAO_ORIGINAL":"ESCOLA MUNICIPAL CIRENE ABREU","DS_ENDERECO_LOCVT_ORIGINAL":"RUA ALEXANDRE JOSÉ FERREIRA"},"geometry":{"type":"Point","coordinates":[-45.0106452,-3.321274]}},{"type":"Feature","properties":{"fid":29,"DT_GERACAO":"01/09/2026","HH_GERACAO":"15:18:02","AA_ELEICAO":9999,"DT_ELEICAO":null,"DS_ELEICAO":"#NULO","NR_TURNO":-1,"SG_UF":"MA","CD_MUNICIPIO":7471,"NM_MUNICIPIO":"CAJARI","NR_ZONA":20,"NR_SECAO":122,"CD_TIPO_SECAO_AGREGADA":-1,"DS_TIPO_SECAO_AGREGADA":"#NULO","NR_SECAO_PRINCIPAL":-1,"NR_LOCAL_VOTACAO":1015,"NM_LOCAL_VOTACAO":"UNIDADE INTEGRADA PADRE JOSE ANCHIETA","CD_TIPO_LOCAL":-1,"DS_TIPO_LOCAL":"#NULO","DS_ENDERECO":"RUA MANOEL CLODOMIR SEREJO S/N","NM_BAIRRO":"CENTRO- ZONA URBANA","NR_CEP":65210000,"NR_TELEFONE_LOCAL":"-1","NR_LATITUDE":-3.3222589,"NR_LONGITUDE":-45.0123729,"CD_SITU_LOCAL_VOTACAO":1,"DS_SITU_LOCAL_VOTACAO":"ATIVO","CD_SITU_ZONA":-1,"DS_SITU_ZONA":"ATIVO","CD_SITU_SECAO":1,"DS_SITU_SECAO":"ATIVO","CD_SITU_LOCALIDADE":1,"DS_SITU_LOCALIDADE":"ATIVO","CD_SITU_SECAO_ACESSIBILIDADE":1,"DS_SITU_SECAO_ACESSIBILIDADE":"Com acessibilidade","QT_ELEITOR_SECAO":261,"QT_ELEITOR_ELEICAO_FEDERAL":0,"QT_ELEITOR_ELEICAO_ESTADUAL":0,"QT_ELEITOR_ELEICAO_MUNICIPAL":0,"NR_LOCAL_VOTACAO_ORIGINAL":1015,"NM_LOCAL_VOTACAO_ORIGINAL":"UNIDADE INTEGRADA PADRE JOSE ANCHIETA","DS_ENDERECO_LOCVT_ORIGINAL":"RUA MANOEL CLODOMIR SEREJO S/N"},"geometry":{"type":"Point","coordinates":[-45.0123729,-3.3222589]}},{"type":"Feature","properties":{"fid":30,"DT_GERACAO":"01/09/2026","HH_GERACAO":"15:18:02","AA_ELEICAO":9999,"DT_ELEICAO":null,"DS_ELEICAO":"#NULO","NR_TURNO":-1,"SG_UF":"MA","CD_MUNICIPIO":7471,"NM_MUNICIPIO":"CAJARI","NR_ZONA":20,"NR_SECAO":255,"CD_TIPO_SECAO_AGREGADA":-1,"DS_TIPO_SECAO_AGREGADA":"#NULO","NR_SECAO_PRINCIPAL":-1,"NR_LOCAL_VOTACAO":1341,"NM_LOCAL_VOTACAO":"ESCOLA MUNICIPAL SÃO MIGUEL DOS CORREIA","CD_TIPO_LOCAL":-1,"DS_TIPO_LOCAL":"#NULO","DS_ENDERECO":"POVOADO SÃO MIGUEL DOS CORREIA","NM_BAIRRO":"ZONA RURAL","NR_CEP":65210000,"NR_TELEFONE_LOCAL":"-1","NR_LATITUDE":-3.3576414,"NR_LONGITUDE":-45.1301119,"CD_SITU_LOCAL_VOTACAO":1,"DS_SITU_LOCAL_VOTACAO":"ATIVO","CD_SITU_ZONA":-1,"DS_SITU_ZONA":"ATIVO","CD_SITU_SECAO":1,"DS_SITU_SECAO":"ATIVO","CD_SITU_LOCALIDADE":1,"DS_SITU_LOCALIDADE":"ATIVO","CD_SITU_SECAO_ACESSIBILIDADE":0,"DS_SITU_SECAO_ACESSIBILIDADE":"Sem acessibilidade","QT_ELEITOR_SECAO":178,"QT_ELEITOR_ELEICAO_FEDERAL":0,"QT_ELEITOR_ELEICAO_ESTADUAL":0,"QT_ELEITOR_ELEICAO_MUNICIPAL":0,"NR_LOCAL_VOTACAO_ORIGINAL":1341,"NM_LOCAL_VOTACAO_ORIGINAL":"ESCOLA MUNICIPAL SÃO MIGUEL DOS CORREIA","DS_ENDERECO_LOCVT_ORIGINAL":"POVOADO SÃO MIGUEL DOS CORREIA"},"geometry":{"type":"Point","coordinates":[-45.1301119,-3.3576414]}},{"type":"Feature","properties":{"fid":31,"DT_GERACAO":"01/09/2026","HH_GERACAO":"15:18:02","AA_ELEICAO":9999,"DT_ELEICAO":null,"DS_ELEICAO":"#NULO","NR_TURNO":-1,"SG_UF":"MA","CD_MUNICIPIO":7471,"NM_MUNICIPIO":"CAJARI","NR_ZONA":20,"NR_SECAO":125,"CD_TIPO_SECAO_AGREGADA":-1,"DS_TIPO_SECAO_AGREGADA":"#NULO","NR_SECAO_PRINCIPAL":-1,"NR_LOCAL_VOTACAO":1023,"NM_LOCAL_VOTACAO":"CENTRO EDUCA MAIS QUINCIO PINTO MUNIZ ","CD_TIPO_LOCAL":-1,"DS_TIPO_LOCAL":"#NULO","DS_ENDERECO":"RUA MANOEL CLODOMIR SEREJO, 108, CENTRO","NM_BAIRRO":"CENTRO- ZONA URBANA","NR_CEP":65210000,"NR_TELEFONE_LOCAL":"98984076148","NR_LATITUDE":-3.3212864,"NR_LONGITUDE":-45.0115507,"CD_SITU_LOCAL_VOTACAO":1,"DS_SITU_LOCAL_VOTACAO":"ATIVO","CD_SITU_ZONA":-1,"DS_SITU_ZONA":"ATIVO","CD_SITU_SECAO":1,"DS_SITU_SECAO":"ATIVO","CD_SITU_LOCALIDADE":1,"DS_SITU_LOCALIDADE":"ATIVO","CD_SITU_SECAO_ACESSIBILIDADE":1,"DS_SITU_SECAO_ACESSIBILIDADE":"Com acessibilidade","QT_ELEITOR_SECAO":307,"QT_ELEITOR_ELEICAO_FEDERAL":0,"QT_ELEITOR_ELEICAO_ESTADUAL":0,"QT_ELEITOR_ELEICAO_MUNICIPAL":0,"NR_LOCAL_VOTACAO_ORIGINAL":1023,"NM_LOCAL_VOTACAO_ORIGINAL":"CENTRO EDUCA MAIS QUINCIO PINTO MUNIZ ","DS_ENDERECO_LOCVT_ORIGINAL":"RUA MANOEL CLODOMIR SEREJO, 108, CENTRO"},"geometry":{"type":"Point","coordinates":[-45.0115507,-3.3212864]}},{"type":"Feature","properties":{"fid":32,"DT_GERACAO":"01/09/2026","HH_GERACAO":"15:18:02","AA_ELEICAO":9999,"DT_ELEICAO":null,"DS_ELEICAO":"#NULO","NR_TURNO":-1,"SG_UF":"MA","CD_MUNICIPIO":7471,"NM_MUNICIPIO":"CAJARI","NR_ZONA":20,"NR_SECAO":198,"CD_TIPO_SECAO_AGREGADA":-1,"DS_TIPO_SECAO_AGREGADA":"#NULO","NR_SECAO_PRINCIPAL":-1,"NR_LOCAL_VOTACAO":1295,"NM_LOCAL_VOTACAO":"ESCOLA MUNICIPAL LUIZ GONZAGA SOUZA FERREIRA ","CD_TIPO_LOCAL":-1,"DS_TIPO_LOCAL":"#NULO","DS_ENDERECO":"POVOADO VILA PALMEIRA","NM_BAIRRO":"ZONA RURAL","NR_CEP":65210000,"NR_TELEFONE_LOCAL":"98981783718","NR_LATITUDE":-3.5344716,"NR_LONGITUDE":-45.0807179,"CD_SITU_LOCAL_VOTACAO":1,"DS_SITU_LOCAL_VOTACAO":"ATIVO","CD_SITU_ZONA":-1,"DS_SITU_ZONA":"ATIVO","CD_SITU_SECAO":1,"DS_SITU_SECAO":"ATIVO","CD_SITU_LOCALIDADE":1,"DS_SITU_LOCALIDADE":"ATIVO","CD_SITU_SECAO_ACESSIBILIDADE":0,"DS_SITU_SECAO_ACESSIBILIDADE":"Sem acessibilidade","QT_ELEITOR_SECAO":269,"QT_ELEITOR_ELEICAO_FEDERAL":0,"QT_ELEITOR_ELEICAO_ESTADUAL":0,"QT_ELEITOR_ELEICAO_MUNICIPAL":0,"NR_LOCAL_VOTACAO_ORIGINAL":1295,"NM_LOCAL_VOTACAO_ORIGINAL":"ESCOLA MUNICIPAL LUIZ GONZAGA SOUZA FERREIRA ","DS_ENDERECO_LOCVT_ORIGINAL":"POVOADO VILA PALMEIRA"},"geometry":{"type":"Point","coordinates":[-45.0807179,-3.5344716]}},{"type":"Feature","properties":{"fid":33,"DT_GERACAO":"01/09/2026","HH_GERACAO":"15:18:02","AA_ELEICAO":9999,"DT_ELEICAO":null,"DS_ELEICAO":"#NULO","NR_TURNO":-1,"SG_UF":"MA","CD_MUNICIPIO":7471,"NM_MUNICIPIO":"CAJARI","NR_ZONA":20,"NR_SECAO":132,"CD_TIPO_SECAO_AGREGADA":-1,"DS_TIPO_SECAO_AGREGADA":"#NULO","NR_SECAO_PRINCIPAL":-1,"NR_LOCAL_VOTACAO":1058,"NM_LOCAL_VOTACAO":"UNIDADE ESCOLAR COELHO NETO","CD_TIPO_LOCAL":-1,"DS_TIPO_LOCAL":"#NULO","DS_ENDERECO":"POVOADO BOA VISTA","NM_BAIRRO":"POVOADO BOA VISTA- ZONA RURAL","NR_CEP":65210000,"NR_TELEFONE_LOCAL":"98992242569","NR_LATITUDE":-3.4012981,"NR_LONGITUDE":-45.0105561,"CD_SITU_LOCAL_VOTACAO":1,"DS_SITU_LOCAL_VOTACAO":"ATIVO","CD_SITU_ZONA":-1,"DS_SITU_ZONA":"ATIVO","CD_SITU_SECAO":1,"DS_SITU_SECAO":"ATIVO","CD_SITU_LOCALIDADE":1,"DS_SITU_LOCALIDADE":"ATIVO","CD_SITU_SECAO_ACESSIBILIDADE":1,"DS_SITU_SECAO_ACESSIBILIDADE":"Com acessibilidade","QT_ELEITOR_SECAO":288,"QT_ELEITOR_ELEICAO_FEDERAL":0,"QT_ELEITOR_ELEICAO_ESTADUAL":0,"QT_ELEITOR_ELEICAO_MUNICIPAL":0,"NR_LOCAL_VOTACAO_ORIGINAL":1058,"NM_LOCAL_VOTACAO_ORIGINAL":"UNIDADE ESCOLAR COELHO NETO","DS_ENDERECO_LOCVT_ORIGINAL":"POVOADO BOA VISTA"},"geometry":{"type":"Point","coordinates":[-45.0105561,-3.4012981]}},{"type":"Feature","properties":{"fid":34,"DT_GERACAO":"01/09/2026","HH_GERACAO":"15:18:02","AA_ELEICAO":9999,"DT_ELEICAO":null,"DS_ELEICAO":"#NULO","NR_TURNO":-1,"SG_UF":"MA","CD_MUNICIPIO":7471,"NM_MUNICIPIO":"CAJARI","NR_ZONA":20,"NR_SECAO":223,"CD_TIPO_SECAO_AGREGADA":-1,"DS_TIPO_SECAO_AGREGADA":"#NULO","NR_SECAO_PRINCIPAL":-1,"NR_LOCAL_VOTACAO":1139,"NM_LOCAL_VOTACAO":"ESCOLA MUNICIPAL NOSSA SENHORA DA CONCEICAO","CD_TIPO_LOCAL":-1,"DS_TIPO_LOCAL":"#NULO","DS_ENDERECO":"POVOADO BOM JARDIM","NM_BAIRRO":"POVOADO BOM JARDIM- ZONA RURAL","NR_CEP":65210000,"NR_TELEFONE_LOCAL":"-1","NR_LATITUDE":-3.4424463,"NR_LONGITUDE":-45.0421485,"CD_SITU_LOCAL_VOTACAO":1,"DS_SITU_LOCAL_VOTACAO":"ATIVO","CD_SITU_ZONA":-1,"DS_SITU_ZONA":"ATIVO","CD_SITU_SECAO":1,"DS_SITU_SECAO":"ATIVO","CD_SITU_LOCALIDADE":1,"DS_SITU_LOCALIDADE":"ATIVO","CD_SITU_SECAO_ACESSIBILIDADE":1,"DS_SITU_SECAO_ACESSIBILIDADE":"Com acessibilidade","QT_ELEITOR_SECAO":287,"QT_ELEITOR_ELEICAO_FEDERAL":0,"QT_ELEITOR_ELEICAO_ESTADUAL":0,"QT_ELEITOR_ELEICAO_MUNICIPAL":0,"NR_LOCAL_VOTACAO_ORIGINAL":1139,"NM_LOCAL_VOTACAO_ORIGINAL":"ESCOLA MUNICIPAL NOSSA SENHORA DA CONCEICAO","DS_ENDERECO_LOCVT_ORIGINAL":"POVOADO BOM JARDIM"},"geometry":{"type":"Point","coordinates":[-45.0421485,-3.4424463]}},{"type":"Feature","properties":{"fid":35,"DT_GERACAO":"01/09/2026","HH_GERACAO":"15:18:02","AA_ELEICAO":9999,"DT_ELEICAO":null,"DS_ELEICAO":"#NULO","NR_TURNO":-1,"SG_UF":"MA","CD_MUNICIPIO":7471,"NM_MUNICIPIO":"CAJARI","NR_ZONA":20,"NR_SECAO":138,"CD_TIPO_SECAO_AGREGADA":-1,"DS_TIPO_SECAO_AGREGADA":"#NULO","NR_SECAO_PRINCIPAL":-1,"NR_LOCAL_VOTACAO":1120,"NM_LOCAL_VOTACAO":"ESCOLA MUNICIPAL FE EM DEUS","CD_TIPO_LOCAL":-1,"DS_TIPO_LOCAL":"#NULO","DS_ENDERECO":"POVOADO CENTRALZINHO","NM_BAIRRO":"POVOADO CENTRALZINHO- ZONA RURAL","NR_CEP":65210000,"NR_TELEFONE_LOCAL":"-1","NR_LATITUDE":-3.3609447,"NR_LONGITUDE":-45.1806489,"CD_SITU_LOCAL_VOTACAO":1,"DS_SITU_LOCAL_VOTACAO":"ATIVO","CD_SITU_ZONA":-1,"DS_SITU_ZONA":"ATIVO","CD_SITU_SECAO":1,"DS_SITU_SECAO":"ATIVO","CD_SITU_LOCALIDADE":1,"DS_SITU_LOCALIDADE":"ATIVO","CD_SITU_SECAO_ACESSIBILIDADE":1,"DS_SITU_SECAO_ACESSIBILIDADE":"Com acessibilidade","QT_ELEITOR_SECAO":94,"QT_ELEITOR_ELEICAO_FEDERAL":0,"QT_ELEITOR_ELEICAO_ESTADUAL":0,"QT_ELEITOR_ELEICAO_MUNICIPAL":0,"NR_LOCAL_VOTACAO_ORIGINAL":1120,"NM_LOCAL_VOTACAO_ORIGINAL":"ESCOLA MUNICIPAL FE EM DEUS","DS_ENDERECO_LOCVT_ORIGINAL":"POVOADO CENTRALZINHO"},"geometry":{"type":"Point","coordinates":[-45.1806489,-3.3609447]}},{"type":"Feature","properties":{"fid":36,"DT_GERACAO":"01/09/2026","HH_GERACAO":"15:18:02","AA_ELEICAO":9999,"DT_ELEICAO":null,"DS_ELEICAO":"#NULO","NR_TURNO":-1,"SG_UF":"MA","CD_MUNICIPIO":7471,"NM_MUNICIPIO":"CAJARI","NR_ZONA":20,"NR_SECAO":165,"CD_TIPO_SECAO_AGREGADA":-1,"DS_TIPO_SECAO_AGREGADA":"#NULO","NR_SECAO_PRINCIPAL":-1,"NR_LOCAL_VOTACAO":1058,"NM_LOCAL_VOTACAO":"UNIDADE ESCOLAR COELHO NETO","CD_TIPO_LOCAL":-1,"DS_TIPO_LOCAL":"#NULO","DS_ENDERECO":"POVOADO BOA VISTA","NM_BAIRRO":"POVOADO BOA VISTA- ZONA RURAL","NR_CEP":65210000,"NR_TELEFONE_LOCAL":"98992242569","NR_LATITUDE":-3.4012981,"NR_LONGITUDE":-45.0105561,"CD_SITU_LOCAL_VOTACAO":1,"DS_SITU_LOCAL_VOTACAO":"ATIVO","CD_SITU_ZONA":-1,"DS_SITU_ZONA":"ATIVO","CD_SITU_SECAO":1,"DS_SITU_SECAO":"ATIVO","CD_SITU_LOCALIDADE":1,"DS_SITU_LOCALIDADE":"ATIVO","CD_SITU_SECAO_ACESSIBILIDADE":1,"DS_SITU_SECAO_ACESSIBILIDADE":"Com acessibilidade","QT_ELEITOR_SECAO":287,"QT_ELEITOR_ELEICAO_FEDERAL":0,"QT_ELEITOR_ELEICAO_ESTADUAL":0,"QT_ELEITOR_ELEICAO_MUNICIPAL":0,"NR_LOCAL_VOTACAO_ORIGINAL":1058,"NM_LOCAL_VOTACAO_ORIGINAL":"UNIDADE ESCOLAR COELHO NETO","DS_ENDERECO_LOCVT_ORIGINAL":"POVOADO BOA VISTA"},"geometry":{"type":"Point","coordinates":[-45.0105561,-3.4012981]}},{"type":"Feature","properties":{"fid":37,"DT_GERACAO":"01/09/2026","HH_GERACAO":"15:18:02","AA_ELEICAO":9999,"DT_ELEICAO":null,"DS_ELEICAO":"#NULO","NR_TURNO":-1,"SG_UF":"MA","CD_MUNICIPIO":7471,"NM_MUNICIPIO":"CAJARI","NR_ZONA":20,"NR_SECAO":140,"CD_TIPO_SECAO_AGREGADA":-1,"DS_TIPO_SECAO_AGREGADA":"#NULO","NR_SECAO_PRINCIPAL":-1,"NR_LOCAL_VOTACAO":1104,"NM_LOCAL_VOTACAO":"ESCOLA MUNICIPAL ESTEVAM GOMES","CD_TIPO_LOCAL":-1,"DS_TIPO_LOCAL":"#NULO","DS_ENDERECO":"POVOADO ENSEADA GRANDE I","NM_BAIRRO":"POVOADO ENSEADA GRANDE I- ZONA RURAL","NR_CEP":65210000,"NR_TELEFONE_LOCAL":"-1","NR_LATITUDE":-3.3545432,"NR_LONGITUDE":-45.2528072,"CD_SITU_LOCAL_VOTACAO":1,"DS_SITU_LOCAL_VOTACAO":"ATIVO","CD_SITU_ZONA":-1,"DS_SITU_ZONA":"ATIVO","CD_SITU_SECAO":1,"DS_SITU_SECAO":"ATIVO","CD_SITU_LOCALIDADE":1,"DS_SITU_LOCALIDADE":"ATIVO","CD_SITU_SECAO_ACESSIBILIDADE":1,"DS_SITU_SECAO_ACESSIBILIDADE":"Com acessibilidade","QT_ELEITOR_SECAO":198,"QT_ELEITOR_ELEICAO_FEDERAL":0,"QT_ELEITOR_ELEICAO_ESTADUAL":0,"QT_ELEITOR_ELEICAO_MUNICIPAL":0,"NR_LOCAL_VOTACAO_ORIGINAL":1104,"NM_LOCAL_VOTACAO_ORIGINAL":"ESCOLA MUNICIPAL ESTEVAM GOMES","DS_ENDERECO_LOCVT_ORIGINAL":"POVOADO ENSEADA GRANDE I"},"geometry":{"type":"Point","coordinates":[-45.2528072,-3.3545432]}},{"type":"Feature","properties":{"fid":38,"DT_GERACAO":"01/09/2026","HH_GERACAO":"15:18:02","AA_ELEICAO":9999,"DT_ELEICAO":null,"DS_ELEICAO":"#NULO","NR_TURNO":-1,"SG_UF":"MA","CD_MUNICIPIO":7471,"NM_MUNICIPIO":"CAJARI","NR_ZONA":20,"NR_SECAO":167,"CD_TIPO_SECAO_AGREGADA":-1,"DS_TIPO_SECAO_AGREGADA":"#NULO","NR_SECAO_PRINCIPAL":-1,"NR_LOCAL_VOTACAO":1228,"NM_LOCAL_VOTACAO":"ESCOLA MUNICIPAL NOSSA SENHORA DE LOURDES","CD_TIPO_LOCAL":-1,"DS_TIPO_LOCAL":"#NULO","DS_ENDERECO":"RUA DO AEROPORTO S/N","NM_BAIRRO":"BAIRRO DE LOURDES- ZONA URBANA","NR_CEP":65210000,"NR_TELEFONE_LOCAL":"-1","NR_LATITUDE":-3.3209488,"NR_LONGITUDE":-45.017988,"CD_SITU_LOCAL_VOTACAO":1,"DS_SITU_LOCAL_VOTACAO":"ATIVO","CD_SITU_ZONA":-1,"DS_SITU_ZONA":"ATIVO","CD_SITU_SECAO":1,"DS_SITU_SECAO":"ATIVO","CD_SITU_LOCALIDADE":1,"DS_SITU_LOCALIDADE":"ATIVO","CD_SITU_SECAO_ACESSIBILIDADE":1,"DS_SITU_SECAO_ACESSIBILIDADE":"Com acessibilidade","QT_ELEITOR_SECAO":334,"QT_ELEITOR_ELEICAO_FEDERAL":0,"QT_ELEITOR_ELEICAO_ESTADUAL":0,"QT_ELEITOR_ELEICAO_MUNICIPAL":0,"NR_LOCAL_VOTACAO_ORIGINAL":1228,"NM_LOCAL_VOTACAO_ORIGINAL":"ESCOLA MUNICIPAL NOSSA SENHORA DE LOURDES","DS_ENDERECO_LOCVT_ORIGINAL":"RUA DO AEROPORTO S/N"},"geometry":{"type":"Point","coordinates":[-45.017988,-3.3209488]}},{"type":"Feature","properties":{"fid":39,"DT_GERACAO":"01/09/2026","HH_GERACAO":"15:18:02","AA_ELEICAO":9999,"DT_ELEICAO":null,"DS_ELEICAO":"#NULO","NR_TURNO":-1,"SG_UF":"MA","CD_MUNICIPIO":7471,"NM_MUNICIPIO":"CAJARI","NR_ZONA":20,"NR_SECAO":127,"CD_TIPO_SECAO_AGREGADA":-1,"DS_TIPO_SECAO_AGREGADA":"#NULO","NR_SECAO_PRINCIPAL":-1,"NR_LOCAL_VOTACAO":1023,"NM_LOCAL_VOTACAO":"CENTRO EDUCA MAIS QUINCIO PINTO MUNIZ ","CD_TIPO_LOCAL":-1,"DS_TIPO_LOCAL":"#NULO","DS_ENDERECO":"RUA MANOEL CLODOMIR SEREJO, 108, CENTRO","NM_BAIRRO":"CENTRO- ZONA URBANA","NR_CEP":65210000,"NR_TELEFONE_LOCAL":"98984076148","NR_LATITUDE":-3.3212864,"NR_LONGITUDE":-45.0115507,"CD_SITU_LOCAL_VOTACAO":1,"DS_SITU_LOCAL_VOTACAO":"ATIVO","CD_SITU_ZONA":-1,"DS_SITU_ZONA":"ATIVO","CD_SITU_SECAO":1,"DS_SITU_SECAO":"ATIVO","CD_SITU_LOCALIDADE":1,"DS_SITU_LOCALIDADE":"ATIVO","CD_SITU_SECAO_ACESSIBILIDADE":1,"DS_SITU_SECAO_ACESSIBILIDADE":"Com acessibilidade","QT_ELEITOR_SECAO":308,"QT_ELEITOR_ELEICAO_FEDERAL":0,"QT_ELEITOR_ELEICAO_ESTADUAL":0,"QT_ELEITOR_ELEICAO_MUNICIPAL":0,"NR_LOCAL_VOTACAO_ORIGINAL":1023,"NM_LOCAL_VOTACAO_ORIGINAL":"CENTRO EDUCA MAIS QUINCIO PINTO MUNIZ ","DS_ENDERECO_LOCVT_ORIGINAL":"RUA MANOEL CLODOMIR SEREJO, 108, CENTRO"},"geometry":{"type":"Point","coordinates":[-45.0115507,-3.3212864]}},{"type":"Feature","properties":{"fid":40,"DT_GERACAO":"01/09/2026","HH_GERACAO":"15:18:02","AA_ELEICAO":9999,"DT_ELEICAO":null,"DS_ELEICAO":"#NULO","NR_TURNO":-1,"SG_UF":"MA","CD_MUNICIPIO":7471,"NM_MUNICIPIO":"CAJARI","NR_ZONA":20,"NR_SECAO":141,"CD_TIPO_SECAO_AGREGADA":-1,"DS_TIPO_SECAO_AGREGADA":"#NULO","NR_SECAO_PRINCIPAL":-1,"NR_LOCAL_VOTACAO":1104,"NM_LOCAL_VOTACAO":"ESCOLA MUNICIPAL ESTEVAM GOMES","CD_TIPO_LOCAL":-1,"DS_TIPO_LOCAL":"#NULO","DS_ENDERECO":"POVOADO ENSEADA GRANDE I","NM_BAIRRO":"POVOADO ENSEADA GRANDE I- ZONA RURAL","NR_CEP":65210000,"NR_TELEFONE_LOCAL":"-1","NR_LATITUDE":-3.3545432,"NR_LONGITUDE":-45.2528072,"CD_SITU_LOCAL_VOTACAO":1,"DS_SITU_LOCAL_VOTACAO":"ATIVO","CD_SITU_ZONA":-1,"DS_SITU_ZONA":"ATIVO","CD_SITU_SECAO":1,"DS_SITU_SECAO":"ATIVO","CD_SITU_LOCALIDADE":1,"DS_SITU_LOCALIDADE":"ATIVO","CD_SITU_SECAO_ACESSIBILIDADE":1,"DS_SITU_SECAO_ACESSIBILIDADE":"Com acessibilidade","QT_ELEITOR_SECAO":195,"QT_ELEITOR_ELEICAO_FEDERAL":0,"QT_ELEITOR_ELEICAO_ESTADUAL":0,"QT_ELEITOR_ELEICAO_MUNICIPAL":0,"NR_LOCAL_VOTACAO_ORIGINAL":1104,"NM_LOCAL_VOTACAO_ORIGINAL":"ESCOLA MUNICIPAL ESTEVAM GOMES","DS_ENDERECO_LOCVT_ORIGINAL":"POVOADO ENSEADA GRANDE I"},"geometry":{"type":"Point","coordinates":[-45.2528072,-3.3545432]}},{"type":"Feature","properties":{"fid":41,"DT_GERACAO":"01/09/2026","HH_GERACAO":"15:18:02","AA_ELEICAO":9999,"DT_ELEICAO":null,"DS_ELEICAO":"#NULO","NR_TURNO":-1,"SG_UF":"MA","CD_MUNICIPIO":7471,"NM_MUNICIPIO":"CAJARI","NR_ZONA":20,"NR_SECAO":143,"CD_TIPO_SECAO_AGREGADA":-1,"DS_TIPO_SECAO_AGREGADA":"#NULO","NR_SECAO_PRINCIPAL":-1,"NR_LOCAL_VOTACAO":1120,"NM_LOCAL_VOTACAO":"ESCOLA MUNICIPAL FE EM DEUS","CD_TIPO_LOCAL":-1,"DS_TIPO_LOCAL":"#NULO","DS_ENDERECO":"POVOADO CENTRALZINHO","NM_BAIRRO":"POVOADO CENTRALZINHO- ZONA RURAL","NR_CEP":65210000,"NR_TELEFONE_LOCAL":"-1","NR_LATITUDE":-3.3609447,"NR_LONGITUDE":-45.1806489,"CD_SITU_LOCAL_VOTACAO":1,"DS_SITU_LOCAL_VOTACAO":"ATIVO","CD_SITU_ZONA":-1,"DS_SITU_ZONA":"ATIVO","CD_SITU_SECAO":1,"DS_SITU_SECAO":"ATIVO","CD_SITU_LOCALIDADE":1,"DS_SITU_LOCALIDADE":"ATIVO","CD_SITU_SECAO_ACESSIBILIDADE":1,"DS_SITU_SECAO_ACESSIBILIDADE":"Com acessibilidade","QT_ELEITOR_SECAO":186,"QT_ELEITOR_ELEICAO_FEDERAL":0,"QT_ELEITOR_ELEICAO_ESTADUAL":0,"QT_ELEITOR_ELEICAO_MUNICIPAL":0,"NR_LOCAL_VOTACAO_ORIGINAL":1120,"NM_LOCAL_VOTACAO_ORIGINAL":"ESCOLA MUNICIPAL FE EM DEUS","DS_ENDERECO_LOCVT_ORIGINAL":"POVOADO CENTRALZINHO"},"geometry":{"type":"Point","coordinates":[-45.1806489,-3.3609447]}},{"type":"Feature","properties":{"fid":42,"DT_GERACAO":"01/09/2026","HH_GERACAO":"15:18:02","AA_ELEICAO":9999,"DT_ELEICAO":null,"DS_ELEICAO":"#NULO","NR_TURNO":-1,"SG_UF":"MA","CD_MUNICIPIO":7471,"NM_MUNICIPIO":"CAJARI","NR_ZONA":20,"NR_SECAO":222,"CD_TIPO_SECAO_AGREGADA":-1,"DS_TIPO_SECAO_AGREGADA":"#NULO","NR_SECAO_PRINCIPAL":-1,"NR_LOCAL_VOTACAO":1228,"NM_LOCAL_VOTACAO":"ESCOLA MUNICIPAL NOSSA SENHORA DE LOURDES","CD_TIPO_LOCAL":-1,"DS_TIPO_LOCAL":"#NULO","DS_ENDERECO":"RUA DO AEROPORTO S/N","NM_BAIRRO":"BAIRRO DE LOURDES- ZONA URBANA","NR_CEP":65210000,"NR_TELEFONE_LOCAL":"-1","NR_LATITUDE":-3.3209488,"NR_LONGITUDE":-45.017988,"CD_SITU_LOCAL_VOTACAO":1,"DS_SITU_LOCAL_VOTACAO":"ATIVO","CD_SITU_ZONA":-1,"DS_SITU_ZONA":"ATIVO","CD_SITU_SECAO":1,"DS_SITU_SECAO":"ATIVO","CD_SITU_LOCALIDADE":1,"DS_SITU_LOCALIDADE":"ATIVO","CD_SITU_SECAO_ACESSIBILIDADE":1,"DS_SITU_SECAO_ACESSIBILIDADE":"Com acessibilidade","QT_ELEITOR_SECAO":330,"QT_ELEITOR_ELEICAO_FEDERAL":0,"QT_ELEITOR_ELEICAO_ESTADUAL":0,"QT_ELEITOR_ELEICAO_MUNICIPAL":0,"NR_LOCAL_VOTACAO_ORIGINAL":1228,"NM_LOCAL_VOTACAO_ORIGINAL":"ESCOLA MUNICIPAL NOSSA SENHORA DE LOURDES","DS_ENDERECO_LOCVT_ORIGINAL":"RUA DO AEROPORTO S/N"},"geometry":{"type":"Point","coordinates":[-45.017988,-3.3209488]}},{"type":"Feature","properties":{"fid":43,"DT_GERACAO":"01/09/2026","HH_GERACAO":"15:18:02","AA_ELEICAO":9999,"DT_ELEICAO":null,"DS_ELEICAO":"#NULO","NR_TURNO":-1,"SG_UF":"MA","CD_MUNICIPIO":7471,"NM_MUNICIPIO":"CAJARI","NR_ZONA":20,"NR_SECAO":134,"CD_TIPO_SECAO_AGREGADA":-1,"DS_TIPO_SECAO_AGREGADA":"#NULO","NR_SECAO_PRINCIPAL":-1,"NR_LOCAL_VOTACAO":1074,"NM_LOCAL_VOTACAO":"ESCOLA MUNICIPAL JACINTO JOSE GOMES","CD_TIPO_LOCAL":-1,"DS_TIPO_LOCAL":"#NULO","DS_ENDERECO":"POVOADO CACHOEIRA          S/N","NM_BAIRRO":"POVOADO CACHOEIRA- ZONA RURAL","NR_CEP":65210000,"NR_TELEFONE_LOCAL":"-1","NR_LATITUDE":-3.3091263,"NR_LONGITUDE":-44.9242448,"CD_SITU_LOCAL_VOTACAO":1,"DS_SITU_LOCAL_VOTACAO":"ATIVO","CD_SITU_ZONA":-1,"DS_SITU_ZONA":"ATIVO","CD_SITU_SECAO":1,"DS_SITU_SECAO":"ATIVO","CD_SITU_LOCALIDADE":1,"DS_SITU_LOCALIDADE":"ATIVO","CD_SITU_SECAO_ACESSIBILIDADE":1,"DS_SITU_SECAO_ACESSIBILIDADE":"Com acessibilidade","QT_ELEITOR_SECAO":207,"QT_ELEITOR_ELEICAO_FEDERAL":0,"QT_ELEITOR_ELEICAO_ESTADUAL":0,"QT_ELEITOR_ELEICAO_MUNICIPAL":0,"NR_LOCAL_VOTACAO_ORIGINAL":1074,"NM_LOCAL_VOTACAO_ORIGINAL":"ESCOLA MUNICIPAL JACINTO JOSE GOMES","DS_ENDERECO_LOCVT_ORIGINAL":"POVOADO CACHOEIRA          S/N"},"geometry":{"type":"Point","coordinates":[-44.9242448,-3.3091263]}},{"type":"Feature","properties":{"fid":44,"DT_GERACAO":"01/09/2026","HH_GERACAO":"15:18:02","AA_ELEICAO":9999,"DT_ELEICAO":null,"DS_ELEICAO":"#NULO","NR_TURNO":-1,"SG_UF":"MA","CD_MUNICIPIO":7471,"NM_MUNICIPIO":"CAJARI","NR_ZONA":20,"NR_SECAO":129,"CD_TIPO_SECAO_AGREGADA":-1,"DS_TIPO_SECAO_AGREGADA":"#NULO","NR_SECAO_PRINCIPAL":-1,"NR_LOCAL_VOTACAO":1031,"NM_LOCAL_VOTACAO":"ESCOLA MUNICIPAL SANTO EXPEDITO","CD_TIPO_LOCAL":-1,"DS_TIPO_LOCAL":"#NULO","DS_ENDERECO":"POVOADO CAMBUCA            S/N","NM_BAIRRO":"POVOADO CAMBUCA- ZONA RURAL","NR_CEP":65210000,"NR_TELEFONE_LOCAL":"-1","NR_LATITUDE":-3.3647337,"NR_LONGITUDE":-45.092506,"CD_SITU_LOCAL_VOTACAO":1,"DS_SITU_LOCAL_VOTACAO":"ATIVO","CD_SITU_ZONA":-1,"DS_SITU_ZONA":"ATIVO","CD_SITU_SECAO":1,"DS_SITU_SECAO":"ATIVO","CD_SITU_LOCALIDADE":1,"DS_SITU_LOCALIDADE":"ATIVO","CD_SITU_SECAO_ACESSIBILIDADE":1,"DS_SITU_SECAO_ACESSIBILIDADE":"Com acessibilidade","QT_ELEITOR_SECAO":245,"QT_ELEITOR_ELEICAO_FEDERAL":0,"QT_ELEITOR_ELEICAO_ESTADUAL":0,"QT_ELEITOR_ELEICAO_MUNICIPAL":0,"NR_LOCAL_VOTACAO_ORIGINAL":1031,"NM_LOCAL_VOTACAO_ORIGINAL":"ESCOLA MUNICIPAL SANTO EXPEDITO","DS_ENDERECO_LOCVT_ORIGINAL":"POVOADO CAMBUCA            S/N"},"geometry":{"type":"Point","coordinates":[-45.092506,-3.3647337]}},{"type":"Feature","properties":{"fid":45,"DT_GERACAO":"01/09/2026","HH_GERACAO":"15:18:02","AA_ELEICAO":9999,"DT_ELEICAO":null,"DS_ELEICAO":"#NULO","NR_TURNO":-1,"SG_UF":"MA","CD_MUNICIPIO":7471,"NM_MUNICIPIO":"CAJARI","NR_ZONA":20,"NR_SECAO":130,"CD_TIPO_SECAO_AGREGADA":-1,"DS_TIPO_SECAO_AGREGADA":"#NULO","NR_SECAO_PRINCIPAL":-1,"NR_LOCAL_VOTACAO":1040,"NM_LOCAL_VOTACAO":"ESCOLA MUNICIPAL CORACAO DE JESUS","CD_TIPO_LOCAL":-1,"DS_TIPO_LOCAL":"#NULO","DS_ENDERECO":"POVOADO LADEIRA            S/N","NM_BAIRRO":"POVOADO LADEIRA-ZONA RURAL","NR_CEP":65210000,"NR_TELEFONE_LOCAL":"-1","NR_LATITUDE":-3.3492311,"NR_LONGITUDE":-45.0995685,"CD_SITU_LOCAL_VOTACAO":1,"DS_SITU_LOCAL_VOTACAO":"ATIVO","CD_SITU_ZONA":-1,"DS_SITU_ZONA":"ATIVO","CD_SITU_SECAO":1,"DS_SITU_SECAO":"ATIVO","CD_SITU_LOCALIDADE":1,"DS_SITU_LOCALIDADE":"ATIVO","CD_SITU_SECAO_ACESSIBILIDADE":1,"DS_SITU_SECAO_ACESSIBILIDADE":"Com acessibilidade","QT_ELEITOR_SECAO":298,"QT_ELEITOR_ELEICAO_FEDERAL":0,"QT_ELEITOR_ELEICAO_ESTADUAL":0,"QT_ELEITOR_ELEICAO_MUNICIPAL":0,"NR_LOCAL_VOTACAO_ORIGINAL":1040,"NM_LOCAL_VOTACAO_ORIGINAL":"ESCOLA MUNICIPAL CORACAO DE JESUS","DS_ENDERECO_LOCVT_ORIGINAL":"POVOADO LADEIRA            S/N"},"geometry":{"type":"Point","coordinates":[-45.0995685,-3.3492311]}},{"type":"Feature","properties":{"fid":46,"DT_GERACAO":"01/09/2026","HH_GERACAO":"15:18:02","AA_ELEICAO":9999,"DT_ELEICAO":null,"DS_ELEICAO":"#NULO","NR_TURNO":-1,"SG_UF":"MA","CD_MUNICIPIO":7471,"NM_MUNICIPIO":"CAJARI","NR_ZONA":20,"NR_SECAO":241,"CD_TIPO_SECAO_AGREGADA":-1,"DS_TIPO_SECAO_AGREGADA":"#NULO","NR_SECAO_PRINCIPAL":-1,"NR_LOCAL_VOTACAO":1325,"NM_LOCAL_VOTACAO":"ESCOLA MUNICIPAL CIRENE ABREU","CD_TIPO_LOCAL":-1,"DS_TIPO_LOCAL":"#NULO","DS_ENDERECO":"RUA ALEXANDRE JOSÉ FERREIRA","NM_BAIRRO":"CENTRO- ZONA URBANA","NR_CEP":65210000,"NR_TELEFONE_LOCAL":"-1","NR_LATITUDE":-3.321274,"NR_LONGITUDE":-45.0106452,"CD_SITU_LOCAL_VOTACAO":1,"DS_SITU_LOCAL_VOTACAO":"ATIVO","CD_SITU_ZONA":-1,"DS_SITU_ZONA":"ATIVO","CD_SITU_SECAO":1,"DS_SITU_SECAO":"ATIVO","CD_SITU_LOCALIDADE":1,"DS_SITU_LOCALIDADE":"ATIVO","CD_SITU_SECAO_ACESSIBILIDADE":0,"DS_SITU_SECAO_ACESSIBILIDADE":"Sem acessibilidade","QT_ELEITOR_SECAO":293,"QT_ELEITOR_ELEICAO_FEDERAL":0,"QT_ELEITOR_ELEICAO_ESTADUAL":0,"QT_ELEITOR_ELEICAO_MUNICIPAL":0,"NR_LOCAL_VOTACAO_ORIGINAL":1325,"NM_LOCAL_VOTACAO_ORIGINAL":"ESCOLA MUNICIPAL CIRENE ABREU","DS_ENDERECO_LOCVT_ORIGINAL":"RUA ALEXANDRE JOSÉ FERREIRA"},"geometry":{"type":"Point","coordinates":[-45.0106452,-3.321274]}},{"type":"Feature","properties":{"fid":47,"DT_GERACAO":"01/09/2026","HH_GERACAO":"15:18:02","AA_ELEICAO":9999,"DT_ELEICAO":null,"DS_ELEICAO":"#NULO","NR_TURNO":-1,"SG_UF":"MA","CD_MUNICIPIO":7471,"NM_MUNICIPIO":"CAJARI","NR_ZONA":20,"NR_SECAO":154,"CD_TIPO_SECAO_AGREGADA":-1,"DS_TIPO_SECAO_AGREGADA":"#NULO","NR_SECAO_PRINCIPAL":-1,"NR_LOCAL_VOTACAO":1198,"NM_LOCAL_VOTACAO":"ESCOLA MUNICIPAL SAO SEBASTIAO","CD_TIPO_LOCAL":-1,"DS_TIPO_LOCAL":"#NULO","DS_ENDERECO":"POVOADO CAMAPUTIUA","NM_BAIRRO":"POVOADO CAMAPUTIUA- ZONA RURAL","NR_CEP":65210000,"NR_TELEFONE_LOCAL":"-1","NR_LATITUDE":-3.3403825,"NR_LONGITUDE":-45.1438966,"CD_SITU_LOCAL_VOTACAO":1,"DS_SITU_LOCAL_VOTACAO":"ATIVO","CD_SITU_ZONA":-1,"DS_SITU_ZONA":"ATIVO","CD_SITU_SECAO":1,"DS_SITU_SECAO":"ATIVO","CD_SITU_LOCALIDADE":1,"DS_SITU_LOCALIDADE":"ATIVO","CD_SITU_SECAO_ACESSIBILIDADE":1,"DS_SITU_SECAO_ACESSIBILIDADE":"Com acessibilidade","QT_ELEITOR_SECAO":195,"QT_ELEITOR_ELEICAO_FEDERAL":0,"QT_ELEITOR_ELEICAO_ESTADUAL":0,"QT_ELEITOR_ELEICAO_MUNICIPAL":0,"NR_LOCAL_VOTACAO_ORIGINAL":1198,"NM_LOCAL_VOTACAO_ORIGINAL":"ESCOLA MUNICIPAL SAO SEBASTIAO","DS_ENDERECO_LOCVT_ORIGINAL":"POVOADO CAMAPUTIUA"},"geometry":{"type":"Point","coordinates":[-45.1438966,-3.3403825]}},{"type":"Feature","properties":{"fid":48,"DT_GERACAO":"01/09/2026","HH_GERACAO":"15:18:02","AA_ELEICAO":9999,"DT_ELEICAO":null,"DS_ELEICAO":"#NULO","NR_TURNO":-1,"SG_UF":"MA","CD_MUNICIPIO":7471,"NM_MUNICIPIO":"CAJARI","NR_ZONA":20,"NR_SECAO":217,"CD_TIPO_SECAO_AGREGADA":-1,"DS_TIPO_SECAO_AGREGADA":"#NULO","NR_SECAO_PRINCIPAL":-1,"NR_LOCAL_VOTACAO":1325,"NM_LOCAL_VOTACAO":"ESCOLA MUNICIPAL CIRENE ABREU","CD_TIPO_LOCAL":-1,"DS_TIPO_LOCAL":"#NULO","DS_ENDERECO":"RUA ALEXANDRE JOSÉ FERREIRA","NM_BAIRRO":"CENTRO- ZONA URBANA","NR_CEP":65210000,"NR_TELEFONE_LOCAL":"-1","NR_LATITUDE":-3.321274,"NR_LONGITUDE":-45.0106452,"CD_SITU_LOCAL_VOTACAO":1,"DS_SITU_LOCAL_VOTACAO":"ATIVO","CD_SITU_ZONA":-1,"DS_SITU_ZONA":"ATIVO","CD_SITU_SECAO":1,"DS_SITU_SECAO":"ATIVO","CD_SITU_LOCALIDADE":1,"DS_SITU_LOCALIDADE":"ATIVO","CD_SITU_SECAO_ACESSIBILIDADE":0,"DS_SITU_SECAO_ACESSIBILIDADE":"Sem acessibilidade","QT_ELEITOR_SECAO":292,"QT_ELEITOR_ELEICAO_FEDERAL":0,"QT_ELEITOR_ELEICAO_ESTADUAL":0,"QT_ELEITOR_ELEICAO_MUNICIPAL":0,"NR_LOCAL_VOTACAO_ORIGINAL":1325,"NM_LOCAL_VOTACAO_ORIGINAL":"ESCOLA MUNICIPAL CIRENE ABREU","DS_ENDERECO_LOCVT_ORIGINAL":"RUA ALEXANDRE JOSÉ FERREIRA"},"geometry":{"type":"Point","coordinates":[-45.0106452,-3.321274]}},{"type":"Feature","properties":{"fid":49,"DT_GERACAO":"01/09/2026","HH_GERACAO":"15:18:02","AA_ELEICAO":9999,"DT_ELEICAO":null,"DS_ELEICAO":"#NULO","NR_TURNO":-1,"SG_UF":"MA","CD_MUNICIPIO":7471,"NM_MUNICIPIO":"CAJARI","NR_ZONA":20,"NR_SECAO":204,"CD_TIPO_SECAO_AGREGADA":-1,"DS_TIPO_SECAO_AGREGADA":"#NULO","NR_SECAO_PRINCIPAL":-1,"NR_LOCAL_VOTACAO":1023,"NM_LOCAL_VOTACAO":"CENTRO EDUCA MAIS QUINCIO PINTO MUNIZ ","CD_TIPO_LOCAL":-1,"DS_TIPO_LOCAL":"#NULO","DS_ENDERECO":"RUA MANOEL CLODOMIR SEREJO, 108, CENTRO","NM_BAIRRO":"CENTRO- ZONA URBANA","NR_CEP":65210000,"NR_TELEFONE_LOCAL":"98984076148","NR_LATITUDE":-3.3212864,"NR_LONGITUDE":-45.0115507,"CD_SITU_LOCAL_VOTACAO":1,"DS_SITU_LOCAL_VOTACAO":"ATIVO","CD_SITU_ZONA":-1,"DS_SITU_ZONA":"ATIVO","CD_SITU_SECAO":1,"DS_SITU_SECAO":"ATIVO","CD_SITU_LOCALIDADE":1,"DS_SITU_LOCALIDADE":"ATIVO","CD_SITU_SECAO_ACESSIBILIDADE":1,"DS_SITU_SECAO_ACESSIBILIDADE":"Com acessibilidade","QT_ELEITOR_SECAO":306,"QT_ELEITOR_ELEICAO_FEDERAL":0,"QT_ELEITOR_ELEICAO_ESTADUAL":0,"QT_ELEITOR_ELEICAO_MUNICIPAL":0,"NR_LOCAL_VOTACAO_ORIGINAL":1023,"NM_LOCAL_VOTACAO_ORIGINAL":"CENTRO EDUCA MAIS QUINCIO PINTO MUNIZ ","DS_ENDERECO_LOCVT_ORIGINAL":"RUA MANOEL CLODOMIR SEREJO, 108, CENTRO"},"geometry":{"type":"Point","coordinates":[-45.0115507,-3.3212864]}},{"type":"Feature","properties":{"fid":50,"DT_GERACAO":"01/09/2026","HH_GERACAO":"15:18:02","AA_ELEICAO":9999,"DT_ELEICAO":null,"DS_ELEICAO":"#NULO","NR_TURNO":-1,"SG_UF":"MA","CD_MUNICIPIO":7471,"NM_MUNICIPIO":"CAJARI","NR_ZONA":20,"NR_SECAO":254,"CD_TIPO_SECAO_AGREGADA":-1,"DS_TIPO_SECAO_AGREGADA":"#NULO","NR_SECAO_PRINCIPAL":-1,"NR_LOCAL_VOTACAO":1180,"NM_LOCAL_VOTACAO":"ESCOLA MUNICIPAL RAIMUNDO LOBAO","CD_TIPO_LOCAL":-1,"DS_TIPO_LOCAL":"#NULO","DS_ENDERECO":"POVOADO GAMELEIRA","NM_BAIRRO":"POVOADO GAMELEIRA- ZONA RURAL","NR_CEP":65210000,"NR_TELEFONE_LOCAL":"-1","NR_LATITUDE":-3.5456657,"NR_LONGITUDE":-45.0364344,"CD_SITU_LOCAL_VOTACAO":1,"DS_SITU_LOCAL_VOTACAO":"ATIVO","CD_SITU_ZONA":-1,"DS_SITU_ZONA":"ATIVO","CD_SITU_SECAO":1,"DS_SITU_SECAO":"ATIVO","CD_SITU_LOCALIDADE":1,"DS_SITU_LOCALIDADE":"ATIVO","CD_SITU_SECAO_ACESSIBILIDADE":1,"DS_SITU_SECAO_ACESSIBILIDADE":"Com acessibilidade","QT_ELEITOR_SECAO":289,"QT_ELEITOR_ELEICAO_FEDERAL":0,"QT_ELEITOR_ELEICAO_ESTADUAL":0,"QT_ELEITOR_ELEICAO_MUNICIPAL":0,"NR_LOCAL_VOTACAO_ORIGINAL":1180,"NM_LOCAL_VOTACAO_ORIGINAL":"ESCOLA MUNICIPAL RAIMUNDO LOBAO","DS_ENDERECO_LOCVT_ORIGINAL":"POVOADO GAMELEIRA"},"geometry":{"type":"Point","coordinates":[-45.0364344,-3.5456657]}},{"type":"Feature","properties":{"fid":51,"DT_GERACAO":"01/09/2026","HH_GERACAO":"15:18:02","AA_ELEICAO":9999,"DT_ELEICAO":null,"DS_ELEICAO":"#NULO","NR_TURNO":-1,"SG_UF":"MA","CD_MUNICIPIO":7471,"NM_MUNICIPIO":"CAJARI","NR_ZONA":20,"NR_SECAO":136,"CD_TIPO_SECAO_AGREGADA":-1,"DS_TIPO_SECAO_AGREGADA":"#NULO","NR_SECAO_PRINCIPAL":-1,"NR_LOCAL_VOTACAO":1074,"NM_LOCAL_VOTACAO":"ESCOLA MUNICIPAL JACINTO JOSE GOMES","CD_TIPO_LOCAL":-1,"DS_TIPO_LOCAL":"#NULO","DS_ENDERECO":"POVOADO CACHOEIRA          S/N","NM_BAIRRO":"POVOADO CACHOEIRA- ZONA RURAL","NR_CEP":65210000,"NR_TELEFONE_LOCAL":"-1","NR_LATITUDE":-3.3091263,"NR_LONGITUDE":-44.9242448,"CD_SITU_LOCAL_VOTACAO":1,"DS_SITU_LOCAL_VOTACAO":"ATIVO","CD_SITU_ZONA":-1,"DS_SITU_ZONA":"ATIVO","CD_SITU_SECAO":1,"DS_SITU_SECAO":"ATIVO","CD_SITU_LOCALIDADE":1,"DS_SITU_LOCALIDADE":"ATIVO","CD_SITU_SECAO_ACESSIBILIDADE":1,"DS_SITU_SECAO_ACESSIBILIDADE":"Com acessibilidade","QT_ELEITOR_SECAO":209,"QT_ELEITOR_ELEICAO_FEDERAL":0,"QT_ELEITOR_ELEICAO_ESTADUAL":0,"QT_ELEITOR_ELEICAO_MUNICIPAL":0,"NR_LOCAL_VOTACAO_ORIGINAL":1074,"NM_LOCAL_VOTACAO_ORIGINAL":"ESCOLA MUNICIPAL JACINTO JOSE GOMES","DS_ENDERECO_LOCVT_ORIGINAL":"POVOADO CACHOEIRA          S/N"},"geometry":{"type":"Point","coordinates":[-44.9242448,-3.3091263]}},{"type":"Feature","properties":{"fid":52,"DT_GERACAO":"01/09/2026","HH_GERACAO":"15:18:02","AA_ELEICAO":9999,"DT_ELEICAO":null,"DS_ELEICAO":"#NULO","NR_TURNO":-1,"SG_UF":"MA","CD_MUNICIPIO":7471,"NM_MUNICIPIO":"CAJARI","NR_ZONA":20,"NR_SECAO":229,"CD_TIPO_SECAO_AGREGADA":-1,"DS_TIPO_SECAO_AGREGADA":"#NULO","NR_SECAO_PRINCIPAL":-1,"NR_LOCAL_VOTACAO":1180,"NM_LOCAL_VOTACAO":"ESCOLA MUNICIPAL RAIMUNDO LOBAO","CD_TIPO_LOCAL":-1,"DS_TIPO_LOCAL":"#NULO","DS_ENDERECO":"POVOADO GAMELEIRA","NM_BAIRRO":"POVOADO GAMELEIRA- ZONA RURAL","NR_CEP":65210000,"NR_TELEFONE_LOCAL":"-1","NR_LATITUDE":-3.5456657,"NR_LONGITUDE":-45.0364344,"CD_SITU_LOCAL_VOTACAO":1,"DS_SITU_LOCAL_VOTACAO":"ATIVO","CD_SITU_ZONA":-1,"DS_SITU_ZONA":"ATIVO","CD_SITU_SECAO":1,"DS_SITU_SECAO":"ATIVO","CD_SITU_LOCALIDADE":1,"DS_SITU_LOCALIDADE":"ATIVO","CD_SITU_SECAO_ACESSIBILIDADE":1,"DS_SITU_SECAO_ACESSIBILIDADE":"Com acessibilidade","QT_ELEITOR_SECAO":286,"QT_ELEITOR_ELEICAO_FEDERAL":0,"QT_ELEITOR_ELEICAO_ESTADUAL":0,"QT_ELEITOR_ELEICAO_MUNICIPAL":0,"NR_LOCAL_VOTACAO_ORIGINAL":1180,"NM_LOCAL_VOTACAO_ORIGINAL":"ESCOLA MUNICIPAL RAIMUNDO LOBAO","DS_ENDERECO_LOCVT_ORIGINAL":"POVOADO GAMELEIRA"},"geometry":{"type":"Point","coordinates":[-45.0364344,-3.5456657]}},{"type":"Feature","properties":{"fid":53,"DT_GERACAO":"01/09/2026","HH_GERACAO":"15:18:02","AA_ELEICAO":9999,"DT_ELEICAO":null,"DS_ELEICAO":"#NULO","NR_TURNO":-1,"SG_UF":"MA","CD_MUNICIPIO":7471,"NM_MUNICIPIO":"CAJARI","NR_ZONA":20,"NR_SECAO":240,"CD_TIPO_SECAO_AGREGADA":-1,"DS_TIPO_SECAO_AGREGADA":"#NULO","NR_SECAO_PRINCIPAL":-1,"NR_LOCAL_VOTACAO":1015,"NM_LOCAL_VOTACAO":"UNIDADE INTEGRADA PADRE JOSE ANCHIETA","CD_TIPO_LOCAL":-1,"DS_TIPO_LOCAL":"#NULO","DS_ENDERECO":"RUA MANOEL CLODOMIR SEREJO S/N","NM_BAIRRO":"CENTRO- ZONA URBANA","NR_CEP":65210000,"NR_TELEFONE_LOCAL":"-1","NR_LATITUDE":-3.3222589,"NR_LONGITUDE":-45.0123729,"CD_SITU_LOCAL_VOTACAO":1,"DS_SITU_LOCAL_VOTACAO":"ATIVO","CD_SITU_ZONA":-1,"DS_SITU_ZONA":"ATIVO","CD_SITU_SECAO":1,"DS_SITU_SECAO":"ATIVO","CD_SITU_LOCALIDADE":1,"DS_SITU_LOCALIDADE":"ATIVO","CD_SITU_SECAO_ACESSIBILIDADE":1,"DS_SITU_SECAO_ACESSIBILIDADE":"Com acessibilidade","QT_ELEITOR_SECAO":263,"QT_ELEITOR_ELEICAO_FEDERAL":0,"QT_ELEITOR_ELEICAO_ESTADUAL":0,"QT_ELEITOR_ELEICAO_MUNICIPAL":0,"NR_LOCAL_VOTACAO_ORIGINAL":1015,"NM_LOCAL_VOTACAO_ORIGINAL":"UNIDADE INTEGRADA PADRE JOSE ANCHIETA","DS_ENDERECO_LOCVT_ORIGINAL":"RUA MANOEL CLODOMIR SEREJO S/N"},"geometry":{"type":"Point","coordinates":[-45.0123729,-3.3222589]}},{"type":"Feature","properties":{"fid":54,"DT_GERACAO":"01/09/2026","HH_GERACAO":"15:18:02","AA_ELEICAO":9999,"DT_ELEICAO":null,"DS_ELEICAO":"#NULO","NR_TURNO":-1,"SG_UF":"MA","CD_MUNICIPIO":7471,"NM_MUNICIPIO":"CAJARI","NR_ZONA":20,"NR_SECAO":219,"CD_TIPO_SECAO_AGREGADA":-1,"DS_TIPO_SECAO_AGREGADA":"#NULO","NR_SECAO_PRINCIPAL":-1,"NR_LOCAL_VOTACAO":1333,"NM_LOCAL_VOTACAO":"ESCOL MUNICIPAL SÃO JOSÉ","CD_TIPO_LOCAL":-1,"DS_TIPO_LOCAL":"#NULO","DS_ENDERECO":"POVOADO SÃO JOSÉ DE BELINO","NM_BAIRRO":"ZONA RURAL","NR_CEP":65210000,"NR_TELEFONE_LOCAL":"98984897897","NR_LATITUDE":-3.3788555,"NR_LONGITUDE":-44.9602422,"CD_SITU_LOCAL_VOTACAO":1,"DS_SITU_LOCAL_VOTACAO":"ATIVO","CD_SITU_ZONA":-1,"DS_SITU_ZONA":"ATIVO","CD_SITU_SECAO":1,"DS_SITU_SECAO":"ATIVO","CD_SITU_LOCALIDADE":1,"DS_SITU_LOCALIDADE":"ATIVO","CD_SITU_SECAO_ACESSIBILIDADE":0,"DS_SITU_SECAO_ACESSIBILIDADE":"Sem acessibilidade","QT_ELEITOR_SECAO":105,"QT_ELEITOR_ELEICAO_FEDERAL":0,"QT_ELEITOR_ELEICAO_ESTADUAL":0,"QT_ELEITOR_ELEICAO_MUNICIPAL":0,"NR_LOCAL_VOTACAO_ORIGINAL":1333,"NM_LOCAL_VOTACAO_ORIGINAL":"ESCOL MUNICIPAL SÃO JOSÉ","DS_ENDERECO_LOCVT_ORIGINAL":"POVOADO SÃO JOSÉ DE BELINO"},"geometry":{"type":"Point","coordinates":[-44.9602422,-3.3788555]}},{"type":"Feature","properties":{"fid":55,"DT_GERACAO":"01/09/2026","HH_GERACAO":"15:18:02","AA_ELEICAO":9999,"DT_ELEICAO":null,"DS_ELEICAO":"#NULO","NR_TURNO":-1,"SG_UF":"MA","CD_MUNICIPIO":7471,"NM_MUNICIPIO":"CAJARI","NR_ZONA":20,"NR_SECAO":146,"CD_TIPO_SECAO_AGREGADA":-1,"DS_TIPO_SECAO_AGREGADA":"#NULO","NR_SECAO_PRINCIPAL":-1,"NR_LOCAL_VOTACAO":1147,"NM_LOCAL_VOTACAO":"ESCOLA MUNICIPAL SAO SILVESTRE","CD_TIPO_LOCAL":-1,"DS_TIPO_LOCAL":"#NULO","DS_ENDERECO":"POVOADO CURRAL DE VARAS","NM_BAIRRO":"POVOADO CURRAL DE VARAS- ZONA RURAL","NR_CEP":65210000,"NR_TELEFONE_LOCAL":"-1","NR_LATITUDE":-3.3417907,"NR_LONGITUDE":-45.0485138,"CD_SITU_LOCAL_VOTACAO":1,"DS_SITU_LOCAL_VOTACAO":"ATIVO","CD_SITU_ZONA":-1,"DS_SITU_ZONA":"ATIVO","CD_SITU_SECAO":1,"DS_SITU_SECAO":"ATIVO","CD_SITU_LOCALIDADE":1,"DS_SITU_LOCALIDADE":"ATIVO","CD_SITU_SECAO_ACESSIBILIDADE":1,"DS_SITU_SECAO_ACESSIBILIDADE":"Com acessibilidade","QT_ELEITOR_SECAO":285,"QT_ELEITOR_ELEICAO_FEDERAL":0,"QT_ELEITOR_ELEICAO_ESTADUAL":0,"QT_ELEITOR_ELEICAO_MUNICIPAL":0,"NR_LOCAL_VOTACAO_ORIGINAL":1147,"NM_LOCAL_VOTACAO_ORIGINAL":"ESCOLA MUNICIPAL SAO SILVESTRE","DS_ENDERECO_LOCVT_ORIGINAL":"POVOADO CURRAL DE VARAS"},"geometry":{"type":"Point","coordinates":[-45.0485138,-3.3417907]}},{"type":"Feature","properties":{"fid":56,"DT_GERACAO":"01/09/2026","HH_GERACAO":"15:18:02","AA_ELEICAO":9999,"DT_ELEICAO":null,"DS_ELEICAO":"#NULO","NR_TURNO":-1,"SG_UF":"MA","CD_MUNICIPIO":7471,"NM_MUNICIPIO":"CAJARI","NR_ZONA":20,"NR_SECAO":231,"CD_TIPO_SECAO_AGREGADA":-1,"DS_TIPO_SECAO_AGREGADA":"#NULO","NR_SECAO_PRINCIPAL":-1,"NR_LOCAL_VOTACAO":1171,"NM_LOCAL_VOTACAO":"ESCOLA MUNICIPAL NOSSA SENHORA DE FATIMA","CD_TIPO_LOCAL":-1,"DS_TIPO_LOCAL":"#NULO","DS_ENDERECO":"POVOADO ZE MARIA","NM_BAIRRO":"POVOADO ZÉ MARIA - ZONA RURAL","NR_CEP":65210000,"NR_TELEFONE_LOCAL":"-1","NR_LATITUDE":-3.4821188,"NR_LONGITUDE":-45.0540643,"CD_SITU_LOCAL_VOTACAO":1,"DS_SITU_LOCAL_VOTACAO":"ATIVO","CD_SITU_ZONA":-1,"DS_SITU_ZONA":"ATIVO","CD_SITU_SECAO":1,"DS_SITU_SECAO":"ATIVO","CD_SITU_LOCALIDADE":1,"DS_SITU_LOCALIDADE":"ATIVO","CD_SITU_SECAO_ACESSIBILIDADE":1,"DS_SITU_SECAO_ACESSIBILIDADE":"Com acessibilidade","QT_ELEITOR_SECAO":252,"QT_ELEITOR_ELEICAO_FEDERAL":0,"QT_ELEITOR_ELEICAO_ESTADUAL":0,"QT_ELEITOR_ELEICAO_MUNICIPAL":0,"NR_LOCAL_VOTACAO_ORIGINAL":1171,"NM_LOCAL_VOTACAO_ORIGINAL":"ESCOLA MUNICIPAL NOSSA SENHORA DE FATIMA","DS_ENDERECO_LOCVT_ORIGINAL":"POVOADO ZE MARIA"},"geometry":{"type":"Point","coordinates":[-45.0540643,-3.4821188]}},{"type":"Feature","properties":{"fid":57,"DT_GERACAO":"01/09/2026","HH_GERACAO":"15:18:02","AA_ELEICAO":9999,"DT_ELEICAO":null,"DS_ELEICAO":"#NULO","NR_TURNO":-1,"SG_UF":"MA","CD_MUNICIPIO":7471,"NM_MUNICIPIO":"CAJARI","NR_ZONA":20,"NR_SECAO":120,"CD_TIPO_SECAO_AGREGADA":-1,"DS_TIPO_SECAO_AGREGADA":"#NULO","NR_SECAO_PRINCIPAL":-1,"NR_LOCAL_VOTACAO":1015,"NM_LOCAL_VOTACAO":"UNIDADE INTEGRADA PADRE JOSE ANCHIETA","CD_TIPO_LOCAL":-1,"DS_TIPO_LOCAL":"#NULO","DS_ENDERECO":"RUA MANOEL CLODOMIR SEREJO S/N","NM_BAIRRO":"CENTRO- ZONA URBANA","NR_CEP":65210000,"NR_TELEFONE_LOCAL":"-1","NR_LATITUDE":-3.3222589,"NR_LONGITUDE":-45.0123729,"CD_SITU_LOCAL_VOTACAO":1,"DS_SITU_LOCAL_VOTACAO":"ATIVO","CD_SITU_ZONA":-1,"DS_SITU_ZONA":"ATIVO","CD_SITU_SECAO":1,"DS_SITU_SECAO":"ATIVO","CD_SITU_LOCALIDADE":1,"DS_SITU_LOCALIDADE":"ATIVO","CD_SITU_SECAO_ACESSIBILIDADE":1,"DS_SITU_SECAO_ACESSIBILIDADE":"Com acessibilidade","QT_ELEITOR_SECAO":265,"QT_ELEITOR_ELEICAO_FEDERAL":0,"QT_ELEITOR_ELEICAO_ESTADUAL":0,"QT_ELEITOR_ELEICAO_MUNICIPAL":0,"NR_LOCAL_VOTACAO_ORIGINAL":1015,"NM_LOCAL_VOTACAO_ORIGINAL":"UNIDADE INTEGRADA PADRE JOSE ANCHIETA","DS_ENDERECO_LOCVT_ORIGINAL":"RUA MANOEL CLODOMIR SEREJO S/N"},"geometry":{"type":"Point","coordinates":[-45.0123729,-3.3222589]}},{"type":"Feature","properties":{"fid":58,"DT_GERACAO":"01/09/2026","HH_GERACAO":"15:18:02","AA_ELEICAO":9999,"DT_ELEICAO":null,"DS_ELEICAO":"#NULO","NR_TURNO":-1,"SG_UF":"MA","CD_MUNICIPIO":7471,"NM_MUNICIPIO":"CAJARI","NR_ZONA":20,"NR_SECAO":246,"CD_TIPO_SECAO_AGREGADA":-1,"DS_TIPO_SECAO_AGREGADA":"#NULO","NR_SECAO_PRINCIPAL":-1,"NR_LOCAL_VOTACAO":1295,"NM_LOCAL_VOTACAO":"ESCOLA MUNICIPAL LUIZ GONZAGA SOUZA FERREIRA ","CD_TIPO_LOCAL":-1,"DS_TIPO_LOCAL":"#NULO","DS_ENDERECO":"POVOADO VILA PALMEIRA","NM_BAIRRO":"ZONA RURAL","NR_CEP":65210000,"NR_TELEFONE_LOCAL":"98981783718","NR_LATITUDE":-3.5344716,"NR_LONGITUDE":-45.0807179,"CD_SITU_LOCAL_VOTACAO":1,"DS_SITU_LOCAL_VOTACAO":"ATIVO","CD_SITU_ZONA":-1,"DS_SITU_ZONA":"ATIVO","CD_SITU_SECAO":1,"DS_SITU_SECAO":"ATIVO","CD_SITU_LOCALIDADE":1,"DS_SITU_LOCALIDADE":"ATIVO","CD_SITU_SECAO_ACESSIBILIDADE":0,"DS_SITU_SECAO_ACESSIBILIDADE":"Sem acessibilidade","QT_ELEITOR_SECAO":248,"QT_ELEITOR_ELEICAO_FEDERAL":0,"QT_ELEITOR_ELEICAO_ESTADUAL":0,"QT_ELEITOR_ELEICAO_MUNICIPAL":0,"NR_LOCAL_VOTACAO_ORIGINAL":1295,"NM_LOCAL_VOTACAO_ORIGINAL":"ESCOLA MUNICIPAL LUIZ GONZAGA SOUZA FERREIRA ","DS_ENDERECO_LOCVT_ORIGINAL":"POVOADO VILA PALMEIRA"},"geometry":{"type":"Point","coordinates":[-45.0807179,-3.5344716]}},{"type":"Feature","properties":{"fid":59,"DT_GERACAO":"01/09/2026","HH_GERACAO":"15:18:02","AA_ELEICAO":9999,"DT_ELEICAO":null,"DS_ELEICAO":"#NULO","NR_TURNO":-1,"SG_UF":"MA","CD_MUNICIPIO":7471,"NM_MUNICIPIO":"CAJARI","NR_ZONA":20,"NR_SECAO":121,"CD_TIPO_SECAO_AGREGADA":-1,"DS_TIPO_SECAO_AGREGADA":"#NULO","NR_SECAO_PRINCIPAL":-1,"NR_LOCAL_VOTACAO":1015,"NM_LOCAL_VOTACAO":"UNIDADE INTEGRADA PADRE JOSE ANCHIETA","CD_TIPO_LOCAL":-1,"DS_TIPO_LOCAL":"#NULO","DS_ENDERECO":"RUA MANOEL CLODOMIR SEREJO S/N","NM_BAIRRO":"CENTRO- ZONA URBANA","NR_CEP":65210000,"NR_TELEFONE_LOCAL":"-1","NR_LATITUDE":-3.3222589,"NR_LONGITUDE":-45.0123729,"CD_SITU_LOCAL_VOTACAO":1,"DS_SITU_LOCAL_VOTACAO":"ATIVO","CD_SITU_ZONA":-1,"DS_SITU_ZONA":"ATIVO","CD_SITU_SECAO":1,"DS_SITU_SECAO":"ATIVO","CD_SITU_LOCALIDADE":1,"DS_SITU_LOCALIDADE":"ATIVO","CD_SITU_SECAO_ACESSIBILIDADE":1,"DS_SITU_SECAO_ACESSIBILIDADE":"Com acessibilidade","QT_ELEITOR_SECAO":263,"QT_ELEITOR_ELEICAO_FEDERAL":0,"QT_ELEITOR_ELEICAO_ESTADUAL":0,"QT_ELEITOR_ELEICAO_MUNICIPAL":0,"NR_LOCAL_VOTACAO_ORIGINAL":1015,"NM_LOCAL_VOTACAO_ORIGINAL":"UNIDADE INTEGRADA PADRE JOSE ANCHIETA","DS_ENDERECO_LOCVT_ORIGINAL":"RUA MANOEL CLODOMIR SEREJO S/N"},"geometry":{"type":"Point","coordinates":[-45.0123729,-3.3222589]}},{"type":"Feature","properties":{"fid":60,"DT_GERACAO":"01/09/2026","HH_GERACAO":"15:18:02","AA_ELEICAO":9999,"DT_ELEICAO":null,"DS_ELEICAO":"#NULO","NR_TURNO":-1,"SG_UF":"MA","CD_MUNICIPIO":7471,"NM_MUNICIPIO":"CAJARI","NR_ZONA":20,"NR_SECAO":152,"CD_TIPO_SECAO_AGREGADA":-1,"DS_TIPO_SECAO_AGREGADA":"#NULO","NR_SECAO_PRINCIPAL":-1,"NR_LOCAL_VOTACAO":1180,"NM_LOCAL_VOTACAO":"ESCOLA MUNICIPAL RAIMUNDO LOBAO","CD_TIPO_LOCAL":-1,"DS_TIPO_LOCAL":"#NULO","DS_ENDERECO":"POVOADO GAMELEIRA","NM_BAIRRO":"POVOADO GAMELEIRA- ZONA RURAL","NR_CEP":65210000,"NR_TELEFONE_LOCAL":"-1","NR_LATITUDE":-3.5456657,"NR_LONGITUDE":-45.0364344,"CD_SITU_LOCAL_VOTACAO":1,"DS_SITU_LOCAL_VOTACAO":"ATIVO","CD_SITU_ZONA":-1,"DS_SITU_ZONA":"ATIVO","CD_SITU_SECAO":1,"DS_SITU_SECAO":"ATIVO","CD_SITU_LOCALIDADE":1,"DS_SITU_LOCALIDADE":"ATIVO","CD_SITU_SECAO_ACESSIBILIDADE":1,"DS_SITU_SECAO_ACESSIBILIDADE":"Com acessibilidade","QT_ELEITOR_SECAO":286,"QT_ELEITOR_ELEICAO_FEDERAL":0,"QT_ELEITOR_ELEICAO_ESTADUAL":0,"QT_ELEITOR_ELEICAO_MUNICIPAL":0,"NR_LOCAL_VOTACAO_ORIGINAL":1180,"NM_LOCAL_VOTACAO_ORIGINAL":"ESCOLA MUNICIPAL RAIMUNDO LOBAO","DS_ENDERECO_LOCVT_ORIGINAL":"POVOADO GAMELEIRA"},"geometry":{"type":"Point","coordinates":[-45.0364344,-3.5456657]}},{"type":"Feature","properties":{"fid":61,"DT_GERACAO":"01/09/2026","HH_GERACAO":"15:18:02","AA_ELEICAO":9999,"DT_ELEICAO":null,"DS_ELEICAO":"#NULO","NR_TURNO":-1,"SG_UF":"MA","CD_MUNICIPIO":7471,"NM_MUNICIPIO":"CAJARI","NR_ZONA":20,"NR_SECAO":119,"CD_TIPO_SECAO_AGREGADA":-1,"DS_TIPO_SECAO_AGREGADA":"#NULO","NR_SECAO_PRINCIPAL":-1,"NR_LOCAL_VOTACAO":1015,"NM_LOCAL_VOTACAO":"UNIDADE INTEGRADA PADRE JOSE ANCHIETA","CD_TIPO_LOCAL":-1,"DS_TIPO_LOCAL":"#NULO","DS_ENDERECO":"RUA MANOEL CLODOMIR SEREJO S/N","NM_BAIRRO":"CENTRO- ZONA URBANA","NR_CEP":65210000,"NR_TELEFONE_LOCAL":"-1","NR_LATITUDE":-3.3222589,"NR_LONGITUDE":-45.0123729,"CD_SITU_LOCAL_VOTACAO":1,"DS_SITU_LOCAL_VOTACAO":"ATIVO","CD_SITU_ZONA":-1,"DS_SITU_ZONA":"ATIVO","CD_SITU_SECAO":1,"DS_SITU_SECAO":"ATIVO","CD_SITU_LOCALIDADE":1,"DS_SITU_LOCALIDADE":"ATIVO","CD_SITU_SECAO_ACESSIBILIDADE":1,"DS_SITU_SECAO_ACESSIBILIDADE":"Com acessibilidade","QT_ELEITOR_SECAO":262,"QT_ELEITOR_ELEICAO_FEDERAL":0,"QT_ELEITOR_ELEICAO_ESTADUAL":0,"QT_ELEITOR_ELEICAO_MUNICIPAL":0,"NR_LOCAL_VOTACAO_ORIGINAL":1015,"NM_LOCAL_VOTACAO_ORIGINAL":"UNIDADE INTEGRADA PADRE JOSE ANCHIETA","DS_ENDERECO_LOCVT_ORIGINAL":"RUA MANOEL CLODOMIR SEREJO S/N"},"geometry":{"type":"Point","coordinates":[-45.0123729,-3.3222589]}},{"type":"Feature","properties":{"fid":62,"DT_GERACAO":"01/09/2026","HH_GERACAO":"15:18:02","AA_ELEICAO":9999,"DT_ELEICAO":null,"DS_ELEICAO":"#NULO","NR_TURNO":-1,"SG_UF":"MA","CD_MUNICIPIO":7471,"NM_MUNICIPIO":"CAJARI","NR_ZONA":20,"NR_SECAO":228,"CD_TIPO_SECAO_AGREGADA":-1,"DS_TIPO_SECAO_AGREGADA":"#NULO","NR_SECAO_PRINCIPAL":-1,"NR_LOCAL_VOTACAO":1031,"NM_LOCAL_VOTACAO":"ESCOLA MUNICIPAL SANTO EXPEDITO","CD_TIPO_LOCAL":-1,"DS_TIPO_LOCAL":"#NULO","DS_ENDERECO":"POVOADO CAMBUCA            S/N","NM_BAIRRO":"POVOADO CAMBUCA- ZONA RURAL","NR_CEP":65210000,"NR_TELEFONE_LOCAL":"-1","NR_LATITUDE":-3.3647337,"NR_LONGITUDE":-45.092506,"CD_SITU_LOCAL_VOTACAO":1,"DS_SITU_LOCAL_VOTACAO":"ATIVO","CD_SITU_ZONA":-1,"DS_SITU_ZONA":"ATIVO","CD_SITU_SECAO":1,"DS_SITU_SECAO":"ATIVO","CD_SITU_LOCALIDADE":1,"DS_SITU_LOCALIDADE":"ATIVO","CD_SITU_SECAO_ACESSIBILIDADE":1,"DS_SITU_SECAO_ACESSIBILIDADE":"Com acessibilidade","QT_ELEITOR_SECAO":244,"QT_ELEITOR_ELEICAO_FEDERAL":0,"QT_ELEITOR_ELEICAO_ESTADUAL":0,"QT_ELEITOR_ELEICAO_MUNICIPAL":0,"NR_LOCAL_VOTACAO_ORIGINAL":1031,"NM_LOCAL_VOTACAO_ORIGINAL":"ESCOLA MUNICIPAL SANTO EXPEDITO","DS_ENDERECO_LOCVT_ORIGINAL":"POVOADO CAMBUCA            S/N"},"geometry":{"type":"Point","coordinates":[-45.092506,-3.3647337]}},{"type":"Feature","properties":{"fid":63,"DT_GERACAO":"01/09/2026","HH_GERACAO":"15:18:02","AA_ELEICAO":9999,"DT_ELEICAO":null,"DS_ELEICAO":"#NULO","NR_TURNO":-1,"SG_UF":"MA","CD_MUNICIPIO":7471,"NM_MUNICIPIO":"CAJARI","NR_ZONA":20,"NR_SECAO":123,"CD_TIPO_SECAO_AGREGADA":-1,"DS_TIPO_SECAO_AGREGADA":"#NULO","NR_SECAO_PRINCIPAL":-1,"NR_LOCAL_VOTACAO":1015,"NM_LOCAL_VOTACAO":"UNIDADE INTEGRADA PADRE JOSE ANCHIETA","CD_TIPO_LOCAL":-1,"DS_TIPO_LOCAL":"#NULO","DS_ENDERECO":"RUA MANOEL CLODOMIR SEREJO S/N","NM_BAIRRO":"CENTRO- ZONA URBANA","NR_CEP":65210000,"NR_TELEFONE_LOCAL":"-1","NR_LATITUDE":-3.3222589,"NR_LONGITUDE":-45.0123729,"CD_SITU_LOCAL_VOTACAO":1,"DS_SITU_LOCAL_VOTACAO":"ATIVO","CD_SITU_ZONA":-1,"DS_SITU_ZONA":"ATIVO","CD_SITU_SECAO":1,"DS_SITU_SECAO":"ATIVO","CD_SITU_LOCALIDADE":1,"DS_SITU_LOCALIDADE":"ATIVO","CD_SITU_SECAO_ACESSIBILIDADE":1,"DS_SITU_SECAO_ACESSIBILIDADE":"Com acessibilidade","QT_ELEITOR_SECAO":263,"QT_ELEITOR_ELEICAO_FEDERAL":0,"QT_ELEITOR_ELEICAO_ESTADUAL":0,"QT_ELEITOR_ELEICAO_MUNICIPAL":0,"NR_LOCAL_VOTACAO_ORIGINAL":1015,"NM_LOCAL_VOTACAO_ORIGINAL":"UNIDADE INTEGRADA PADRE JOSE ANCHIETA","DS_ENDERECO_LOCVT_ORIGINAL":"RUA MANOEL CLODOMIR SEREJO S/N"},"geometry":{"type":"Point","coordinates":[-45.0123729,-3.3222589]}}]}